<?xml version="1.0"?>
<gpx xmlns="http://www.topografix.com/GPX/1/1" xmlns:xsi="http://www.w3.org/2001/XMLSchema-instance" version="1.1" creator="AllTrails.com" xsi:schemaLocation="http://www.topografix.com/GPX/1/1 http://www.topografix.com/GPX/1/1/gpx.xsd">
  <metadata>
    <name><![CDATA[Grand Brûlé Loop]]></name>
    <desc><![CDATA[]]></desc>
    <link href="http://www.alltrails.com">
      <text>AllTrails, LLC</text>
    </link>
    <bounds minlat="46.20804" minlon="-74.58459" maxlat="46.22053" maxlon="-74.54801"/>
  </metadata>
  <wpt lat="46.220066" lon="-74.5561435">
    <name><![CDATA[Point de vue]]></name>
    <desc><![CDATA[]]></desc>
  </wpt>
  <trk>
    <name><![CDATA[Grand Brûlé Loop]]></name>
    <src>AllTrails</src>
    <trkseg>
      <trkpt lat="46.21335" lon="-74.58459">
        <ele>260.23</ele>
      </trkpt>
      <trkpt lat="46.21334" lon="-74.58457">
        <ele>260.55</ele>
      </trkpt>
      <trkpt lat="46.21331" lon="-74.58455">
        <ele>260.74</ele>
      </trkpt>
      <trkpt lat="46.21336" lon="-74.58417">
        <ele>258.04</ele>
      </trkpt>
      <trkpt lat="46.21335" lon="-74.58405">
        <ele>257.61</ele>
      </trkpt>
      <trkpt lat="46.21334" lon="-74.58391">
        <ele>257.1</ele>
      </trkpt>
      <trkpt lat="46.21335" lon="-74.58384">
        <ele>257.08</ele>
      </trkpt>
      <trkpt lat="46.21338" lon="-74.58374">
        <ele>257.35</ele>
      </trkpt>
      <trkpt lat="46.21342" lon="-74.58368">
        <ele>257.78</ele>
      </trkpt>
      <trkpt lat="46.21345" lon="-74.58363">
        <ele>258.2</ele>
      </trkpt>
      <trkpt lat="46.21347" lon="-74.58358">
        <ele>259.03</ele>
      </trkpt>
      <trkpt lat="46.21348" lon="-74.58355">
        <ele>259.7</ele>
      </trkpt>
      <trkpt lat="46.21348" lon="-74.58348">
        <ele>260.97</ele>
      </trkpt>
      <trkpt lat="46.21346" lon="-74.5834">
        <ele>262.1</ele>
      </trkpt>
      <trkpt lat="46.21345" lon="-74.58329">
        <ele>264.44</ele>
      </trkpt>
      <trkpt lat="46.21345" lon="-74.5832">
        <ele>267.22</ele>
      </trkpt>
      <trkpt lat="46.21345" lon="-74.58315">
        <ele>268.76</ele>
      </trkpt>
      <trkpt lat="46.21347" lon="-74.5831">
        <ele>270.61</ele>
      </trkpt>
      <trkpt lat="46.21352" lon="-74.58302">
        <ele>273.33</ele>
      </trkpt>
      <trkpt lat="46.21356" lon="-74.58293">
        <ele>275.32</ele>
      </trkpt>
      <trkpt lat="46.21357" lon="-74.58287">
        <ele>276.38</ele>
      </trkpt>
      <trkpt lat="46.21357" lon="-74.5828">
        <ele>277.5</ele>
      </trkpt>
      <trkpt lat="46.21361" lon="-74.58264">
        <ele>280.96</ele>
      </trkpt>
      <trkpt lat="46.21364" lon="-74.58263">
        <ele>281.41</ele>
      </trkpt>
      <trkpt lat="46.21368" lon="-74.58263">
        <ele>281.72</ele>
      </trkpt>
      <trkpt lat="46.21373" lon="-74.58263">
        <ele>282.1</ele>
      </trkpt>
      <trkpt lat="46.21378" lon="-74.58259">
        <ele>283.7</ele>
      </trkpt>
      <trkpt lat="46.21383" lon="-74.58256">
        <ele>285.18</ele>
      </trkpt>
      <trkpt lat="46.21388" lon="-74.58254">
        <ele>286.45</ele>
      </trkpt>
      <trkpt lat="46.21392" lon="-74.58252">
        <ele>288.29</ele>
      </trkpt>
      <trkpt lat="46.21395" lon="-74.58247">
        <ele>290.56</ele>
      </trkpt>
      <trkpt lat="46.21397" lon="-74.58241">
        <ele>292.29</ele>
      </trkpt>
      <trkpt lat="46.21397" lon="-74.58234">
        <ele>293.58</ele>
      </trkpt>
      <trkpt lat="46.21397" lon="-74.58234">
        <ele>293.58</ele>
      </trkpt>
      <trkpt lat="46.21397" lon="-74.58234">
        <ele>293.58</ele>
      </trkpt>
      <trkpt lat="46.21397" lon="-74.58227">
        <ele>294.87</ele>
      </trkpt>
      <trkpt lat="46.21397" lon="-74.5822">
        <ele>296.51</ele>
      </trkpt>
      <trkpt lat="46.21396" lon="-74.58213">
        <ele>298.69</ele>
      </trkpt>
      <trkpt lat="46.21395" lon="-74.58206">
        <ele>300.9</ele>
      </trkpt>
      <trkpt lat="46.21395" lon="-74.58199">
        <ele>303.31</ele>
      </trkpt>
      <trkpt lat="46.21396" lon="-74.58195">
        <ele>304.83</ele>
      </trkpt>
      <trkpt lat="46.214" lon="-74.58196">
        <ele>305.08</ele>
      </trkpt>
      <trkpt lat="46.21405" lon="-74.58196">
        <ele>305.82</ele>
      </trkpt>
      <trkpt lat="46.21409" lon="-74.58196">
        <ele>306.42</ele>
      </trkpt>
      <trkpt lat="46.21414" lon="-74.58195">
        <ele>307.45</ele>
      </trkpt>
      <trkpt lat="46.21419" lon="-74.58191">
        <ele>309.97</ele>
      </trkpt>
      <trkpt lat="46.21422" lon="-74.58186">
        <ele>312.44</ele>
      </trkpt>
      <trkpt lat="46.21426" lon="-74.58182">
        <ele>314.67</ele>
      </trkpt>
      <trkpt lat="46.2143" lon="-74.58179">
        <ele>316.42</ele>
      </trkpt>
      <trkpt lat="46.21435" lon="-74.58176">
        <ele>318.17</ele>
      </trkpt>
      <trkpt lat="46.21436" lon="-74.58175">
        <ele>318.55</ele>
      </trkpt>
      <trkpt lat="46.21436" lon="-74.58175">
        <ele>318.55</ele>
      </trkpt>
      <trkpt lat="46.21442" lon="-74.58174">
        <ele>319.96</ele>
      </trkpt>
      <trkpt lat="46.21446" lon="-74.58172">
        <ele>320.9</ele>
      </trkpt>
      <trkpt lat="46.21451" lon="-74.5817">
        <ele>321.94</ele>
      </trkpt>
      <trkpt lat="46.21455" lon="-74.58167">
        <ele>322.88</ele>
      </trkpt>
      <trkpt lat="46.2146" lon="-74.58164">
        <ele>324.23</ele>
      </trkpt>
      <trkpt lat="46.21463" lon="-74.58159">
        <ele>325.54</ele>
      </trkpt>
      <trkpt lat="46.21466" lon="-74.58154">
        <ele>326.81</ele>
      </trkpt>
      <trkpt lat="46.21468" lon="-74.58148">
        <ele>328.03</ele>
      </trkpt>
      <trkpt lat="46.2147" lon="-74.58145">
        <ele>328.78</ele>
      </trkpt>
      <trkpt lat="46.2147" lon="-74.58146">
        <ele>328.64</ele>
      </trkpt>
      <trkpt lat="46.21474" lon="-74.58146">
        <ele>329.23</ele>
      </trkpt>
      <trkpt lat="46.21479" lon="-74.58146">
        <ele>329.95</ele>
      </trkpt>
      <trkpt lat="46.21483" lon="-74.58147">
        <ele>330.38</ele>
      </trkpt>
      <trkpt lat="46.21488" lon="-74.58147">
        <ele>331.1</ele>
      </trkpt>
      <trkpt lat="46.21493" lon="-74.58145">
        <ele>332.11</ele>
      </trkpt>
      <trkpt lat="46.21496" lon="-74.5814">
        <ele>333.26</ele>
      </trkpt>
      <trkpt lat="46.21499" lon="-74.58135">
        <ele>334.14</ele>
      </trkpt>
      <trkpt lat="46.21501" lon="-74.58128">
        <ele>334.93</ele>
      </trkpt>
      <trkpt lat="46.21502" lon="-74.58122">
        <ele>335.5</ele>
      </trkpt>
      <trkpt lat="46.21499" lon="-74.58115">
        <ele>335.61</ele>
      </trkpt>
      <trkpt lat="46.21497" lon="-74.5811">
        <ele>335.79</ele>
      </trkpt>
      <trkpt lat="46.21495" lon="-74.58103">
        <ele>336.23</ele>
      </trkpt>
      <trkpt lat="46.21493" lon="-74.58097">
        <ele>336.51</ele>
      </trkpt>
      <trkpt lat="46.21493" lon="-74.58092">
        <ele>336.96</ele>
      </trkpt>
      <trkpt lat="46.21493" lon="-74.58091">
        <ele>337.05</ele>
      </trkpt>
      <trkpt lat="46.21497" lon="-74.58086">
        <ele>338.19</ele>
      </trkpt>
      <trkpt lat="46.21499" lon="-74.58085">
        <ele>338.64</ele>
      </trkpt>
      <trkpt lat="46.21502" lon="-74.58084">
        <ele>339.43</ele>
      </trkpt>
      <trkpt lat="46.2151" lon="-74.58085">
        <ele>341.28</ele>
      </trkpt>
      <trkpt lat="46.21519" lon="-74.58089">
        <ele>342.76</ele>
      </trkpt>
      <trkpt lat="46.21527" lon="-74.58089">
        <ele>344.6</ele>
      </trkpt>
      <trkpt lat="46.21534" lon="-74.58086">
        <ele>346.52</ele>
      </trkpt>
      <trkpt lat="46.21542" lon="-74.58083">
        <ele>348.58</ele>
      </trkpt>
      <trkpt lat="46.21548" lon="-74.58079">
        <ele>349.91</ele>
      </trkpt>
      <trkpt lat="46.21554" lon="-74.58074">
        <ele>351.37</ele>
      </trkpt>
      <trkpt lat="46.21562" lon="-74.58062">
        <ele>353.11</ele>
      </trkpt>
      <trkpt lat="46.2157" lon="-74.58042">
        <ele>354.29</ele>
      </trkpt>
      <trkpt lat="46.2157" lon="-74.58042">
        <ele>354.29</ele>
      </trkpt>
      <trkpt lat="46.21577" lon="-74.58003">
        <ele>356.9</ele>
      </trkpt>
      <trkpt lat="46.2158" lon="-74.57962">
        <ele>361.07</ele>
      </trkpt>
      <trkpt lat="46.2158" lon="-74.57925">
        <ele>365.54</ele>
      </trkpt>
      <trkpt lat="46.2158" lon="-74.57885">
        <ele>368.87</ele>
      </trkpt>
      <trkpt lat="46.2158" lon="-74.57885">
        <ele>368.87</ele>
      </trkpt>
      <trkpt lat="46.2158" lon="-74.57873">
        <ele>369.94</ele>
      </trkpt>
      <trkpt lat="46.2158" lon="-74.57819">
        <ele>377.79</ele>
      </trkpt>
      <trkpt lat="46.21584" lon="-74.57772">
        <ele>387.42</ele>
      </trkpt>
      <trkpt lat="46.21589" lon="-74.57711">
        <ele>400.63</ele>
      </trkpt>
      <trkpt lat="46.21589" lon="-74.57711">
        <ele>400.63</ele>
      </trkpt>
      <trkpt lat="46.21591" lon="-74.57699">
        <ele>402.38</ele>
      </trkpt>
      <trkpt lat="46.21595" lon="-74.5769">
        <ele>404.17</ele>
      </trkpt>
      <trkpt lat="46.21601" lon="-74.5768">
        <ele>406.3</ele>
      </trkpt>
      <trkpt lat="46.21607" lon="-74.57675">
        <ele>408.26</ele>
      </trkpt>
      <trkpt lat="46.21613" lon="-74.5767">
        <ele>410.17</ele>
      </trkpt>
      <trkpt lat="46.21623" lon="-74.57662">
        <ele>412.57</ele>
      </trkpt>
      <trkpt lat="46.21629" lon="-74.57655">
        <ele>413.86</ele>
      </trkpt>
      <trkpt lat="46.21635" lon="-74.57647">
        <ele>415.16</ele>
      </trkpt>
      <trkpt lat="46.21644" lon="-74.57629">
        <ele>417.7</ele>
      </trkpt>
      <trkpt lat="46.21653" lon="-74.57606">
        <ele>421.51</ele>
      </trkpt>
      <trkpt lat="46.21667" lon="-74.57574">
        <ele>427.77</ele>
      </trkpt>
      <trkpt lat="46.21675" lon="-74.57556">
        <ele>431.37</ele>
      </trkpt>
      <trkpt lat="46.21678" lon="-74.57556">
        <ele>432.23</ele>
      </trkpt>
      <trkpt lat="46.21682" lon="-74.57551">
        <ele>433.65</ele>
      </trkpt>
      <trkpt lat="46.21685" lon="-74.57547">
        <ele>434.69</ele>
      </trkpt>
      <trkpt lat="46.21688" lon="-74.57542">
        <ele>435.75</ele>
      </trkpt>
      <trkpt lat="46.21691" lon="-74.57536">
        <ele>436.8</ele>
      </trkpt>
      <trkpt lat="46.21693" lon="-74.57529">
        <ele>437.59</ele>
      </trkpt>
      <trkpt lat="46.21695" lon="-74.57523">
        <ele>438.11</ele>
      </trkpt>
      <trkpt lat="46.21697" lon="-74.57516">
        <ele>438.54</ele>
      </trkpt>
      <trkpt lat="46.21699" lon="-74.5751">
        <ele>439.03</ele>
      </trkpt>
      <trkpt lat="46.21701" lon="-74.57504">
        <ele>439.58</ele>
      </trkpt>
      <trkpt lat="46.21702" lon="-74.575">
        <ele>439.9</ele>
      </trkpt>
      <trkpt lat="46.21701" lon="-74.57499">
        <ele>439.62</ele>
      </trkpt>
      <trkpt lat="46.21707" lon="-74.57486">
        <ele>440.66</ele>
      </trkpt>
      <trkpt lat="46.21717" lon="-74.57453">
        <ele>442.12</ele>
      </trkpt>
      <trkpt lat="46.2173" lon="-74.57401">
        <ele>447.65</ele>
      </trkpt>
      <trkpt lat="46.21749" lon="-74.57335">
        <ele>461.54</ele>
      </trkpt>
      <trkpt lat="46.21765" lon="-74.57287">
        <ele>471.02</ele>
      </trkpt>
      <trkpt lat="46.2177" lon="-74.57274">
        <ele>473.83</ele>
      </trkpt>
      <trkpt lat="46.2177" lon="-74.57274">
        <ele>473.83</ele>
      </trkpt>
      <trkpt lat="46.21779" lon="-74.57253">
        <ele>478.18</ele>
      </trkpt>
      <trkpt lat="46.21793" lon="-74.57218">
        <ele>486.98</ele>
      </trkpt>
      <trkpt lat="46.21793" lon="-74.57216">
        <ele>487.26</ele>
      </trkpt>
      <trkpt lat="46.21793" lon="-74.5721">
        <ele>488.1</ele>
      </trkpt>
      <trkpt lat="46.21795" lon="-74.57203">
        <ele>489.56</ele>
      </trkpt>
      <trkpt lat="46.21797" lon="-74.57197">
        <ele>490.82</ele>
      </trkpt>
      <trkpt lat="46.21799" lon="-74.5719">
        <ele>492.14</ele>
      </trkpt>
      <trkpt lat="46.21801" lon="-74.57184">
        <ele>493.27</ele>
      </trkpt>
      <trkpt lat="46.21804" lon="-74.57177">
        <ele>494.62</ele>
      </trkpt>
      <trkpt lat="46.21807" lon="-74.57172">
        <ele>495.85</ele>
      </trkpt>
      <trkpt lat="46.2181" lon="-74.57167">
        <ele>497.25</ele>
      </trkpt>
      <trkpt lat="46.21813" lon="-74.5716">
        <ele>499.17</ele>
      </trkpt>
      <trkpt lat="46.21814" lon="-74.57154">
        <ele>500.39</ele>
      </trkpt>
      <trkpt lat="46.21815" lon="-74.5715">
        <ele>501.32</ele>
      </trkpt>
      <trkpt lat="46.21815" lon="-74.57146">
        <ele>501.95</ele>
      </trkpt>
      <trkpt lat="46.21816" lon="-74.5714">
        <ele>503.21</ele>
      </trkpt>
      <trkpt lat="46.21818" lon="-74.57133">
        <ele>504.73</ele>
      </trkpt>
      <trkpt lat="46.21821" lon="-74.57128">
        <ele>506.05</ele>
      </trkpt>
      <trkpt lat="46.21824" lon="-74.57122">
        <ele>507.2</ele>
      </trkpt>
      <trkpt lat="46.21826" lon="-74.57117">
        <ele>507.87</ele>
      </trkpt>
      <trkpt lat="46.21829" lon="-74.5711">
        <ele>508.61</ele>
      </trkpt>
      <trkpt lat="46.2183" lon="-74.57103">
        <ele>509.19</ele>
      </trkpt>
      <trkpt lat="46.21831" lon="-74.57096">
        <ele>509.79</ele>
      </trkpt>
      <trkpt lat="46.21833" lon="-74.57089">
        <ele>510.55</ele>
      </trkpt>
      <trkpt lat="46.21834" lon="-74.57083">
        <ele>511.22</ele>
      </trkpt>
      <trkpt lat="46.21835" lon="-74.57079">
        <ele>511.77</ele>
      </trkpt>
      <trkpt lat="46.21833" lon="-74.5704">
        <ele>513.0</ele>
      </trkpt>
      <trkpt lat="46.21833" lon="-74.57039">
        <ele>513.0</ele>
      </trkpt>
      <trkpt lat="46.21834" lon="-74.57032">
        <ele>513.18</ele>
      </trkpt>
      <trkpt lat="46.21835" lon="-74.57024">
        <ele>514.27</ele>
      </trkpt>
      <trkpt lat="46.21836" lon="-74.57018">
        <ele>515.78</ele>
      </trkpt>
      <trkpt lat="46.21838" lon="-74.57011">
        <ele>517.66</ele>
      </trkpt>
      <trkpt lat="46.21839" lon="-74.57005">
        <ele>519.05</ele>
      </trkpt>
      <trkpt lat="46.2184" lon="-74.56998">
        <ele>520.82</ele>
      </trkpt>
      <trkpt lat="46.2184" lon="-74.56991">
        <ele>522.97</ele>
      </trkpt>
      <trkpt lat="46.21841" lon="-74.56985">
        <ele>524.89</ele>
      </trkpt>
      <trkpt lat="46.21844" lon="-74.56981">
        <ele>526.18</ele>
      </trkpt>
      <trkpt lat="46.21846" lon="-74.56975">
        <ele>527.82</ele>
      </trkpt>
      <trkpt lat="46.21849" lon="-74.5697">
        <ele>528.83</ele>
      </trkpt>
      <trkpt lat="46.21853" lon="-74.56966">
        <ele>529.32</ele>
      </trkpt>
      <trkpt lat="46.21857" lon="-74.56963">
        <ele>529.57</ele>
      </trkpt>
      <trkpt lat="46.21862" lon="-74.5696">
        <ele>529.7</ele>
      </trkpt>
      <trkpt lat="46.21867" lon="-74.5696">
        <ele>529.34</ele>
      </trkpt>
      <trkpt lat="46.21872" lon="-74.56959">
        <ele>529.12</ele>
      </trkpt>
      <trkpt lat="46.21876" lon="-74.56959">
        <ele>528.83</ele>
      </trkpt>
      <trkpt lat="46.21881" lon="-74.56959">
        <ele>528.47</ele>
      </trkpt>
      <trkpt lat="46.21886" lon="-74.56959">
        <ele>528.11</ele>
      </trkpt>
      <trkpt lat="46.2189" lon="-74.56959">
        <ele>528.03</ele>
      </trkpt>
      <trkpt lat="46.21895" lon="-74.56957">
        <ele>528.83</ele>
      </trkpt>
      <trkpt lat="46.219" lon="-74.56955">
        <ele>529.58</ele>
      </trkpt>
      <trkpt lat="46.21905" lon="-74.56953">
        <ele>530.29</ele>
      </trkpt>
      <trkpt lat="46.2191" lon="-74.56949">
        <ele>531.11</ele>
      </trkpt>
      <trkpt lat="46.21914" lon="-74.56946">
        <ele>531.69</ele>
      </trkpt>
      <trkpt lat="46.21918" lon="-74.56941">
        <ele>532.44</ele>
      </trkpt>
      <trkpt lat="46.21922" lon="-74.56936">
        <ele>533.34</ele>
      </trkpt>
      <trkpt lat="46.21923" lon="-74.56935">
        <ele>533.56</ele>
      </trkpt>
      <trkpt lat="46.21923" lon="-74.56934">
        <ele>533.7</ele>
      </trkpt>
      <trkpt lat="46.21926" lon="-74.56927">
        <ele>535.06</ele>
      </trkpt>
      <trkpt lat="46.2193" lon="-74.56922">
        <ele>536.46</ele>
      </trkpt>
      <trkpt lat="46.21932" lon="-74.56916">
        <ele>537.95</ele>
      </trkpt>
      <trkpt lat="46.21934" lon="-74.5691">
        <ele>539.98</ele>
      </trkpt>
      <trkpt lat="46.21937" lon="-74.56903">
        <ele>542.37</ele>
      </trkpt>
      <trkpt lat="46.21939" lon="-74.56895">
        <ele>544.79</ele>
      </trkpt>
      <trkpt lat="46.21939" lon="-74.56888">
        <ele>546.65</ele>
      </trkpt>
      <trkpt lat="46.21938" lon="-74.56881">
        <ele>548.38</ele>
      </trkpt>
      <trkpt lat="46.21935" lon="-74.56875">
        <ele>549.47</ele>
      </trkpt>
      <trkpt lat="46.21932" lon="-74.5687">
        <ele>550.18</ele>
      </trkpt>
      <trkpt lat="46.21929" lon="-74.56865">
        <ele>550.78</ele>
      </trkpt>
      <trkpt lat="46.21928" lon="-74.56858">
        <ele>552.34</ele>
      </trkpt>
      <trkpt lat="46.21927" lon="-74.56852">
        <ele>553.86</ele>
      </trkpt>
      <trkpt lat="46.21926" lon="-74.56845">
        <ele>555.66</ele>
      </trkpt>
      <trkpt lat="46.21924" lon="-74.56838">
        <ele>557.24</ele>
      </trkpt>
      <trkpt lat="46.21923" lon="-74.56832">
        <ele>558.63</ele>
      </trkpt>
      <trkpt lat="46.21923" lon="-74.56831">
        <ele>558.83</ele>
      </trkpt>
      <trkpt lat="46.21923" lon="-74.56831">
        <ele>558.83</ele>
      </trkpt>
      <trkpt lat="46.21922" lon="-74.56823">
        <ele>560.24</ele>
      </trkpt>
      <trkpt lat="46.2192" lon="-74.56816">
        <ele>561.31</ele>
      </trkpt>
      <trkpt lat="46.21919" lon="-74.5681">
        <ele>562.4</ele>
      </trkpt>
      <trkpt lat="46.21918" lon="-74.56803">
        <ele>563.21</ele>
      </trkpt>
      <trkpt lat="46.21917" lon="-74.56796">
        <ele>563.06</ele>
      </trkpt>
      <trkpt lat="46.21916" lon="-74.56788">
        <ele>562.88</ele>
      </trkpt>
      <trkpt lat="46.21914" lon="-74.56782">
        <ele>562.57</ele>
      </trkpt>
      <trkpt lat="46.21912" lon="-74.56775">
        <ele>562.63</ele>
      </trkpt>
      <trkpt lat="46.21911" lon="-74.56768">
        <ele>563.24</ele>
      </trkpt>
      <trkpt lat="46.2191" lon="-74.56762">
        <ele>563.74</ele>
      </trkpt>
      <trkpt lat="46.21909" lon="-74.56755">
        <ele>564.36</ele>
      </trkpt>
      <trkpt lat="46.21908" lon="-74.56748">
        <ele>565.09</ele>
      </trkpt>
      <trkpt lat="46.21906" lon="-74.56741">
        <ele>565.96</ele>
      </trkpt>
      <trkpt lat="46.21905" lon="-74.56734">
        <ele>566.96</ele>
      </trkpt>
      <trkpt lat="46.21904" lon="-74.56728">
        <ele>567.77</ele>
      </trkpt>
      <trkpt lat="46.21903" lon="-74.56721">
        <ele>568.69</ele>
      </trkpt>
      <trkpt lat="46.21903" lon="-74.56714">
        <ele>569.57</ele>
      </trkpt>
      <trkpt lat="46.21903" lon="-74.56708">
        <ele>570.33</ele>
      </trkpt>
      <trkpt lat="46.21902" lon="-74.56706">
        <ele>570.42</ele>
      </trkpt>
      <trkpt lat="46.21902" lon="-74.56706">
        <ele>570.42</ele>
      </trkpt>
      <trkpt lat="46.21904" lon="-74.567">
        <ele>571.48</ele>
      </trkpt>
      <trkpt lat="46.21908" lon="-74.56694">
        <ele>572.78</ele>
      </trkpt>
      <trkpt lat="46.21911" lon="-74.5669">
        <ele>573.44</ele>
      </trkpt>
      <trkpt lat="46.21915" lon="-74.56684">
        <ele>574.2</ele>
      </trkpt>
      <trkpt lat="46.21918" lon="-74.56678">
        <ele>574.74</ele>
      </trkpt>
      <trkpt lat="46.21918" lon="-74.56677">
        <ele>574.78</ele>
      </trkpt>
      <trkpt lat="46.21928" lon="-74.56602">
        <ele>582.13</ele>
      </trkpt>
      <trkpt lat="46.21939" lon="-74.56527">
        <ele>591.12</ele>
      </trkpt>
      <trkpt lat="46.21949" lon="-74.56452">
        <ele>608.36</ele>
      </trkpt>
      <trkpt lat="46.21949" lon="-74.56452">
        <ele>608.36</ele>
      </trkpt>
      <trkpt lat="46.21957" lon="-74.56384">
        <ele>621.62</ele>
      </trkpt>
      <trkpt lat="46.21964" lon="-74.56317">
        <ele>631.06</ele>
      </trkpt>
      <trkpt lat="46.21972" lon="-74.56249">
        <ele>644.17</ele>
      </trkpt>
      <trkpt lat="46.21972" lon="-74.56249">
        <ele>644.17</ele>
      </trkpt>
      <trkpt lat="46.21982" lon="-74.56172">
        <ele>658.57</ele>
      </trkpt>
      <trkpt lat="46.21993" lon="-74.56095">
        <ele>673.14</ele>
      </trkpt>
      <trkpt lat="46.22003" lon="-74.56018">
        <ele>686.33</ele>
      </trkpt>
      <trkpt lat="46.22003" lon="-74.56018">
        <ele>686.33</ele>
      </trkpt>
      <trkpt lat="46.22015" lon="-74.55938">
        <ele>709.52</ele>
      </trkpt>
      <trkpt lat="46.22026" lon="-74.55858">
        <ele>731.63</ele>
      </trkpt>
      <trkpt lat="46.22038" lon="-74.55778">
        <ele>754.25</ele>
      </trkpt>
      <trkpt lat="46.22038" lon="-74.55778">
        <ele>754.25</ele>
      </trkpt>
      <trkpt lat="46.22045" lon="-74.5569">
        <ele>777.78</ele>
      </trkpt>
      <trkpt lat="46.22052" lon="-74.55602">
        <ele>809.92</ele>
      </trkpt>
      <trkpt lat="46.22052" lon="-74.55602">
        <ele>809.92</ele>
      </trkpt>
      <trkpt lat="46.22053" lon="-74.55598">
        <ele>811.67</ele>
      </trkpt>
      <trkpt lat="46.22052" lon="-74.55591">
        <ele>813.62</ele>
      </trkpt>
      <trkpt lat="46.2205" lon="-74.55585">
        <ele>814.66</ele>
      </trkpt>
      <trkpt lat="46.22048" lon="-74.5558">
        <ele>815.33</ele>
      </trkpt>
      <trkpt lat="46.22044" lon="-74.55573">
        <ele>815.59</ele>
      </trkpt>
      <trkpt lat="46.22041" lon="-74.55568">
        <ele>815.61</ele>
      </trkpt>
      <trkpt lat="46.22038" lon="-74.55563">
        <ele>815.55</ele>
      </trkpt>
      <trkpt lat="46.22034" lon="-74.55557">
        <ele>815.14</ele>
      </trkpt>
      <trkpt lat="46.22029" lon="-74.55551">
        <ele>814.61</ele>
      </trkpt>
      <trkpt lat="46.22024" lon="-74.55546">
        <ele>815.49</ele>
      </trkpt>
      <trkpt lat="46.22021" lon="-74.55542">
        <ele>816.64</ele>
      </trkpt>
      <trkpt lat="46.22018" lon="-74.55537">
        <ele>818.14</ele>
      </trkpt>
      <trkpt lat="46.22015" lon="-74.55532">
        <ele>819.56</ele>
      </trkpt>
      <trkpt lat="46.22012" lon="-74.55526">
        <ele>821.21</ele>
      </trkpt>
      <trkpt lat="46.2201" lon="-74.5552">
        <ele>822.94</ele>
      </trkpt>
      <trkpt lat="46.22007" lon="-74.55514">
        <ele>824.59</ele>
      </trkpt>
      <trkpt lat="46.22005" lon="-74.55507">
        <ele>826.9</ele>
      </trkpt>
      <trkpt lat="46.22003" lon="-74.55501">
        <ele>828.94</ele>
      </trkpt>
      <trkpt lat="46.22" lon="-74.55495">
        <ele>830.44</ele>
      </trkpt>
      <trkpt lat="46.21997" lon="-74.5549">
        <ele>831.81</ele>
      </trkpt>
      <trkpt lat="46.21995" lon="-74.55486">
        <ele>832.94</ele>
      </trkpt>
      <trkpt lat="46.21995" lon="-74.55485">
        <ele>833.24</ele>
      </trkpt>
      <trkpt lat="46.21993" lon="-74.55478">
        <ele>835.28</ele>
      </trkpt>
      <trkpt lat="46.2199" lon="-74.55473">
        <ele>836.77</ele>
      </trkpt>
      <trkpt lat="46.21986" lon="-74.55469">
        <ele>838.1</ele>
      </trkpt>
      <trkpt lat="46.21982" lon="-74.55463">
        <ele>839.91</ele>
      </trkpt>
      <trkpt lat="46.21979" lon="-74.55458">
        <ele>841.21</ele>
      </trkpt>
      <trkpt lat="46.21976" lon="-74.55453">
        <ele>842.31</ele>
      </trkpt>
      <trkpt lat="46.21973" lon="-74.55447">
        <ele>843.48</ele>
      </trkpt>
      <trkpt lat="46.21971" lon="-74.55441">
        <ele>844.96</ele>
      </trkpt>
      <trkpt lat="46.21969" lon="-74.55435">
        <ele>846.48</ele>
      </trkpt>
      <trkpt lat="46.21968" lon="-74.55428">
        <ele>848.2</ele>
      </trkpt>
      <trkpt lat="46.21966" lon="-74.55421">
        <ele>849.62</ele>
      </trkpt>
      <trkpt lat="46.21965" lon="-74.55415">
        <ele>850.66</ele>
      </trkpt>
      <trkpt lat="46.21963" lon="-74.5541">
        <ele>850.89</ele>
      </trkpt>
      <trkpt lat="46.21963" lon="-74.5541">
        <ele>850.89</ele>
      </trkpt>
      <trkpt lat="46.21963" lon="-74.55402">
        <ele>851.94</ele>
      </trkpt>
      <trkpt lat="46.21963" lon="-74.55394">
        <ele>853.0</ele>
      </trkpt>
      <trkpt lat="46.21963" lon="-74.55387">
        <ele>853.77</ele>
      </trkpt>
      <trkpt lat="46.21963" lon="-74.55379">
        <ele>854.15</ele>
      </trkpt>
      <trkpt lat="46.21963" lon="-74.55373">
        <ele>854.44</ele>
      </trkpt>
      <trkpt lat="46.21964" lon="-74.55365">
        <ele>855.14</ele>
      </trkpt>
      <trkpt lat="46.21964" lon="-74.55358">
        <ele>855.4</ele>
      </trkpt>
      <trkpt lat="46.21966" lon="-74.55351">
        <ele>856.15</ele>
      </trkpt>
      <trkpt lat="46.21968" lon="-74.55344">
        <ele>856.82</ele>
      </trkpt>
      <trkpt lat="46.2197" lon="-74.55338">
        <ele>857.41</ele>
      </trkpt>
      <trkpt lat="46.21972" lon="-74.55332">
        <ele>857.9</ele>
      </trkpt>
      <trkpt lat="46.21976" lon="-74.55325">
        <ele>857.5</ele>
      </trkpt>
      <trkpt lat="46.2198" lon="-74.55319">
        <ele>857.37</ele>
      </trkpt>
      <trkpt lat="46.21985" lon="-74.55313">
        <ele>857.57</ele>
      </trkpt>
      <trkpt lat="46.2199" lon="-74.5531">
        <ele>857.93</ele>
      </trkpt>
      <trkpt lat="46.21994" lon="-74.55305">
        <ele>858.58</ele>
      </trkpt>
      <trkpt lat="46.21998" lon="-74.55299">
        <ele>859.06</ele>
      </trkpt>
      <trkpt lat="46.22002" lon="-74.55293">
        <ele>859.56</ele>
      </trkpt>
      <trkpt lat="46.22005" lon="-74.55288">
        <ele>859.93</ele>
      </trkpt>
      <trkpt lat="46.22009" lon="-74.55283">
        <ele>860.4</ele>
      </trkpt>
      <trkpt lat="46.22012" lon="-74.55278">
        <ele>860.85</ele>
      </trkpt>
      <trkpt lat="46.22012" lon="-74.55277">
        <ele>860.84</ele>
      </trkpt>
      <trkpt lat="46.22013" lon="-74.55281">
        <ele>860.77</ele>
      </trkpt>
      <trkpt lat="46.22013" lon="-74.55269">
        <ele>860.75</ele>
      </trkpt>
      <trkpt lat="46.22" lon="-74.55241">
        <ele>859.3</ele>
      </trkpt>
      <trkpt lat="46.22002" lon="-74.5523">
        <ele>861.08</ele>
      </trkpt>
      <trkpt lat="46.21996" lon="-74.55224">
        <ele>860.92</ele>
      </trkpt>
      <trkpt lat="46.21985" lon="-74.55196">
        <ele>861.23</ele>
      </trkpt>
      <trkpt lat="46.21984" lon="-74.55186">
        <ele>860.88</ele>
      </trkpt>
      <trkpt lat="46.21968" lon="-74.55155">
        <ele>855.45</ele>
      </trkpt>
      <trkpt lat="46.21962" lon="-74.55151">
        <ele>853.65</ele>
      </trkpt>
      <trkpt lat="46.21951" lon="-74.55149">
        <ele>850.53</ele>
      </trkpt>
      <trkpt lat="46.2194" lon="-74.55153">
        <ele>848.61</ele>
      </trkpt>
      <trkpt lat="46.21921" lon="-74.55168">
        <ele>846.67</ele>
      </trkpt>
      <trkpt lat="46.21912" lon="-74.5517">
        <ele>846.27</ele>
      </trkpt>
      <trkpt lat="46.21912" lon="-74.5517">
        <ele>846.27</ele>
      </trkpt>
      <trkpt lat="46.21907" lon="-74.55174">
        <ele>846.52</ele>
      </trkpt>
      <trkpt lat="46.21887" lon="-74.55176">
        <ele>847.23</ele>
      </trkpt>
      <trkpt lat="46.21871" lon="-74.55171">
        <ele>849.03</ele>
      </trkpt>
      <trkpt lat="46.21848" lon="-74.55164">
        <ele>850.62</ele>
      </trkpt>
      <trkpt lat="46.21839" lon="-74.55153">
        <ele>849.14</ele>
      </trkpt>
      <trkpt lat="46.21833" lon="-74.55117">
        <ele>845.18</ele>
      </trkpt>
      <trkpt lat="46.21833" lon="-74.55102">
        <ele>844.3</ele>
      </trkpt>
      <trkpt lat="46.21841" lon="-74.55046">
        <ele>837.74</ele>
      </trkpt>
      <trkpt lat="46.21844" lon="-74.55031">
        <ele>832.64</ele>
      </trkpt>
      <trkpt lat="46.21856" lon="-74.54999">
        <ele>823.22</ele>
      </trkpt>
      <trkpt lat="46.21859" lon="-74.54984">
        <ele>820.23</ele>
      </trkpt>
      <trkpt lat="46.21859" lon="-74.54973">
        <ele>817.79</ele>
      </trkpt>
      <trkpt lat="46.21855" lon="-74.54965">
        <ele>815.34</ele>
      </trkpt>
      <trkpt lat="46.2185" lon="-74.54963">
        <ele>814.01</ele>
      </trkpt>
      <trkpt lat="46.2185" lon="-74.54963">
        <ele>814.01</ele>
      </trkpt>
      <trkpt lat="46.21848" lon="-74.54962">
        <ele>813.43</ele>
      </trkpt>
      <trkpt lat="46.21842" lon="-74.54956">
        <ele>811.06</ele>
      </trkpt>
      <trkpt lat="46.21824" lon="-74.54955">
        <ele>808.35</ele>
      </trkpt>
      <trkpt lat="46.21821" lon="-74.54952">
        <ele>807.5</ele>
      </trkpt>
      <trkpt lat="46.21816" lon="-74.54945">
        <ele>805.85</ele>
      </trkpt>
      <trkpt lat="46.21813" lon="-74.5493">
        <ele>801.27</ele>
      </trkpt>
      <trkpt lat="46.21814" lon="-74.54915">
        <ele>797.05</ele>
      </trkpt>
      <trkpt lat="46.21822" lon="-74.54885">
        <ele>789.32</ele>
      </trkpt>
      <trkpt lat="46.21842" lon="-74.54836">
        <ele>781.1</ele>
      </trkpt>
      <trkpt lat="46.21843" lon="-74.54826">
        <ele>779.2</ele>
      </trkpt>
      <trkpt lat="46.21842" lon="-74.54816">
        <ele>777.07</ele>
      </trkpt>
      <trkpt lat="46.21841" lon="-74.54811">
        <ele>775.95</ele>
      </trkpt>
      <trkpt lat="46.21838" lon="-74.54809">
        <ele>775.23</ele>
      </trkpt>
      <trkpt lat="46.21834" lon="-74.54809">
        <ele>774.81</ele>
      </trkpt>
      <trkpt lat="46.2182" lon="-74.54826">
        <ele>779.35</ele>
      </trkpt>
      <trkpt lat="46.21799" lon="-74.54826">
        <ele>779.67</ele>
      </trkpt>
      <trkpt lat="46.21787" lon="-74.54815">
        <ele>775.49</ele>
      </trkpt>
      <trkpt lat="46.21786" lon="-74.54813">
        <ele>774.93</ele>
      </trkpt>
      <trkpt lat="46.21786" lon="-74.54813">
        <ele>774.93</ele>
      </trkpt>
      <trkpt lat="46.21781" lon="-74.54802">
        <ele>772.71</ele>
      </trkpt>
      <trkpt lat="46.21778" lon="-74.54801">
        <ele>772.67</ele>
      </trkpt>
      <trkpt lat="46.2177" lon="-74.54801">
        <ele>772.07</ele>
      </trkpt>
      <trkpt lat="46.21739" lon="-74.54836">
        <ele>775.29</ele>
      </trkpt>
      <trkpt lat="46.21735" lon="-74.54845">
        <ele>777.15</ele>
      </trkpt>
      <trkpt lat="46.21732" lon="-74.54865">
        <ele>781.02</ele>
      </trkpt>
      <trkpt lat="46.21728" lon="-74.54874">
        <ele>783.52</ele>
      </trkpt>
      <trkpt lat="46.21712" lon="-74.54893">
        <ele>787.27</ele>
      </trkpt>
      <trkpt lat="46.21693" lon="-74.54906">
        <ele>789.12</ele>
      </trkpt>
      <trkpt lat="46.21678" lon="-74.54919">
        <ele>791.64</ele>
      </trkpt>
      <trkpt lat="46.2166" lon="-74.54922">
        <ele>790.48</ele>
      </trkpt>
      <trkpt lat="46.21646" lon="-74.54938">
        <ele>792.35</ele>
      </trkpt>
      <trkpt lat="46.21617" lon="-74.54947">
        <ele>788.5</ele>
      </trkpt>
      <trkpt lat="46.21611" lon="-74.54947">
        <ele>787.15</ele>
      </trkpt>
      <trkpt lat="46.21592" lon="-74.54963">
        <ele>781.91</ele>
      </trkpt>
      <trkpt lat="46.21585" lon="-74.54965">
        <ele>779.57</ele>
      </trkpt>
      <trkpt lat="46.21567" lon="-74.5499">
        <ele>774.56</ele>
      </trkpt>
      <trkpt lat="46.21548" lon="-74.55034">
        <ele>770.31</ele>
      </trkpt>
      <trkpt lat="46.21529" lon="-74.55058">
        <ele>764.38</ele>
      </trkpt>
      <trkpt lat="46.21527" lon="-74.55068">
        <ele>763.46</ele>
      </trkpt>
      <trkpt lat="46.21526" lon="-74.55083">
        <ele>762.69</ele>
      </trkpt>
      <trkpt lat="46.21524" lon="-74.55099">
        <ele>762.32</ele>
      </trkpt>
      <trkpt lat="46.21523" lon="-74.55131">
        <ele>762.26</ele>
      </trkpt>
      <trkpt lat="46.21523" lon="-74.55131">
        <ele>762.26</ele>
      </trkpt>
      <trkpt lat="46.21523" lon="-74.55135">
        <ele>762.29</ele>
      </trkpt>
      <trkpt lat="46.21525" lon="-74.5515">
        <ele>762.6</ele>
      </trkpt>
      <trkpt lat="46.21536" lon="-74.55164">
        <ele>763.59</ele>
      </trkpt>
      <trkpt lat="46.21545" lon="-74.55181">
        <ele>765.0</ele>
      </trkpt>
      <trkpt lat="46.21551" lon="-74.5521">
        <ele>764.77</ele>
      </trkpt>
      <trkpt lat="46.21557" lon="-74.55223">
        <ele>763.07</ele>
      </trkpt>
      <trkpt lat="46.21559" lon="-74.55243">
        <ele>760.94</ele>
      </trkpt>
      <trkpt lat="46.21556" lon="-74.55274">
        <ele>756.6</ele>
      </trkpt>
      <trkpt lat="46.21552" lon="-74.55289">
        <ele>755.42</ele>
      </trkpt>
      <trkpt lat="46.21549" lon="-74.55292">
        <ele>755.13</ele>
      </trkpt>
      <trkpt lat="46.21546" lon="-74.55302">
        <ele>754.48</ele>
      </trkpt>
      <trkpt lat="46.21542" lon="-74.55322">
        <ele>751.97</ele>
      </trkpt>
      <trkpt lat="46.21539" lon="-74.55342">
        <ele>749.83</ele>
      </trkpt>
      <trkpt lat="46.2154" lon="-74.55357">
        <ele>749.72</ele>
      </trkpt>
      <trkpt lat="46.21538" lon="-74.55367">
        <ele>748.92</ele>
      </trkpt>
      <trkpt lat="46.21529" lon="-74.55383">
        <ele>746.44</ele>
      </trkpt>
      <trkpt lat="46.21525" lon="-74.55397">
        <ele>744.5</ele>
      </trkpt>
      <trkpt lat="46.21522" lon="-74.55418">
        <ele>741.08</ele>
      </trkpt>
      <trkpt lat="46.21521" lon="-74.55443">
        <ele>739.36</ele>
      </trkpt>
      <trkpt lat="46.21522" lon="-74.55459">
        <ele>737.41</ele>
      </trkpt>
      <trkpt lat="46.2152" lon="-74.55469">
        <ele>736.23</ele>
      </trkpt>
      <trkpt lat="46.21516" lon="-74.55477">
        <ele>735.15</ele>
      </trkpt>
      <trkpt lat="46.21513" lon="-74.55479">
        <ele>734.84</ele>
      </trkpt>
      <trkpt lat="46.21502" lon="-74.55484">
        <ele>733.73</ele>
      </trkpt>
      <trkpt lat="46.21489" lon="-74.55481">
        <ele>731.61</ele>
      </trkpt>
      <trkpt lat="46.21463" lon="-74.55499">
        <ele>725.05</ele>
      </trkpt>
      <trkpt lat="46.21442" lon="-74.55564">
        <ele>710.46</ele>
      </trkpt>
      <trkpt lat="46.21448" lon="-74.55578">
        <ele>708.77</ele>
      </trkpt>
      <trkpt lat="46.21457" lon="-74.55587">
        <ele>705.0</ele>
      </trkpt>
      <trkpt lat="46.2146" lon="-74.5559">
        <ele>704.05</ele>
      </trkpt>
      <trkpt lat="46.21474" lon="-74.55593">
        <ele>701.93</ele>
      </trkpt>
      <trkpt lat="46.21489" lon="-74.55607">
        <ele>703.67</ele>
      </trkpt>
      <trkpt lat="46.21497" lon="-74.55618">
        <ele>704.25</ele>
      </trkpt>
      <trkpt lat="46.215" lon="-74.55628">
        <ele>705.22</ele>
      </trkpt>
      <trkpt lat="46.21508" lon="-74.55638">
        <ele>704.32</ele>
      </trkpt>
      <trkpt lat="46.21516" lon="-74.55656">
        <ele>697.71</ele>
      </trkpt>
      <trkpt lat="46.21515" lon="-74.55687">
        <ele>693.49</ele>
      </trkpt>
      <trkpt lat="46.21508" lon="-74.55709">
        <ele>694.72</ele>
      </trkpt>
      <trkpt lat="46.21515" lon="-74.55738">
        <ele>692.39</ele>
      </trkpt>
      <trkpt lat="46.21523" lon="-74.55762">
        <ele>689.24</ele>
      </trkpt>
      <trkpt lat="46.21522" lon="-74.55777">
        <ele>686.86</ele>
      </trkpt>
      <trkpt lat="46.21518" lon="-74.55791">
        <ele>684.32</ele>
      </trkpt>
      <trkpt lat="46.21512" lon="-74.55797">
        <ele>682.61</ele>
      </trkpt>
      <trkpt lat="46.21473" lon="-74.55798">
        <ele>679.57</ele>
      </trkpt>
      <trkpt lat="46.21465" lon="-74.55797">
        <ele>679.0</ele>
      </trkpt>
      <trkpt lat="46.21443" lon="-74.55772">
        <ele>680.92</ele>
      </trkpt>
      <trkpt lat="46.21436" lon="-74.55771">
        <ele>680.53</ele>
      </trkpt>
      <trkpt lat="46.21429" lon="-74.55765">
        <ele>681.4</ele>
      </trkpt>
      <trkpt lat="46.21429" lon="-74.55765">
        <ele>681.4</ele>
      </trkpt>
      <trkpt lat="46.21423" lon="-74.55763">
        <ele>681.58</ele>
      </trkpt>
      <trkpt lat="46.21419" lon="-74.55764">
        <ele>681.1</ele>
      </trkpt>
      <trkpt lat="46.21417" lon="-74.55768">
        <ele>679.84</ele>
      </trkpt>
      <trkpt lat="46.21412" lon="-74.55787">
        <ele>674.78</ele>
      </trkpt>
      <trkpt lat="46.21409" lon="-74.55823">
        <ele>672.31</ele>
      </trkpt>
      <trkpt lat="46.21413" lon="-74.55864">
        <ele>668.28</ele>
      </trkpt>
      <trkpt lat="46.2141" lon="-74.55884">
        <ele>664.63</ele>
      </trkpt>
      <trkpt lat="46.21411" lon="-74.55894">
        <ele>664.28</ele>
      </trkpt>
      <trkpt lat="46.21418" lon="-74.55918">
        <ele>666.19</ele>
      </trkpt>
      <trkpt lat="46.21417" lon="-74.55928">
        <ele>666.84</ele>
      </trkpt>
      <trkpt lat="46.21412" lon="-74.55942">
        <ele>667.64</ele>
      </trkpt>
      <trkpt lat="46.21389" lon="-74.55964">
        <ele>670.52</ele>
      </trkpt>
      <trkpt lat="46.2138" lon="-74.55981">
        <ele>669.67</ele>
      </trkpt>
      <trkpt lat="46.21377" lon="-74.55996">
        <ele>667.78</ele>
      </trkpt>
      <trkpt lat="46.21376" lon="-74.56011">
        <ele>664.08</ele>
      </trkpt>
      <trkpt lat="46.21376" lon="-74.56048">
        <ele>656.32</ele>
      </trkpt>
      <trkpt lat="46.21379" lon="-74.56089">
        <ele>648.88</ele>
      </trkpt>
      <trkpt lat="46.21375" lon="-74.56096">
        <ele>647.82</ele>
      </trkpt>
      <trkpt lat="46.21365" lon="-74.561">
        <ele>646.02</ele>
      </trkpt>
      <trkpt lat="46.21356" lon="-74.56123">
        <ele>644.36</ele>
      </trkpt>
      <trkpt lat="46.21353" lon="-74.56132">
        <ele>644.1</ele>
      </trkpt>
      <trkpt lat="46.21342" lon="-74.56131">
        <ele>643.89</ele>
      </trkpt>
      <trkpt lat="46.21332" lon="-74.56125">
        <ele>643.57</ele>
      </trkpt>
      <trkpt lat="46.21329" lon="-74.56125">
        <ele>643.73</ele>
      </trkpt>
      <trkpt lat="46.21329" lon="-74.56125">
        <ele>643.73</ele>
      </trkpt>
      <trkpt lat="46.213" lon="-74.56123">
        <ele>644.71</ele>
      </trkpt>
      <trkpt lat="46.2129" lon="-74.56117">
        <ele>643.85</ele>
      </trkpt>
      <trkpt lat="46.21262" lon="-74.56117">
        <ele>644.3</ele>
      </trkpt>
      <trkpt lat="46.21247" lon="-74.56115">
        <ele>644.33</ele>
      </trkpt>
      <trkpt lat="46.21229" lon="-74.561">
        <ele>641.64</ele>
      </trkpt>
      <trkpt lat="46.21221" lon="-74.561">
        <ele>641.19</ele>
      </trkpt>
      <trkpt lat="46.21212" lon="-74.56106">
        <ele>640.26</ele>
      </trkpt>
      <trkpt lat="46.21187" lon="-74.56107">
        <ele>636.13</ele>
      </trkpt>
      <trkpt lat="46.2118" lon="-74.56105">
        <ele>635.45</ele>
      </trkpt>
      <trkpt lat="46.21174" lon="-74.561">
        <ele>634.98</ele>
      </trkpt>
      <trkpt lat="46.21156" lon="-74.56098">
        <ele>634.49</ele>
      </trkpt>
      <trkpt lat="46.21146" lon="-74.56091">
        <ele>634.39</ele>
      </trkpt>
      <trkpt lat="46.21139" lon="-74.5609">
        <ele>634.24</ele>
      </trkpt>
      <trkpt lat="46.21136" lon="-74.56091">
        <ele>634.25</ele>
      </trkpt>
      <trkpt lat="46.2113" lon="-74.56097">
        <ele>634.33</ele>
      </trkpt>
      <trkpt lat="46.21123" lon="-74.561">
        <ele>634.26</ele>
      </trkpt>
      <trkpt lat="46.2112" lon="-74.56103">
        <ele>634.23</ele>
      </trkpt>
      <trkpt lat="46.21113" lon="-74.56114">
        <ele>634.05</ele>
      </trkpt>
      <trkpt lat="46.21101" lon="-74.56141">
        <ele>632.13</ele>
      </trkpt>
      <trkpt lat="46.21093" lon="-74.56149">
        <ele>630.61</ele>
      </trkpt>
      <trkpt lat="46.21075" lon="-74.56149">
        <ele>626.6</ele>
      </trkpt>
      <trkpt lat="46.21065" lon="-74.56143">
        <ele>623.72</ele>
      </trkpt>
      <trkpt lat="46.21051" lon="-74.5614">
        <ele>618.87</ele>
      </trkpt>
      <trkpt lat="46.21041" lon="-74.56135">
        <ele>614.71</ele>
      </trkpt>
      <trkpt lat="46.21037" lon="-74.56135">
        <ele>613.02</ele>
      </trkpt>
      <trkpt lat="46.21032" lon="-74.5614">
        <ele>610.01</ele>
      </trkpt>
      <trkpt lat="46.21005" lon="-74.56124">
        <ele>606.49</ele>
      </trkpt>
      <trkpt lat="46.21005" lon="-74.56104">
        <ele>609.91</ele>
      </trkpt>
      <trkpt lat="46.21" lon="-74.56069">
        <ele>608.45</ele>
      </trkpt>
      <trkpt lat="46.20996" lon="-74.5606">
        <ele>606.26</ele>
      </trkpt>
      <trkpt lat="46.20989" lon="-74.56049">
        <ele>603.45</ele>
      </trkpt>
      <trkpt lat="46.20975" lon="-74.56045">
        <ele>599.38</ele>
      </trkpt>
      <trkpt lat="46.20969" lon="-74.5604">
        <ele>597.8</ele>
      </trkpt>
      <trkpt lat="46.20964" lon="-74.56032">
        <ele>596.42</ele>
      </trkpt>
      <trkpt lat="46.20963" lon="-74.56017">
        <ele>595.1</ele>
      </trkpt>
      <trkpt lat="46.20965" lon="-74.56002">
        <ele>594.34</ele>
      </trkpt>
      <trkpt lat="46.20971" lon="-74.55983">
        <ele>594.49</ele>
      </trkpt>
      <trkpt lat="46.20972" lon="-74.55967">
        <ele>593.38</ele>
      </trkpt>
      <trkpt lat="46.20962" lon="-74.55923">
        <ele>584.32</ele>
      </trkpt>
      <trkpt lat="46.20959" lon="-74.55914">
        <ele>582.24</ele>
      </trkpt>
      <trkpt lat="46.20956" lon="-74.55911">
        <ele>581.19</ele>
      </trkpt>
      <trkpt lat="46.20947" lon="-74.55902">
        <ele>578.35</ele>
      </trkpt>
      <trkpt lat="46.20937" lon="-74.559">
        <ele>575.51</ele>
      </trkpt>
      <trkpt lat="46.20931" lon="-74.55894">
        <ele>574.25</ele>
      </trkpt>
      <trkpt lat="46.20913" lon="-74.55893">
        <ele>569.45</ele>
      </trkpt>
      <trkpt lat="46.20888" lon="-74.55911">
        <ele>562.47</ele>
      </trkpt>
      <trkpt lat="46.20882" lon="-74.55917">
        <ele>560.56</ele>
      </trkpt>
      <trkpt lat="46.20875" lon="-74.5592">
        <ele>558.42</ele>
      </trkpt>
      <trkpt lat="46.20869" lon="-74.55926">
        <ele>557.09</ele>
      </trkpt>
      <trkpt lat="46.20862" lon="-74.55927">
        <ele>554.8</ele>
      </trkpt>
      <trkpt lat="46.20857" lon="-74.55934">
        <ele>554.28</ele>
      </trkpt>
      <trkpt lat="46.20853" lon="-74.55942">
        <ele>554.07</ele>
      </trkpt>
      <trkpt lat="46.20834" lon="-74.56037">
        <ele>549.26</ele>
      </trkpt>
      <trkpt lat="46.20826" lon="-74.56061">
        <ele>547.84</ele>
      </trkpt>
      <trkpt lat="46.20825" lon="-74.56063">
        <ele>547.74</ele>
      </trkpt>
      <trkpt lat="46.20825" lon="-74.56063">
        <ele>547.74</ele>
      </trkpt>
      <trkpt lat="46.20818" lon="-74.56078">
        <ele>547.58</ele>
      </trkpt>
      <trkpt lat="46.20811" lon="-74.56107">
        <ele>547.73</ele>
      </trkpt>
      <trkpt lat="46.20809" lon="-74.5611">
        <ele>547.49</ele>
      </trkpt>
      <trkpt lat="46.20805" lon="-74.56119">
        <ele>547.25</ele>
      </trkpt>
      <trkpt lat="46.20804" lon="-74.56135">
        <ele>547.71</ele>
      </trkpt>
      <trkpt lat="46.20811" lon="-74.56158">
        <ele>547.97</ele>
      </trkpt>
      <trkpt lat="46.20821" lon="-74.5618">
        <ele>549.01</ele>
      </trkpt>
      <trkpt lat="46.20833" lon="-74.562">
        <ele>550.74</ele>
      </trkpt>
      <trkpt lat="46.20843" lon="-74.56239">
        <ele>552.0</ele>
      </trkpt>
      <trkpt lat="46.20848" lon="-74.56252">
        <ele>552.9</ele>
      </trkpt>
      <trkpt lat="46.20862" lon="-74.56275">
        <ele>552.38</ele>
      </trkpt>
      <trkpt lat="46.20877" lon="-74.56289">
        <ele>550.95</ele>
      </trkpt>
      <trkpt lat="46.20889" lon="-74.56309">
        <ele>548.65</ele>
      </trkpt>
      <trkpt lat="46.20895" lon="-74.56315">
        <ele>549.08</ele>
      </trkpt>
      <trkpt lat="46.209" lon="-74.56328">
        <ele>548.01</ele>
      </trkpt>
      <trkpt lat="46.20909" lon="-74.56337">
        <ele>547.34</ele>
      </trkpt>
      <trkpt lat="46.20921" lon="-74.56347">
        <ele>546.12</ele>
      </trkpt>
      <trkpt lat="46.20935" lon="-74.56349">
        <ele>545.99</ele>
      </trkpt>
      <trkpt lat="46.20948" lon="-74.56359">
        <ele>544.65</ele>
      </trkpt>
      <trkpt lat="46.20954" lon="-74.56371">
        <ele>542.54</ele>
      </trkpt>
      <trkpt lat="46.20961" lon="-74.56376">
        <ele>541.55</ele>
      </trkpt>
      <trkpt lat="46.20965" lon="-74.56384">
        <ele>539.53</ele>
      </trkpt>
      <trkpt lat="46.2097" lon="-74.56398">
        <ele>536.74</ele>
      </trkpt>
      <trkpt lat="46.20977" lon="-74.56438">
        <ele>532.46</ele>
      </trkpt>
      <trkpt lat="46.20986" lon="-74.56461">
        <ele>529.51</ele>
      </trkpt>
      <trkpt lat="46.20999" lon="-74.56479">
        <ele>527.6</ele>
      </trkpt>
      <trkpt lat="46.21026" lon="-74.56505">
        <ele>519.87</ele>
      </trkpt>
      <trkpt lat="46.21044" lon="-74.5653">
        <ele>516.92</ele>
      </trkpt>
      <trkpt lat="46.2105" lon="-74.56542">
        <ele>513.09</ele>
      </trkpt>
      <trkpt lat="46.21053" lon="-74.56545">
        <ele>511.94</ele>
      </trkpt>
      <trkpt lat="46.2106" lon="-74.56547">
        <ele>511.89</ele>
      </trkpt>
      <trkpt lat="46.21074" lon="-74.5657">
        <ele>510.25</ele>
      </trkpt>
      <trkpt lat="46.21095" lon="-74.5659">
        <ele>510.4</ele>
      </trkpt>
      <trkpt lat="46.21114" lon="-74.56613">
        <ele>509.61</ele>
      </trkpt>
      <trkpt lat="46.21121" lon="-74.56616">
        <ele>508.81</ele>
      </trkpt>
      <trkpt lat="46.21135" lon="-74.56639">
        <ele>503.41</ele>
      </trkpt>
      <trkpt lat="46.21138" lon="-74.56642">
        <ele>502.86</ele>
      </trkpt>
      <trkpt lat="46.21145" lon="-74.56653">
        <ele>502.31</ele>
      </trkpt>
      <trkpt lat="46.21151" lon="-74.56659">
        <ele>501.72</ele>
      </trkpt>
      <trkpt lat="46.21169" lon="-74.56691">
        <ele>498.38</ele>
      </trkpt>
      <trkpt lat="46.21172" lon="-74.56693">
        <ele>498.35</ele>
      </trkpt>
      <trkpt lat="46.21178" lon="-74.56707">
        <ele>496.52</ele>
      </trkpt>
      <trkpt lat="46.2118" lon="-74.56717">
        <ele>495.2</ele>
      </trkpt>
      <trkpt lat="46.21193" lon="-74.56747">
        <ele>491.48</ele>
      </trkpt>
      <trkpt lat="46.21197" lon="-74.56761">
        <ele>489.85</ele>
      </trkpt>
      <trkpt lat="46.21201" lon="-74.5677">
        <ele>488.63</ele>
      </trkpt>
      <trkpt lat="46.21206" lon="-74.56776">
        <ele>487.47</ele>
      </trkpt>
      <trkpt lat="46.21217" lon="-74.5678">
        <ele>485.93</ele>
      </trkpt>
      <trkpt lat="46.21228" lon="-74.5679">
        <ele>483.04</ele>
      </trkpt>
      <trkpt lat="46.21232" lon="-74.56793">
        <ele>482.2</ele>
      </trkpt>
      <trkpt lat="46.21239" lon="-74.56796">
        <ele>481.25</ele>
      </trkpt>
      <trkpt lat="46.21242" lon="-74.56805">
        <ele>479.39</ele>
      </trkpt>
      <trkpt lat="46.21243" lon="-74.5681">
        <ele>478.61</ele>
      </trkpt>
      <trkpt lat="46.21239" lon="-74.56825">
        <ele>476.6</ele>
      </trkpt>
      <trkpt lat="46.21229" lon="-74.56847">
        <ele>472.92</ele>
      </trkpt>
      <trkpt lat="46.21215" lon="-74.56894">
        <ele>461.64</ele>
      </trkpt>
      <trkpt lat="46.21211" lon="-74.56946">
        <ele>451.32</ele>
      </trkpt>
      <trkpt lat="46.21203" lon="-74.56996">
        <ele>445.45</ele>
      </trkpt>
      <trkpt lat="46.21199" lon="-74.57038">
        <ele>439.58</ele>
      </trkpt>
      <trkpt lat="46.21198" lon="-74.5709">
        <ele>437.2</ele>
      </trkpt>
      <trkpt lat="46.21196" lon="-74.5711">
        <ele>435.86</ele>
      </trkpt>
      <trkpt lat="46.21194" lon="-74.57114">
        <ele>435.36</ele>
      </trkpt>
      <trkpt lat="46.21189" lon="-74.57121">
        <ele>433.74</ele>
      </trkpt>
      <trkpt lat="46.21182" lon="-74.57121">
        <ele>433.58</ele>
      </trkpt>
      <trkpt lat="46.21174" lon="-74.57121">
        <ele>433.39</ele>
      </trkpt>
      <trkpt lat="46.21156" lon="-74.57105">
        <ele>435.93</ele>
      </trkpt>
      <trkpt lat="46.21138" lon="-74.57104">
        <ele>435.7</ele>
      </trkpt>
      <trkpt lat="46.21128" lon="-74.57097">
        <ele>435.54</ele>
      </trkpt>
      <trkpt lat="46.21122" lon="-74.57098">
        <ele>434.91</ele>
      </trkpt>
      <trkpt lat="46.21119" lon="-74.57102">
        <ele>434.32</ele>
      </trkpt>
      <trkpt lat="46.21112" lon="-74.57104">
        <ele>433.58</ele>
      </trkpt>
      <trkpt lat="46.211" lon="-74.57116">
        <ele>432.77</ele>
      </trkpt>
      <trkpt lat="46.2109" lon="-74.5713">
        <ele>431.56</ele>
      </trkpt>
      <trkpt lat="46.21082" lon="-74.57148">
        <ele>430.45</ele>
      </trkpt>
      <trkpt lat="46.21071" lon="-74.57186">
        <ele>430.29</ele>
      </trkpt>
      <trkpt lat="46.21066" lon="-74.57222">
        <ele>430.37</ele>
      </trkpt>
      <trkpt lat="46.21068" lon="-74.57232">
        <ele>430.06</ele>
      </trkpt>
      <trkpt lat="46.2107" lon="-74.57235">
        <ele>429.58</ele>
      </trkpt>
      <trkpt lat="46.21071" lon="-74.57251">
        <ele>429.61</ele>
      </trkpt>
      <trkpt lat="46.21071" lon="-74.5728">
        <ele>431.07</ele>
      </trkpt>
      <trkpt lat="46.21068" lon="-74.57295">
        <ele>430.46</ele>
      </trkpt>
      <trkpt lat="46.21069" lon="-74.57316">
        <ele>430.3</ele>
      </trkpt>
      <trkpt lat="46.21073" lon="-74.57331">
        <ele>430.95</ele>
      </trkpt>
      <trkpt lat="46.21085" lon="-74.57351">
        <ele>432.5</ele>
      </trkpt>
      <trkpt lat="46.21094" lon="-74.57373">
        <ele>435.71</ele>
      </trkpt>
      <trkpt lat="46.21108" lon="-74.57443">
        <ele>432.76</ele>
      </trkpt>
      <trkpt lat="46.21105" lon="-74.57458">
        <ele>432.12</ele>
      </trkpt>
      <trkpt lat="46.21102" lon="-74.57461">
        <ele>432.45</ele>
      </trkpt>
      <trkpt lat="46.21092" lon="-74.57488">
        <ele>431.7</ele>
      </trkpt>
      <trkpt lat="46.21092" lon="-74.57503">
        <ele>430.12</ele>
      </trkpt>
      <trkpt lat="46.21098" lon="-74.57522">
        <ele>428.4</ele>
      </trkpt>
      <trkpt lat="46.21108" lon="-74.57536">
        <ele>427.87</ele>
      </trkpt>
      <trkpt lat="46.2113" lon="-74.57539">
        <ele>427.73</ele>
      </trkpt>
      <trkpt lat="46.21144" lon="-74.57555">
        <ele>426.84</ele>
      </trkpt>
      <trkpt lat="46.21157" lon="-74.57564">
        <ele>425.63</ele>
      </trkpt>
      <trkpt lat="46.21168" lon="-74.57584">
        <ele>423.83</ele>
      </trkpt>
      <trkpt lat="46.21179" lon="-74.57611">
        <ele>418.13</ele>
      </trkpt>
      <trkpt lat="46.21188" lon="-74.57619">
        <ele>415.28</ele>
      </trkpt>
      <trkpt lat="46.21193" lon="-74.57626">
        <ele>413.27</ele>
      </trkpt>
      <trkpt lat="46.21195" lon="-74.57631">
        <ele>412.13</ele>
      </trkpt>
      <trkpt lat="46.21192" lon="-74.57638">
        <ele>410.14</ele>
      </trkpt>
      <trkpt lat="46.2118" lon="-74.57648">
        <ele>407.67</ele>
      </trkpt>
      <trkpt lat="46.21169" lon="-74.57651">
        <ele>406.5</ele>
      </trkpt>
      <trkpt lat="46.21152" lon="-74.5768">
        <ele>403.47</ele>
      </trkpt>
      <trkpt lat="46.21157" lon="-74.57693">
        <ele>400.62</ele>
      </trkpt>
      <trkpt lat="46.21161" lon="-74.57701">
        <ele>399.3</ele>
      </trkpt>
      <trkpt lat="46.21171" lon="-74.57716">
        <ele>397.36</ele>
      </trkpt>
      <trkpt lat="46.21172" lon="-74.57719">
        <ele>397.08</ele>
      </trkpt>
      <trkpt lat="46.21172" lon="-74.57719">
        <ele>397.08</ele>
      </trkpt>
      <trkpt lat="46.21185" lon="-74.57746">
        <ele>390.66</ele>
      </trkpt>
      <trkpt lat="46.21191" lon="-74.57752">
        <ele>388.32</ele>
      </trkpt>
      <trkpt lat="46.212" lon="-74.57768">
        <ele>385.49</ele>
      </trkpt>
      <trkpt lat="46.21234" lon="-74.57807">
        <ele>377.1</ele>
      </trkpt>
      <trkpt lat="46.21277" lon="-74.5785">
        <ele>376.33</ele>
      </trkpt>
      <trkpt lat="46.21287" lon="-74.5788">
        <ele>368.42</ele>
      </trkpt>
      <trkpt lat="46.21297" lon="-74.57888">
        <ele>368.14</ele>
      </trkpt>
      <trkpt lat="46.21298" lon="-74.57899">
        <ele>365.68</ele>
      </trkpt>
      <trkpt lat="46.21294" lon="-74.57905">
        <ele>363.65</ele>
      </trkpt>
      <trkpt lat="46.21287" lon="-74.57908">
        <ele>362.12</ele>
      </trkpt>
      <trkpt lat="46.21279" lon="-74.57902">
        <ele>361.79</ele>
      </trkpt>
      <trkpt lat="46.21271" lon="-74.57894">
        <ele>360.16</ele>
      </trkpt>
      <trkpt lat="46.21265" lon="-74.57895">
        <ele>358.0</ele>
      </trkpt>
      <trkpt lat="46.21263" lon="-74.57904">
        <ele>356.0</ele>
      </trkpt>
      <trkpt lat="46.21268" lon="-74.57917">
        <ele>356.04</ele>
      </trkpt>
      <trkpt lat="46.21283" lon="-74.57934">
        <ele>355.85</ele>
      </trkpt>
      <trkpt lat="46.21285" lon="-74.57938">
        <ele>355.17</ele>
      </trkpt>
      <trkpt lat="46.21313" lon="-74.57938">
        <ele>357.71</ele>
      </trkpt>
      <trkpt lat="46.21324" lon="-74.57951">
        <ele>353.1</ele>
      </trkpt>
      <trkpt lat="46.21332" lon="-74.57969">
        <ele>348.61</ele>
      </trkpt>
      <trkpt lat="46.21339" lon="-74.57981">
        <ele>346.89</ele>
      </trkpt>
      <trkpt lat="46.21357" lon="-74.57997">
        <ele>343.1</ele>
      </trkpt>
      <trkpt lat="46.21359" lon="-74.58001">
        <ele>342.04</ele>
      </trkpt>
      <trkpt lat="46.21359" lon="-74.58017">
        <ele>340.22</ele>
      </trkpt>
      <trkpt lat="46.21355" lon="-74.58031">
        <ele>338.82</ele>
      </trkpt>
      <trkpt lat="46.21344" lon="-74.58058">
        <ele>337.98</ele>
      </trkpt>
      <trkpt lat="46.21343" lon="-74.58068">
        <ele>336.98</ele>
      </trkpt>
      <trkpt lat="46.21343" lon="-74.58084">
        <ele>335.2</ele>
      </trkpt>
      <trkpt lat="46.21352" lon="-74.58112">
        <ele>328.71</ele>
      </trkpt>
      <trkpt lat="46.21363" lon="-74.58125">
        <ele>325.77</ele>
      </trkpt>
      <trkpt lat="46.21366" lon="-74.58127">
        <ele>325.75</ele>
      </trkpt>
      <trkpt lat="46.2137" lon="-74.5813">
        <ele>325.75</ele>
      </trkpt>
      <trkpt lat="46.21373" lon="-74.58139">
        <ele>324.53</ele>
      </trkpt>
      <trkpt lat="46.21375" lon="-74.58142">
        <ele>323.88</ele>
      </trkpt>
      <trkpt lat="46.21389" lon="-74.58143">
        <ele>326.07</ele>
      </trkpt>
      <trkpt lat="46.21392" lon="-74.58141">
        <ele>326.93</ele>
      </trkpt>
      <trkpt lat="46.21397" lon="-74.58141">
        <ele>326.79</ele>
      </trkpt>
      <trkpt lat="46.21405" lon="-74.58139">
        <ele>327.37</ele>
      </trkpt>
      <trkpt lat="46.21409" lon="-74.58136">
        <ele>327.74</ele>
      </trkpt>
      <trkpt lat="46.21413" lon="-74.58132">
        <ele>328.31</ele>
      </trkpt>
      <trkpt lat="46.21417" lon="-74.58126">
        <ele>329.3</ele>
      </trkpt>
      <trkpt lat="46.2142" lon="-74.58122">
        <ele>329.85</ele>
      </trkpt>
      <trkpt lat="46.21425" lon="-74.5812">
        <ele>329.9</ele>
      </trkpt>
      <trkpt lat="46.2143" lon="-74.5812">
        <ele>329.59</ele>
      </trkpt>
      <trkpt lat="46.21434" lon="-74.5812">
        <ele>329.35</ele>
      </trkpt>
      <trkpt lat="46.2144" lon="-74.58121">
        <ele>328.84</ele>
      </trkpt>
      <trkpt lat="46.21445" lon="-74.58122">
        <ele>328.5</ele>
      </trkpt>
      <trkpt lat="46.2145" lon="-74.58125">
        <ele>328.7</ele>
      </trkpt>
      <trkpt lat="46.21454" lon="-74.58128">
        <ele>328.81</ele>
      </trkpt>
      <trkpt lat="46.21458" lon="-74.58132">
        <ele>328.82</ele>
      </trkpt>
      <trkpt lat="46.21462" lon="-74.58136">
        <ele>328.88</ele>
      </trkpt>
      <trkpt lat="46.21465" lon="-74.58142">
        <ele>328.48</ele>
      </trkpt>
      <trkpt lat="46.21465" lon="-74.5815">
        <ele>327.26</ele>
      </trkpt>
      <trkpt lat="46.21464" lon="-74.58156">
        <ele>326.17</ele>
      </trkpt>
      <trkpt lat="46.2146" lon="-74.58164">
        <ele>324.23</ele>
      </trkpt>
      <trkpt lat="46.21456" lon="-74.58168">
        <ele>322.98</ele>
      </trkpt>
      <trkpt lat="46.2145" lon="-74.58172">
        <ele>321.62</ele>
      </trkpt>
      <trkpt lat="46.21444" lon="-74.58174">
        <ele>320.38</ele>
      </trkpt>
      <trkpt lat="46.21437" lon="-74.58178">
        <ele>318.35</ele>
      </trkpt>
      <trkpt lat="46.21432" lon="-74.58179">
        <ele>316.93</ele>
      </trkpt>
      <trkpt lat="46.21428" lon="-74.58181">
        <ele>315.46</ele>
      </trkpt>
      <trkpt lat="46.21423" lon="-74.58182">
        <ele>313.82</ele>
      </trkpt>
      <trkpt lat="46.21419" lon="-74.58185">
        <ele>311.78</ele>
      </trkpt>
      <trkpt lat="46.21415" lon="-74.5819">
        <ele>309.22</ele>
      </trkpt>
      <trkpt lat="46.21411" lon="-74.58193">
        <ele>307.67</ele>
      </trkpt>
      <trkpt lat="46.21406" lon="-74.58193">
        <ele>306.97</ele>
      </trkpt>
      <trkpt lat="46.21401" lon="-74.58192">
        <ele>306.64</ele>
      </trkpt>
      <trkpt lat="46.21396" lon="-74.5819">
        <ele>306.7</ele>
      </trkpt>
      <trkpt lat="46.21393" lon="-74.58198">
        <ele>303.35</ele>
      </trkpt>
      <trkpt lat="46.21395" lon="-74.58208">
        <ele>300.21</ele>
      </trkpt>
      <trkpt lat="46.21397" lon="-74.58215">
        <ele>298.2</ele>
      </trkpt>
      <trkpt lat="46.21397" lon="-74.58222">
        <ele>295.83</ele>
      </trkpt>
      <trkpt lat="46.21396" lon="-74.5823">
        <ele>294.07</ele>
      </trkpt>
      <trkpt lat="46.21394" lon="-74.58237">
        <ele>292.21</ele>
      </trkpt>
      <trkpt lat="46.21392" lon="-74.58244">
        <ele>290.23</ele>
      </trkpt>
      <trkpt lat="46.21388" lon="-74.58249">
        <ele>288.09</ele>
      </trkpt>
      <trkpt lat="46.21384" lon="-74.58252">
        <ele>286.63</ele>
      </trkpt>
      <trkpt lat="46.2138" lon="-74.58255">
        <ele>285.15</ele>
      </trkpt>
      <trkpt lat="46.21374" lon="-74.58258">
        <ele>283.59</ele>
      </trkpt>
      <trkpt lat="46.2137" lon="-74.58261">
        <ele>282.4</ele>
      </trkpt>
      <trkpt lat="46.21366" lon="-74.58263">
        <ele>281.57</ele>
      </trkpt>
      <trkpt lat="46.21363" lon="-74.58264">
        <ele>281.11</ele>
      </trkpt>
      <trkpt lat="46.21362" lon="-74.58264">
        <ele>281.04</ele>
      </trkpt>
      <trkpt lat="46.21358" lon="-74.58266">
        <ele>280.1</ele>
      </trkpt>
      <trkpt lat="46.21355" lon="-74.58272">
        <ele>278.71</ele>
      </trkpt>
      <trkpt lat="46.21355" lon="-74.5828">
        <ele>277.41</ele>
      </trkpt>
      <trkpt lat="46.21354" lon="-74.58287">
        <ele>276.16</ele>
      </trkpt>
      <trkpt lat="46.21353" lon="-74.58294">
        <ele>274.86</ele>
      </trkpt>
      <trkpt lat="46.21351" lon="-74.583">
        <ele>273.56</ele>
      </trkpt>
      <trkpt lat="46.21349" lon="-74.58307">
        <ele>271.82</ele>
      </trkpt>
      <trkpt lat="46.21346" lon="-74.58313">
        <ele>269.53</ele>
      </trkpt>
      <trkpt lat="46.21344" lon="-74.5832">
        <ele>267.06</ele>
      </trkpt>
      <trkpt lat="46.21344" lon="-74.58327">
        <ele>264.88</ele>
      </trkpt>
      <trkpt lat="46.21346" lon="-74.58333">
        <ele>263.38</ele>
      </trkpt>
      <trkpt lat="46.21346" lon="-74.5834">
        <ele>262.1</ele>
      </trkpt>
      <trkpt lat="46.21346" lon="-74.58348">
        <ele>260.69</ele>
      </trkpt>
      <trkpt lat="46.21345" lon="-74.58354">
        <ele>259.5</ele>
      </trkpt>
      <trkpt lat="46.21343" lon="-74.5836">
        <ele>258.23</ele>
      </trkpt>
      <trkpt lat="46.21341" lon="-74.58366">
        <ele>257.73</ele>
      </trkpt>
      <trkpt lat="46.21338" lon="-74.58374">
        <ele>257.35</ele>
      </trkpt>
      <trkpt lat="46.21336" lon="-74.58381">
        <ele>257.15</ele>
      </trkpt>
      <trkpt lat="46.21336" lon="-74.58381">
        <ele>257.15</ele>
      </trkpt>
      <trkpt lat="46.21336" lon="-74.58381">
        <ele>257.15</ele>
      </trkpt>
      <trkpt lat="46.21336" lon="-74.58388">
        <ele>257.1</ele>
      </trkpt>
      <trkpt lat="46.21336" lon="-74.58395">
        <ele>257.29</ele>
      </trkpt>
      <trkpt lat="46.21336" lon="-74.58402">
        <ele>257.52</ele>
      </trkpt>
      <trkpt lat="46.21336" lon="-74.58408">
        <ele>257.72</ele>
      </trkpt>
      <trkpt lat="46.21336" lon="-74.58415">
        <ele>257.95</ele>
      </trkpt>
      <trkpt lat="46.21335" lon="-74.58422">
        <ele>258.69</ele>
      </trkpt>
      <trkpt lat="46.21334" lon="-74.58428">
        <ele>259.56</ele>
      </trkpt>
      <trkpt lat="46.21333" lon="-74.58435">
        <ele>260.63</ele>
      </trkpt>
      <trkpt lat="46.21332" lon="-74.58442">
        <ele>261.6</ele>
      </trkpt>
      <trkpt lat="46.21332" lon="-74.58448">
        <ele>261.56</ele>
      </trkpt>
      <trkpt lat="46.21333" lon="-74.58455">
        <ele>260.84</ele>
      </trkpt>
      <trkpt lat="46.21335" lon="-74.58459">
        <ele>260.23</ele>
      </trkpt>
    </trkseg>
  </trk>
</gpx>
