<?xml version="1.0" encoding="UTF-8"?>
                    <gpx version="1.1" creator="GPX Generator" xmlns="http://www.topografix.com/GPX/1/1">
                        <trk>
                            <name>Carlton Place to Clayton - 36375540.gpx</name>
                            <trkseg>
                                <trkpt lon="-76.14644" lat="45.14051"><ele>137.6</ele></trkpt><trkpt lon="-76.14645" lat="45.14051"><ele>137.6</ele></trkpt><trkpt lon="-76.146559" lat="45.14044"><ele>137.9</ele></trkpt><trkpt lon="-76.14664" lat="45.14042"><ele>138</ele></trkpt><trkpt lon="-76.146559" lat="45.14037"><ele>138.2</ele></trkpt><trkpt lon="-76.14662" lat="45.14033"><ele>138.4</ele></trkpt><trkpt lon="-76.14802" lat="45.14143"><ele>137.3</ele></trkpt><trkpt lon="-76.15048" lat="45.14341"><ele>141</ele></trkpt><trkpt lon="-76.15048" lat="45.14341"><ele>141</ele></trkpt><trkpt lon="-76.15128" lat="45.144129"><ele>140.5</ele></trkpt><trkpt lon="-76.15179" lat="45.14453"><ele>140.3</ele></trkpt><trkpt lon="-76.15228" lat="45.14483"><ele>140.1</ele></trkpt><trkpt lon="-76.15282" lat="45.1451"><ele>140.4</ele></trkpt><trkpt lon="-76.15304" lat="45.14517"><ele>140.8</ele></trkpt><trkpt lon="-76.15368" lat="45.14522"><ele>141.7</ele></trkpt><trkpt lon="-76.155779" lat="45.14525"><ele>144.9</ele></trkpt><trkpt lon="-76.15711" lat="45.14531"><ele>143.8</ele></trkpt><trkpt lon="-76.158199" lat="45.145359"><ele>143.5</ele></trkpt><trkpt lon="-76.15883" lat="45.14542"><ele>142</ele></trkpt><trkpt lon="-76.15969" lat="45.14541"><ele>139.4</ele></trkpt><trkpt lon="-76.16204" lat="45.14526"><ele>137.3</ele></trkpt><trkpt lon="-76.162629" lat="45.14523"><ele>138.4</ele></trkpt><trkpt lon="-76.16399" lat="45.14525"><ele>136</ele></trkpt><trkpt lon="-76.16488" lat="45.14524"><ele>134.5</ele></trkpt><trkpt lon="-76.16576" lat="45.14518"><ele>133.8</ele></trkpt><trkpt lon="-76.16709" lat="45.14503"><ele>133.1</ele></trkpt><trkpt lon="-76.16897" lat="45.14475"><ele>135.4</ele></trkpt><trkpt lon="-76.16939" lat="45.14475"><ele>135.6</ele></trkpt><trkpt lon="-76.169839" lat="45.14482"><ele>136.1</ele></trkpt><trkpt lon="-76.17186" lat="45.1453"><ele>139.3</ele></trkpt><trkpt lon="-76.17215" lat="45.1454"><ele>139.6</ele></trkpt><trkpt lon="-76.17242" lat="45.14555"><ele>139.6</ele></trkpt><trkpt lon="-76.17264" lat="45.14573"><ele>139.5</ele></trkpt><trkpt lon="-76.17383" lat="45.14705"><ele>140.1</ele></trkpt><trkpt lon="-76.174359" lat="45.1476"><ele>139.8</ele></trkpt><trkpt lon="-76.17667" lat="45.14984"><ele>137.4</ele></trkpt><trkpt lon="-76.17668" lat="45.14984"><ele>137.4</ele></trkpt><trkpt lon="-76.17747" lat="45.15062"><ele>136.1</ele></trkpt><trkpt lon="-76.17798" lat="45.15104"><ele>137.9</ele></trkpt><trkpt lon="-76.17826" lat="45.15123"><ele>138.7</ele></trkpt><trkpt lon="-76.17923" lat="45.15176"><ele>136</ele></trkpt><trkpt lon="-76.18126" lat="45.15306"><ele>134.3</ele></trkpt><trkpt lon="-76.18188" lat="45.15341"><ele>134.7</ele></trkpt><trkpt lon="-76.18338" lat="45.15443"><ele>140.6</ele></trkpt><trkpt lon="-76.18554" lat="45.15599"><ele>139.8</ele></trkpt><trkpt lon="-76.18605" lat="45.15625"><ele>139.1</ele></trkpt><trkpt lon="-76.18688" lat="45.15661"><ele>138.4</ele></trkpt><trkpt lon="-76.18843" lat="45.15715"><ele>138.6</ele></trkpt><trkpt lon="-76.18903" lat="45.15745"><ele>138.9</ele></trkpt><trkpt lon="-76.18958" lat="45.15775"><ele>139.9</ele></trkpt><trkpt lon="-76.18985" lat="45.15786"><ele>140.8</ele></trkpt><trkpt lon="-76.1901" lat="45.15789"><ele>141.5</ele></trkpt><trkpt lon="-76.19038" lat="45.15789"><ele>141.8</ele></trkpt><trkpt lon="-76.19139" lat="45.15783"><ele>141.9</ele></trkpt><trkpt lon="-76.19202" lat="45.15776"><ele>141.7</ele></trkpt><trkpt lon="-76.19233" lat="45.15767"><ele>141.7</ele></trkpt><trkpt lon="-76.19313" lat="45.15729"><ele>141.4</ele></trkpt><trkpt lon="-76.19338" lat="45.1572"><ele>141.1</ele></trkpt><trkpt lon="-76.19364" lat="45.15717"><ele>141.7</ele></trkpt><trkpt lon="-76.19387" lat="45.15721"><ele>142.1</ele></trkpt><trkpt lon="-76.19409" lat="45.15729"><ele>142.4</ele></trkpt><trkpt lon="-76.19454" lat="45.15751"><ele>142.4</ele></trkpt><trkpt lon="-76.19502" lat="45.1577"><ele>142.5</ele></trkpt><trkpt lon="-76.19544" lat="45.157739"><ele>141.8</ele></trkpt><trkpt lon="-76.1962" lat="45.15777"><ele>141.8</ele></trkpt><trkpt lon="-76.196789" lat="45.15782"><ele>142.8</ele></trkpt><trkpt lon="-76.1974" lat="45.15794"><ele>144.7</ele></trkpt><trkpt lon="-76.19794" lat="45.15809"><ele>145</ele></trkpt><trkpt lon="-76.19837" lat="45.1582"><ele>145</ele></trkpt><trkpt lon="-76.19898" lat="45.15828"><ele>145</ele></trkpt><trkpt lon="-76.20007" lat="45.15825"><ele>142.2</ele></trkpt><trkpt lon="-76.204179" lat="45.15793"><ele>138.5</ele></trkpt><trkpt lon="-76.20451" lat="45.15787"><ele>139.3</ele></trkpt><trkpt lon="-76.20478" lat="45.15778"><ele>139.8</ele></trkpt><trkpt lon="-76.20501" lat="45.15763"><ele>140.2</ele></trkpt><trkpt lon="-76.20566" lat="45.1571"><ele>143.3</ele></trkpt><trkpt lon="-76.2064" lat="45.15667"><ele>145.4</ele></trkpt><trkpt lon="-76.20705" lat="45.15612"><ele>146.6</ele></trkpt><trkpt lon="-76.20754" lat="45.15582"><ele>147.2</ele></trkpt><trkpt lon="-76.20774" lat="45.15564"><ele>147.9</ele></trkpt><trkpt lon="-76.20817" lat="45.15498"><ele>148.4</ele></trkpt><trkpt lon="-76.20855" lat="45.15463"><ele>148.9</ele></trkpt><trkpt lon="-76.20876" lat="45.15447"><ele>149.3</ele></trkpt><trkpt lon="-76.20974" lat="45.15388"><ele>149.4</ele></trkpt><trkpt lon="-76.21107" lat="45.15297"><ele>147.2</ele></trkpt><trkpt lon="-76.21186" lat="45.15237"><ele>148.8</ele></trkpt><trkpt lon="-76.21237" lat="45.15151"><ele>149.7</ele></trkpt><trkpt lon="-76.21283" lat="45.15085"><ele>148.6</ele></trkpt><trkpt lon="-76.21311" lat="45.15037"><ele>149</ele></trkpt><trkpt lon="-76.21342" lat="45.14993"><ele>149</ele></trkpt><trkpt lon="-76.21437" lat="45.14897"><ele>151.6</ele></trkpt><trkpt lon="-76.21457" lat="45.14882"><ele>151.4</ele></trkpt><trkpt lon="-76.21478" lat="45.14871"><ele>151.3</ele></trkpt><trkpt lon="-76.215" lat="45.14863"><ele>151.3</ele></trkpt><trkpt lon="-76.21548" lat="45.1486"><ele>152.1</ele></trkpt><trkpt lon="-76.21653" lat="45.14873"><ele>151.7</ele></trkpt><trkpt lon="-76.21687" lat="45.14875"><ele>151.6</ele></trkpt><trkpt lon="-76.2187" lat="45.14875"><ele>153</ele></trkpt><trkpt lon="-76.21971" lat="45.1488"><ele>154.7</ele></trkpt><trkpt lon="-76.22" lat="45.14878"><ele>154.5</ele></trkpt><trkpt lon="-76.22027" lat="45.148739"><ele>153</ele></trkpt><trkpt lon="-76.22051" lat="45.14865"><ele>151.7</ele></trkpt><trkpt lon="-76.22152" lat="45.14806"><ele>147.8</ele></trkpt><trkpt lon="-76.222669" lat="45.14749"><ele>153.2</ele></trkpt><trkpt lon="-76.22636" lat="45.14543"><ele>150.6</ele></trkpt><trkpt lon="-76.22649" lat="45.14537"><ele>150.8</ele></trkpt><trkpt lon="-76.23147" lat="45.149299"><ele>148</ele></trkpt><trkpt lon="-76.23985" lat="45.15593"><ele>139.7</ele></trkpt><trkpt lon="-76.24057" lat="45.15656"><ele>144.4</ele></trkpt><trkpt lon="-76.24205" lat="45.15762"><ele>154.8</ele></trkpt><trkpt lon="-76.24258" lat="45.15719"><ele>156.2</ele></trkpt><trkpt lon="-76.24297" lat="45.15683"><ele>155.9</ele></trkpt><trkpt lon="-76.24328" lat="45.15642"><ele>155.3</ele></trkpt><trkpt lon="-76.24384" lat="45.15546"><ele>156.4</ele></trkpt><trkpt lon="-76.24432" lat="45.15478"><ele>156.3</ele></trkpt><trkpt lon="-76.24451" lat="45.15459"><ele>156.5</ele></trkpt><trkpt lon="-76.245189" lat="45.15412"><ele>156.1</ele></trkpt><trkpt lon="-76.24611" lat="45.15359"><ele>155</ele></trkpt><trkpt lon="-76.24848" lat="45.15242"><ele>152.8</ele></trkpt><trkpt lon="-76.24875" lat="45.15231"><ele>152.4</ele></trkpt><trkpt lon="-76.24901" lat="45.15223"><ele>152</ele></trkpt><trkpt lon="-76.24929" lat="45.15219"><ele>152</ele></trkpt><trkpt lon="-76.25025" lat="45.152119"><ele>154.3</ele></trkpt><trkpt lon="-76.25084" lat="45.1521"><ele>157</ele></trkpt><trkpt lon="-76.25171" lat="45.15213"><ele>158.5</ele></trkpt><trkpt lon="-76.252" lat="45.1521"><ele>158.7</ele></trkpt><trkpt lon="-76.252529" lat="45.15197"><ele>159.3</ele></trkpt><trkpt lon="-76.25278" lat="45.15188"><ele>159.3</ele></trkpt><trkpt lon="-76.253" lat="45.15176"><ele>159.3</ele></trkpt><trkpt lon="-76.25331" lat="45.15146"><ele>159.5</ele></trkpt><trkpt lon="-76.25341" lat="45.15128"><ele>160.1</ele></trkpt><trkpt lon="-76.25353" lat="45.15068"><ele>160.8</ele></trkpt><trkpt lon="-76.25395" lat="45.14943"><ele>157.8</ele></trkpt><trkpt lon="-76.25398" lat="45.14922"><ele>157.3</ele></trkpt><trkpt lon="-76.25393" lat="45.14888"><ele>156.8</ele></trkpt><trkpt lon="-76.25381" lat="45.14866"><ele>156.6</ele></trkpt><trkpt lon="-76.25354" lat="45.1483"><ele>155.9</ele></trkpt><trkpt lon="-76.25337" lat="45.14812"><ele>155.3</ele></trkpt><trkpt lon="-76.2526" lat="45.14749"><ele>150.3</ele></trkpt><trkpt lon="-76.25243" lat="45.1473"><ele>149.5</ele></trkpt><trkpt lon="-76.2508" lat="45.1459"><ele>148.9</ele></trkpt><trkpt lon="-76.25066" lat="45.14572"><ele>150</ele></trkpt><trkpt lon="-76.25062" lat="45.14551"><ele>150.7</ele></trkpt><trkpt lon="-76.250649" lat="45.14518"><ele>151.7</ele></trkpt><trkpt lon="-76.25075" lat="45.14494"><ele>152.1</ele></trkpt><trkpt lon="-76.25116" lat="45.14434"><ele>152.8</ele></trkpt><trkpt lon="-76.25197" lat="45.14333"><ele>155.4</ele></trkpt><trkpt lon="-76.25208" lat="45.14312"><ele>154.9</ele></trkpt><trkpt lon="-76.25215" lat="45.1429"><ele>154.2</ele></trkpt><trkpt lon="-76.2522" lat="45.14266"><ele>153.5</ele></trkpt><trkpt lon="-76.25217" lat="45.14213"><ele>152.5</ele></trkpt><trkpt lon="-76.25212" lat="45.141889"><ele>152</ele></trkpt><trkpt lon="-76.25117" lat="45.13964"><ele>155.3</ele></trkpt><trkpt lon="-76.25008" lat="45.13713"><ele>158.6</ele></trkpt><trkpt lon="-76.24988" lat="45.13647"><ele>157.4</ele></trkpt><trkpt lon="-76.24898" lat="45.13301"><ele>161.2</ele></trkpt><trkpt lon="-76.24867" lat="45.13159"><ele>161.6</ele></trkpt><trkpt lon="-76.24858" lat="45.131279"><ele>161.5</ele></trkpt><trkpt lon="-76.24802" lat="45.129869"><ele>161.3</ele></trkpt><trkpt lon="-76.24784" lat="45.12925"><ele>160.9</ele></trkpt><trkpt lon="-76.24715" lat="45.12552"><ele>156.7</ele></trkpt><trkpt lon="-76.24708" lat="45.12498"><ele>157.5</ele></trkpt><trkpt lon="-76.24702" lat="45.12419"><ele>159.5</ele></trkpt><trkpt lon="-76.24703" lat="45.12369"><ele>159.7</ele></trkpt><trkpt lon="-76.24736" lat="45.12131"><ele>157.1</ele></trkpt><trkpt lon="-76.24754" lat="45.11966"><ele>160.5</ele></trkpt><trkpt lon="-76.24757" lat="45.118899"><ele>161.8</ele></trkpt><trkpt lon="-76.24747" lat="45.11839"><ele>162.8</ele></trkpt><trkpt lon="-76.24739" lat="45.1181"><ele>162.5</ele></trkpt><trkpt lon="-76.24727" lat="45.117669"><ele>161.9</ele></trkpt><trkpt lon="-76.24706" lat="45.11726"><ele>160.6</ele></trkpt><trkpt lon="-76.24664" lat="45.11665"><ele>158.9</ele></trkpt><trkpt lon="-76.24803" lat="45.115789"><ele>163.3</ele></trkpt><trkpt lon="-76.251859" lat="45.11328"><ele>161.8</ele></trkpt><trkpt lon="-76.254099" lat="45.11189"><ele>158.8</ele></trkpt><trkpt lon="-76.25642" lat="45.11366"><ele>159.4</ele></trkpt><trkpt lon="-76.25747" lat="45.11453"><ele>159.3</ele></trkpt><trkpt lon="-76.25917" lat="45.11578"><ele>159.3</ele></trkpt><trkpt lon="-76.25994" lat="45.11644"><ele>162.2</ele></trkpt><trkpt lon="-76.26205" lat="45.11813"><ele>158.1</ele></trkpt><trkpt lon="-76.26601" lat="45.12122"><ele>168.7</ele></trkpt><trkpt lon="-76.26764" lat="45.12243"><ele>165.3</ele></trkpt><trkpt lon="-76.27014" lat="45.12438"><ele>163.2</ele></trkpt><trkpt lon="-76.27612" lat="45.12916"><ele>181</ele></trkpt><trkpt lon="-76.28018" lat="45.13226"><ele>182.8</ele></trkpt><trkpt lon="-76.28165" lat="45.13141"><ele>183.6</ele></trkpt><trkpt lon="-76.29107" lat="45.125749"><ele>192.3</ele></trkpt><trkpt lon="-76.291079" lat="45.125749"><ele>192.2</ele></trkpt><trkpt lon="-76.29377" lat="45.1242"><ele>194</ele></trkpt><trkpt lon="-76.29646" lat="45.12636"><ele>193.4</ele></trkpt><trkpt lon="-76.298689" lat="45.12822"><ele>192.6</ele></trkpt><trkpt lon="-76.29951" lat="45.12891"><ele>190.1</ele></trkpt><trkpt lon="-76.305809" lat="45.134"><ele>184.4</ele></trkpt><trkpt lon="-76.31132" lat="45.13831"><ele>182.1</ele></trkpt><trkpt lon="-76.31393" lat="45.14043"><ele>180.9</ele></trkpt><trkpt lon="-76.316909" lat="45.14285"><ele>175.8</ele></trkpt><trkpt lon="-76.31829" lat="45.14389"><ele>176.4</ele></trkpt><trkpt lon="-76.31944" lat="45.14481"><ele>178.9</ele></trkpt><trkpt lon="-76.30594" lat="45.15311"><ele>183.1</ele></trkpt><trkpt lon="-76.30208" lat="45.15563"><ele>178.7</ele></trkpt><trkpt lon="-76.30215" lat="45.15573"><ele>179</ele></trkpt><trkpt lon="-76.30215" lat="45.15573"><ele>179</ele></trkpt><trkpt lon="-76.30221" lat="45.15597"><ele>179.5</ele></trkpt><trkpt lon="-76.30241" lat="45.15805"><ele>177.7</ele></trkpt><trkpt lon="-76.30257" lat="45.15865"><ele>176.9</ele></trkpt><trkpt lon="-76.30282" lat="45.159239"><ele>177</ele></trkpt><trkpt lon="-76.30314" lat="45.15984"><ele>177.4</ele></trkpt><trkpt lon="-76.30334" lat="45.16013"><ele>178</ele></trkpt><trkpt lon="-76.303569" lat="45.16039"><ele>178.6</ele></trkpt><trkpt lon="-76.30383" lat="45.16063"><ele>178.9</ele></trkpt><trkpt lon="-76.30591" lat="45.16231"><ele>182</ele></trkpt><trkpt lon="-76.30615" lat="45.16255"><ele>182.7</ele></trkpt><trkpt lon="-76.30635" lat="45.16279"><ele>183</ele></trkpt><trkpt lon="-76.30668" lat="45.16327"><ele>184</ele></trkpt><trkpt lon="-76.30692" lat="45.16376"><ele>183.3</ele></trkpt><trkpt lon="-76.30716" lat="45.16434"><ele>182.2</ele></trkpt><trkpt lon="-76.30922" lat="45.16931"><ele>168.8</ele></trkpt><trkpt lon="-76.30933" lat="45.16962"><ele>170.2</ele></trkpt><trkpt lon="-76.30945" lat="45.1702"><ele>172.2</ele></trkpt><trkpt lon="-76.30936" lat="45.17306"><ele>180.9</ele></trkpt><trkpt lon="-76.30924" lat="45.17407"><ele>179.7</ele></trkpt><trkpt lon="-76.30914" lat="45.17439"><ele>179.8</ele></trkpt><trkpt lon="-76.30901" lat="45.1746"><ele>180.3</ele></trkpt><trkpt lon="-76.30893" lat="45.17465"><ele>180.3</ele></trkpt><trkpt lon="-76.31131" lat="45.17663"><ele>183.6</ele></trkpt><trkpt lon="-76.31196" lat="45.17712"><ele>183.2</ele></trkpt><trkpt lon="-76.31228" lat="45.17729"><ele>183.4</ele></trkpt><trkpt lon="-76.31262" lat="45.17743"><ele>183.9</ele></trkpt><trkpt lon="-76.31318" lat="45.17759"><ele>184.8</ele></trkpt><trkpt lon="-76.31347" lat="45.17765"><ele>183.9</ele></trkpt><trkpt lon="-76.31423" lat="45.17787"><ele>179.6</ele></trkpt><trkpt lon="-76.3146" lat="45.17803"><ele>178.2</ele></trkpt><trkpt lon="-76.31496" lat="45.17824"><ele>177</ele></trkpt><trkpt lon="-76.31528" lat="45.178489"><ele>177.3</ele></trkpt><trkpt lon="-76.31554" lat="45.17879"><ele>178.4</ele></trkpt><trkpt lon="-76.31603" lat="45.17944"><ele>179</ele></trkpt><trkpt lon="-76.31717" lat="45.1811"><ele>177.3</ele></trkpt><trkpt lon="-76.31814" lat="45.18215"><ele>177.1</ele></trkpt><trkpt lon="-76.3195" lat="45.18338"><ele>176.3</ele></trkpt><trkpt lon="-76.3195" lat="45.18338"><ele>176.3</ele></trkpt><trkpt lon="-76.31994" lat="45.18377"><ele>176.3</ele></trkpt><trkpt lon="-76.32101" lat="45.18462"><ele>175.1</ele></trkpt><trkpt lon="-76.321119" lat="45.18478"><ele>174.7</ele></trkpt><trkpt lon="-76.32111" lat="45.185"><ele>174.3</ele></trkpt><trkpt lon="-76.32108" lat="45.18518"><ele>173.5</ele></trkpt><trkpt lon="-76.32072" lat="45.185899"><ele>169.7</ele></trkpt><trkpt lon="-76.32057" lat="45.186279"><ele>168</ele></trkpt><trkpt lon="-76.32054" lat="45.18642"><ele>167.4</ele></trkpt><trkpt lon="-76.32062" lat="45.18658"><ele>166.6</ele></trkpt><trkpt lon="-76.32129" lat="45.18714"><ele>167.4</ele></trkpt><trkpt lon="-76.32207" lat="45.18768"><ele>168.5</ele></trkpt><trkpt lon="-76.32363" lat="45.18867"><ele>166.5</ele></trkpt><trkpt lon="-76.32518" lat="45.189839"><ele>166</ele></trkpt><trkpt lon="-76.32555" lat="45.19019"><ele>165</ele></trkpt><trkpt lon="-76.32586" lat="45.19054"><ele>162.3</ele></trkpt><trkpt lon="-76.32629" lat="45.19142"><ele>162.2</ele></trkpt><trkpt lon="-76.32637" lat="45.1915"><ele>162.5</ele></trkpt><trkpt lon="-76.32628" lat="45.19168"><ele>162.6</ele></trkpt><trkpt lon="-76.32628" lat="45.19201"><ele>163</ele></trkpt><trkpt lon="-76.32616" lat="45.192929"><ele>163.6</ele></trkpt><trkpt lon="-76.326179" lat="45.19381"><ele>166</ele></trkpt><trkpt lon="-76.32628" lat="45.19413"><ele>167.5</ele></trkpt><trkpt lon="-76.32641" lat="45.19441"><ele>169.1</ele></trkpt><trkpt lon="-76.32688" lat="45.19521"><ele>172.6</ele></trkpt><trkpt lon="-76.327029" lat="45.195749"><ele>174.6</ele></trkpt><trkpt lon="-76.32728" lat="45.19842"><ele>178</ele></trkpt><trkpt lon="-76.32726" lat="45.19864"><ele>177.3</ele></trkpt><trkpt lon="-76.32719" lat="45.19885"><ele>176.7</ele></trkpt><trkpt lon="-76.32708" lat="45.19906"><ele>175.9</ele></trkpt><trkpt lon="-76.32692" lat="45.19928"><ele>175</ele></trkpt><trkpt lon="-76.32673" lat="45.19948"><ele>174</ele></trkpt><trkpt lon="-76.32651" lat="45.19965"><ele>172.9</ele></trkpt><trkpt lon="-76.32493" lat="45.20062"><ele>173.8</ele></trkpt><trkpt lon="-76.3236" lat="45.20149"><ele>172.9</ele></trkpt><trkpt lon="-76.32338" lat="45.20167"><ele>173</ele></trkpt><trkpt lon="-76.32324" lat="45.20187"><ele>172.3</ele></trkpt><trkpt lon="-76.32314" lat="45.20209"><ele>171.7</ele></trkpt><trkpt lon="-76.32277" lat="45.20311"><ele>168.9</ele></trkpt><trkpt lon="-76.32262" lat="45.20343"><ele>167.2</ele></trkpt><trkpt lon="-76.32262" lat="45.20344"><ele>167.2</ele></trkpt><trkpt lon="-76.32248" lat="45.20377"><ele>165.9</ele></trkpt><trkpt lon="-76.32217" lat="45.20429"><ele>164.6</ele></trkpt><trkpt lon="-76.32181" lat="45.20477"><ele>163.7</ele></trkpt><trkpt lon="-76.32159" lat="45.20498"><ele>162.9</ele></trkpt><trkpt lon="-76.32134" lat="45.20518"><ele>163.6</ele></trkpt><trkpt lon="-76.32081" lat="45.205509"><ele>165</ele></trkpt><trkpt lon="-76.32055" lat="45.20565"><ele>165</ele></trkpt><trkpt lon="-76.31994" lat="45.205889"><ele>164.3</ele></trkpt><trkpt lon="-76.31813" lat="45.20641"><ele>163.8</ele></trkpt><trkpt lon="-76.31739" lat="45.20669"><ele>162.8</ele></trkpt><trkpt lon="-76.31504" lat="45.20789"><ele>162.8</ele></trkpt><trkpt lon="-76.31404" lat="45.20837"><ele>161.9</ele></trkpt><trkpt lon="-76.31375" lat="45.20853"><ele>162.3</ele></trkpt><trkpt lon="-76.31294" lat="45.20909"><ele>162.7</ele></trkpt><trkpt lon="-76.31261" lat="45.209269"><ele>161.5</ele></trkpt><trkpt lon="-76.31226" lat="45.209449"><ele>161.4</ele></trkpt><trkpt lon="-76.30946" lat="45.21065"><ele>158.5</ele></trkpt><trkpt lon="-76.30894" lat="45.21096"><ele>158.1</ele></trkpt><trkpt lon="-76.30793" lat="45.21195"><ele>159.1</ele></trkpt><trkpt lon="-76.30632" lat="45.21332"><ele>160.2</ele></trkpt><trkpt lon="-76.30606" lat="45.21347"><ele>159.7</ele></trkpt><trkpt lon="-76.30495" lat="45.21401"><ele>157.7</ele></trkpt><trkpt lon="-76.3043" lat="45.21414"><ele>158.7</ele></trkpt><trkpt lon="-76.30329" lat="45.21428"><ele>157.2</ele></trkpt><trkpt lon="-76.30296" lat="45.21438"><ele>157.1</ele></trkpt><trkpt lon="-76.30234" lat="45.21467"><ele>157.8</ele></trkpt><trkpt lon="-76.30182" lat="45.21506"><ele>158.2</ele></trkpt><trkpt lon="-76.30065" lat="45.21622"><ele>155</ele></trkpt><trkpt lon="-76.29986" lat="45.21718"><ele>154.5</ele></trkpt><trkpt lon="-76.2994" lat="45.21783"><ele>154.3</ele></trkpt><trkpt lon="-76.29886" lat="45.21895"><ele>152.8</ele></trkpt><trkpt lon="-76.29861" lat="45.21965"><ele>152.3</ele></trkpt><trkpt lon="-76.29859" lat="45.21986"><ele>152.2</ele></trkpt><trkpt lon="-76.29865" lat="45.22026"><ele>153.1</ele></trkpt><trkpt lon="-76.29866" lat="45.22067"><ele>154</ele></trkpt><trkpt lon="-76.29845" lat="45.22115"><ele>152.1</ele></trkpt><trkpt lon="-76.29815" lat="45.22167"><ele>148.9</ele></trkpt><trkpt lon="-76.29772" lat="45.22277"><ele>151</ele></trkpt><trkpt lon="-76.2975" lat="45.22398"><ele>154.4</ele></trkpt><trkpt lon="-76.29728" lat="45.2244"><ele>154.2</ele></trkpt><trkpt lon="-76.29698" lat="45.22483"><ele>153.3</ele></trkpt><trkpt lon="-76.29657" lat="45.22518"><ele>153</ele></trkpt><trkpt lon="-76.295509" lat="45.22577"><ele>151.7</ele></trkpt><trkpt lon="-76.29207" lat="45.22725"><ele>143.2</ele></trkpt><trkpt lon="-76.29183" lat="45.227379"><ele>143.7</ele></trkpt><trkpt lon="-76.29164" lat="45.22753"><ele>144</ele></trkpt><trkpt lon="-76.29151" lat="45.22773"><ele>143.7</ele></trkpt><trkpt lon="-76.29142" lat="45.22796"><ele>143.4</ele></trkpt><trkpt lon="-76.2913" lat="45.22863"><ele>142.2</ele></trkpt><trkpt lon="-76.29113" lat="45.22905"><ele>141.5</ele></trkpt><trkpt lon="-76.29097" lat="45.22922"><ele>141.9</ele></trkpt><trkpt lon="-76.29075" lat="45.22939"><ele>142.6</ele></trkpt><trkpt lon="-76.29024" lat="45.22966"><ele>143.7</ele></trkpt><trkpt lon="-76.29003" lat="45.22981"><ele>145.1</ele></trkpt><trkpt lon="-76.28986" lat="45.22998"><ele>146.8</ele></trkpt><trkpt lon="-76.289779" lat="45.23015"><ele>147.2</ele></trkpt><trkpt lon="-76.28976" lat="45.23034"><ele>147.5</ele></trkpt><trkpt lon="-76.28977" lat="45.23134"><ele>149.1</ele></trkpt><trkpt lon="-76.28966" lat="45.23189"><ele>149.6</ele></trkpt><trkpt lon="-76.28958" lat="45.23206"><ele>149.5</ele></trkpt><trkpt lon="-76.28927" lat="45.23234"><ele>149.3</ele></trkpt><trkpt lon="-76.287809" lat="45.233379"><ele>148.3</ele></trkpt><trkpt lon="-76.283109" lat="45.2366"><ele>141.9</ele></trkpt><trkpt lon="-76.28269" lat="45.23684"><ele>141.6</ele></trkpt><trkpt lon="-76.28241" lat="45.2371"><ele>140.3</ele></trkpt><trkpt lon="-76.28222" lat="45.23736"><ele>138.5</ele></trkpt><trkpt lon="-76.28207" lat="45.23746"><ele>137.7</ele></trkpt><trkpt lon="-76.2814" lat="45.2378"><ele>136.6</ele></trkpt><trkpt lon="-76.27789" lat="45.24016"><ele>131.6</ele></trkpt><trkpt lon="-76.27772" lat="45.24027"><ele>131</ele></trkpt><trkpt lon="-76.28194" lat="45.2436"><ele>134.8</ele></trkpt><trkpt lon="-76.277869" lat="45.246049"><ele>138.5</ele></trkpt><trkpt lon="-76.27754" lat="45.24622"><ele>138</ele></trkpt><trkpt lon="-76.27721" lat="45.24637"><ele>136.4</ele></trkpt><trkpt lon="-76.27648" lat="45.246609"><ele>133.2</ele></trkpt><trkpt lon="-76.2744" lat="45.247079"><ele>130.2</ele></trkpt><trkpt lon="-76.27364" lat="45.24731"><ele>129</ele></trkpt><trkpt lon="-76.27305" lat="45.24762"><ele>128.3</ele></trkpt><trkpt lon="-76.27091" lat="45.24893"><ele>128</ele></trkpt><trkpt lon="-76.26822" lat="45.249989"><ele>134.6</ele></trkpt><trkpt lon="-76.267439" lat="45.25026"><ele>133.1</ele></trkpt><trkpt lon="-76.264619" lat="45.25137"><ele>135.1</ele></trkpt><trkpt lon="-76.26365" lat="45.25182"><ele>137.7</ele></trkpt><trkpt lon="-76.262739" lat="45.25231"><ele>137.6</ele></trkpt><trkpt lon="-76.26224" lat="45.25263"><ele>138.7</ele></trkpt><trkpt lon="-76.26208" lat="45.25283"><ele>138.8</ele></trkpt><trkpt lon="-76.26202" lat="45.25306"><ele>138.5</ele></trkpt><trkpt lon="-76.26202" lat="45.25329"><ele>137.7</ele></trkpt><trkpt lon="-76.26222" lat="45.25493"><ele>139.9</ele></trkpt><trkpt lon="-76.26219" lat="45.25636"><ele>133</ele></trkpt><trkpt lon="-76.26223" lat="45.25729"><ele>132.7</ele></trkpt><trkpt lon="-76.26217" lat="45.25786"><ele>133.3</ele></trkpt><trkpt lon="-76.2621" lat="45.25811"><ele>133.6</ele></trkpt><trkpt lon="-76.26198" lat="45.258339"><ele>134</ele></trkpt><trkpt lon="-76.26181" lat="45.25854"><ele>134</ele></trkpt><trkpt lon="-76.26159" lat="45.25871"><ele>134</ele></trkpt><trkpt lon="-76.254769" lat="45.26327"><ele>111.1</ele></trkpt><trkpt lon="-76.25373" lat="45.26394"><ele>108.5</ele></trkpt><trkpt lon="-76.25152" lat="45.26535"><ele>101.7</ele></trkpt><trkpt lon="-76.25134" lat="45.26551"><ele>101.5</ele></trkpt><trkpt lon="-76.25122" lat="45.2657"><ele>101.2</ele></trkpt><trkpt lon="-76.25114" lat="45.26593"><ele>100.7</ele></trkpt><trkpt lon="-76.250919" lat="45.26676"><ele>97.9</ele></trkpt><trkpt lon="-76.25077" lat="45.26714"><ele>97.3</ele></trkpt><trkpt lon="-76.25062" lat="45.26724"><ele>96.9</ele></trkpt><trkpt lon="-76.25044" lat="45.26726"><ele>96.5</ele></trkpt><trkpt lon="-76.25036" lat="45.26724"><ele>96.4</ele></trkpt><trkpt lon="-76.24923" lat="45.26692"><ele>96.8</ele></trkpt><trkpt lon="-76.249039" lat="45.26685"><ele>96.8</ele></trkpt><trkpt lon="-76.24882" lat="45.26672"><ele>96.6</ele></trkpt><trkpt lon="-76.24872" lat="45.26658"><ele>96.6</ele></trkpt><trkpt lon="-76.24857" lat="45.266219"><ele>97.4</ele></trkpt><trkpt lon="-76.24845" lat="45.26605"><ele>98</ele></trkpt><trkpt lon="-76.24808" lat="45.26571"><ele>99.3</ele></trkpt><trkpt lon="-76.24746" lat="45.26531"><ele>103</ele></trkpt><trkpt lon="-76.24709" lat="45.26512"><ele>106.4</ele></trkpt><trkpt lon="-76.24691" lat="45.26509"><ele>107.7</ele></trkpt><trkpt lon="-76.246709" lat="45.26512"><ele>108.5</ele></trkpt><trkpt lon="-76.24629" lat="45.26523"><ele>109.8</ele></trkpt><trkpt lon="-76.24581" lat="45.26541"><ele>111.6</ele></trkpt><trkpt lon="-76.24538" lat="45.26563"><ele>113.1</ele></trkpt><trkpt lon="-76.24485" lat="45.26596"><ele>115.7</ele></trkpt><trkpt lon="-76.2446" lat="45.26609"><ele>115.2</ele></trkpt><trkpt lon="-76.24223" lat="45.26751"><ele>116.3</ele></trkpt><trkpt lon="-76.24165" lat="45.26779"><ele>115.3</ele></trkpt><trkpt lon="-76.24027" lat="45.26822"><ele>115</ele></trkpt><trkpt lon="-76.23949" lat="45.26843"><ele>115.8</ele></trkpt><trkpt lon="-76.23779" lat="45.26865"><ele>112.9</ele></trkpt><trkpt lon="-76.23569" lat="45.26888"><ele>115.4</ele></trkpt><trkpt lon="-76.235519" lat="45.26892"><ele>115.2</ele></trkpt><trkpt lon="-76.235429" lat="45.26897"><ele>115.2</ele></trkpt><trkpt lon="-76.23533" lat="45.26907"><ele>115.2</ele></trkpt><trkpt lon="-76.2353" lat="45.26917"><ele>115.4</ele></trkpt><trkpt lon="-76.2353" lat="45.26924"><ele>115.4</ele></trkpt><trkpt lon="-76.23506" lat="45.26944"><ele>115.3</ele></trkpt><trkpt lon="-76.235" lat="45.26936"><ele>115.2</ele></trkpt><trkpt lon="-76.218909" lat="45.25023"><ele>119.3</ele></trkpt><trkpt lon="-76.2187" lat="45.25002"><ele>119.4</ele></trkpt><trkpt lon="-76.2172" lat="45.24822"><ele>121.3</ele></trkpt><trkpt lon="-76.21485" lat="45.24533"><ele>124.9</ele></trkpt><trkpt lon="-76.21383" lat="45.24411"><ele>127.4</ele></trkpt><trkpt lon="-76.21166" lat="45.24176"><ele>125.9</ele></trkpt><trkpt lon="-76.2086" lat="45.23905"><ele>127.5</ele></trkpt><trkpt lon="-76.20511" lat="45.23599"><ele>128</ele></trkpt><trkpt lon="-76.20335" lat="45.23443"><ele>125.1</ele></trkpt><trkpt lon="-76.2021" lat="45.23322"><ele>127.7</ele></trkpt><trkpt lon="-76.20065" lat="45.23164"><ele>129.3</ele></trkpt><trkpt lon="-76.1985" lat="45.22901"><ele>123</ele></trkpt><trkpt lon="-76.19735" lat="45.22789"><ele>122.6</ele></trkpt><trkpt lon="-76.19653" lat="45.22725"><ele>122</ele></trkpt><trkpt lon="-76.19553" lat="45.22656"><ele>116.6</ele></trkpt><trkpt lon="-76.19293" lat="45.22468"><ele>122.2</ele></trkpt><trkpt lon="-76.191599" lat="45.22375"><ele>123.4</ele></trkpt><trkpt lon="-76.18962" lat="45.2223"><ele>122.4</ele></trkpt><trkpt lon="-76.18775" lat="45.22085"><ele>121.6</ele></trkpt><trkpt lon="-76.18669" lat="45.21996"><ele>121</ele></trkpt><trkpt lon="-76.18255" lat="45.21614"><ele>122.4</ele></trkpt><trkpt lon="-76.17785" lat="45.21167"><ele>125.2</ele></trkpt><trkpt lon="-76.17404" lat="45.20824"><ele>129</ele></trkpt><trkpt lon="-76.17081" lat="45.20503"><ele>126.9</ele></trkpt><trkpt lon="-76.17003" lat="45.20415"><ele>124.2</ele></trkpt><trkpt lon="-76.16934" lat="45.20328"><ele>124</ele></trkpt><trkpt lon="-76.16817" lat="45.201659"><ele>126.4</ele></trkpt><trkpt lon="-76.16716" lat="45.2"><ele>126</ele></trkpt><trkpt lon="-76.16679" lat="45.19934"><ele>125.2</ele></trkpt><trkpt lon="-76.16268" lat="45.191899"><ele>125.2</ele></trkpt><trkpt lon="-76.16038" lat="45.18753"><ele>126.6</ele></trkpt><trkpt lon="-76.15904" lat="45.18521"><ele>129.5</ele></trkpt><trkpt lon="-76.15828" lat="45.18379"><ele>132.2</ele></trkpt><trkpt lon="-76.15728" lat="45.182"><ele>131.8</ele></trkpt><trkpt lon="-76.1545" lat="45.1768"><ele>126.9</ele></trkpt><trkpt lon="-76.15177" lat="45.17184"><ele>127.8</ele></trkpt><trkpt lon="-76.146649" lat="45.16227"><ele>138.2</ele></trkpt><trkpt lon="-76.14582" lat="45.16033"><ele>140</ele></trkpt><trkpt lon="-76.14536" lat="45.15889"><ele>140.1</ele></trkpt><trkpt lon="-76.14491" lat="45.15732"><ele>137.8</ele></trkpt><trkpt lon="-76.14444" lat="45.15541"><ele>138.5</ele></trkpt><trkpt lon="-76.14327" lat="45.15014"><ele>139.1</ele></trkpt><trkpt lon="-76.14319" lat="45.14952"><ele>140.1</ele></trkpt><trkpt lon="-76.14319" lat="45.14885"><ele>141.1</ele></trkpt><trkpt lon="-76.14325" lat="45.14849"><ele>141.6</ele></trkpt><trkpt lon="-76.143469" lat="45.1473"><ele>140</ele></trkpt><trkpt lon="-76.14389" lat="45.14501"><ele>139.4</ele></trkpt><trkpt lon="-76.14392" lat="45.14426"><ele>137.1</ele></trkpt><trkpt lon="-76.14386" lat="45.144"><ele>136.2</ele></trkpt><trkpt lon="-76.14368" lat="45.144"><ele>135.4</ele></trkpt><trkpt lon="-76.14361" lat="45.14364"><ele>134.5</ele></trkpt><trkpt lon="-76.143559" lat="45.14362"><ele>134.3</ele></trkpt><trkpt lon="-76.14307" lat="45.14359"><ele>133.4</ele></trkpt><trkpt lon="-76.14264" lat="45.1435"><ele>133.7</ele></trkpt><trkpt lon="-76.14245" lat="45.14343"><ele>134</ele></trkpt><trkpt lon="-76.14274" lat="45.14296"><ele>133.3</ele></trkpt><trkpt lon="-76.14284" lat="45.14272"><ele>132.9</ele></trkpt><trkpt lon="-76.14361" lat="45.1425"><ele>132.7</ele></trkpt><trkpt lon="-76.14375" lat="45.14242"><ele>133.3</ele></trkpt><trkpt lon="-76.14388" lat="45.14228"><ele>134</ele></trkpt><trkpt lon="-76.14483" lat="45.1414"><ele>137.1</ele></trkpt><trkpt lon="-76.14495" lat="45.14133"><ele>137.6</ele></trkpt><trkpt lon="-76.146559" lat="45.14037"><ele>138.2</ele></trkpt><trkpt lon="-76.14664" lat="45.14042"><ele>138</ele></trkpt><trkpt lon="-76.146559" lat="45.14044"><ele>137.9</ele></trkpt><trkpt lon="-76.14645" lat="45.14051"><ele>137.6</ele></trkpt>
                            </trkseg>
                        </trk>
                    </gpx>