<?xml version="1.0" encoding="UTF-8"?>
                    <gpx version="1.1" creator="GPX Generator" xmlns="http://www.topografix.com/GPX/1/1">
                        <trk>
                            <name>2022 - Défi 808 - 70 km - 40355057.gpx</name>
                            <trkseg>
                                <trkpt lon="-74.588849" lat="46.13755"><ele>216.4</ele></trkpt><trkpt lon="-74.58863" lat="46.13837"><ele>216.8</ele></trkpt><trkpt lon="-74.58842" lat="46.1392"><ele>219.1</ele></trkpt><trkpt lon="-74.5882" lat="46.14003"><ele>222.7</ele></trkpt><trkpt lon="-74.58799" lat="46.14086"><ele>220.2</ele></trkpt><trkpt lon="-74.58777" lat="46.141689"><ele>217.4</ele></trkpt><trkpt lon="-74.58759" lat="46.14234"><ele>218.6</ele></trkpt><trkpt lon="-74.58741" lat="46.14299"><ele>220.3</ele></trkpt><trkpt lon="-74.58723" lat="46.14365"><ele>223.2</ele></trkpt><trkpt lon="-74.58701" lat="46.14424"><ele>225.8</ele></trkpt><trkpt lon="-74.5868" lat="46.14483"><ele>229.1</ele></trkpt><trkpt lon="-74.58657" lat="46.145539"><ele>232.6</ele></trkpt><trkpt lon="-74.58646" lat="46.14637"><ele>236.7</ele></trkpt><trkpt lon="-74.58646" lat="46.14637"><ele>236.7</ele></trkpt><trkpt lon="-74.58646" lat="46.14638"><ele>236.8</ele></trkpt><trkpt lon="-74.58577" lat="46.1464"><ele>237.3</ele></trkpt><trkpt lon="-74.58505" lat="46.14649"><ele>236.3</ele></trkpt><trkpt lon="-74.58422" lat="46.14671"><ele>237.9</ele></trkpt><trkpt lon="-74.58392" lat="46.146859"><ele>239.5</ele></trkpt><trkpt lon="-74.58365" lat="46.14707"><ele>241.1</ele></trkpt><trkpt lon="-74.58334" lat="46.14739"><ele>243</ele></trkpt><trkpt lon="-74.582939" lat="46.14797"><ele>244.6</ele></trkpt><trkpt lon="-74.58255" lat="46.14856"><ele>245.3</ele></trkpt><trkpt lon="-74.58227" lat="46.14877"><ele>246.3</ele></trkpt><trkpt lon="-74.58169" lat="46.14909"><ele>246.1</ele></trkpt><trkpt lon="-74.58089" lat="46.14951"><ele>243.9</ele></trkpt><trkpt lon="-74.58009" lat="46.14993"><ele>242.5</ele></trkpt><trkpt lon="-74.57929" lat="46.15035"><ele>243.8</ele></trkpt><trkpt lon="-74.57911" lat="46.15043"><ele>244.1</ele></trkpt><trkpt lon="-74.57839" lat="46.15082"><ele>244</ele></trkpt><trkpt lon="-74.57783" lat="46.15122"><ele>244.3</ele></trkpt><trkpt lon="-74.57727" lat="46.15162"><ele>244.1</ele></trkpt><trkpt lon="-74.57646" lat="46.15224"><ele>246.4</ele></trkpt><trkpt lon="-74.57617" lat="46.1524"><ele>245.9</ele></trkpt><trkpt lon="-74.57568" lat="46.15251"><ele>244.8</ele></trkpt><trkpt lon="-74.57445" lat="46.1527"><ele>244</ele></trkpt><trkpt lon="-74.57322" lat="46.15288"><ele>244.4</ele></trkpt><trkpt lon="-74.57199" lat="46.15307"><ele>245.4</ele></trkpt><trkpt lon="-74.57076" lat="46.15326"><ele>245.5</ele></trkpt><trkpt lon="-74.57023" lat="46.1533"><ele>246</ele></trkpt><trkpt lon="-74.56927" lat="46.15323"><ele>247</ele></trkpt><trkpt lon="-74.56818" lat="46.15311"><ele>246.7</ele></trkpt><trkpt lon="-74.567089" lat="46.153"><ele>245.9</ele></trkpt><trkpt lon="-74.56602" lat="46.15284"><ele>244.9</ele></trkpt><trkpt lon="-74.56533" lat="46.152769"><ele>244.5</ele></trkpt><trkpt lon="-74.56477" lat="46.152679"><ele>244.3</ele></trkpt><trkpt lon="-74.56412" lat="46.15249"><ele>244</ele></trkpt><trkpt lon="-74.56313" lat="46.15209"><ele>244</ele></trkpt><trkpt lon="-74.56243" lat="46.15184"><ele>245</ele></trkpt><trkpt lon="-74.56147" lat="46.15167"><ele>243.8</ele></trkpt><trkpt lon="-74.560509" lat="46.15137"><ele>248.3</ele></trkpt><trkpt lon="-74.55955" lat="46.15108"><ele>247.5</ele></trkpt><trkpt lon="-74.55892" lat="46.15091"><ele>245</ele></trkpt><trkpt lon="-74.5583" lat="46.15073"><ele>244.7</ele></trkpt><trkpt lon="-74.55717" lat="46.150329"><ele>246</ele></trkpt><trkpt lon="-74.55605" lat="46.14992"><ele>243.5</ele></trkpt><trkpt lon="-74.55492" lat="46.14952"><ele>241.9</ele></trkpt><trkpt lon="-74.55382" lat="46.149209"><ele>241</ele></trkpt><trkpt lon="-74.552719" lat="46.14889"><ele>241.3</ele></trkpt><trkpt lon="-74.55162" lat="46.14857"><ele>243.1</ele></trkpt><trkpt lon="-74.55157" lat="46.14856"><ele>243.1</ele></trkpt><trkpt lon="-74.5518" lat="46.14768"><ele>243.3</ele></trkpt><trkpt lon="-74.55202" lat="46.1468"><ele>242.6</ele></trkpt><trkpt lon="-74.55224" lat="46.14591"><ele>243.3</ele></trkpt><trkpt lon="-74.55246" lat="46.14503"><ele>244.9</ele></trkpt><trkpt lon="-74.55269" lat="46.14415"><ele>244.4</ele></trkpt><trkpt lon="-74.55291" lat="46.14327"><ele>244.4</ele></trkpt><trkpt lon="-74.55313" lat="46.14238"><ele>243.8</ele></trkpt><trkpt lon="-74.55335" lat="46.1415"><ele>241.3</ele></trkpt><trkpt lon="-74.55358" lat="46.14062"><ele>242.9</ele></trkpt><trkpt lon="-74.5538" lat="46.13974"><ele>242.5</ele></trkpt><trkpt lon="-74.55402" lat="46.13885"><ele>242.3</ele></trkpt><trkpt lon="-74.554239" lat="46.13797"><ele>241.7</ele></trkpt><trkpt lon="-74.55447" lat="46.13709"><ele>241.5</ele></trkpt><trkpt lon="-74.554689" lat="46.13621"><ele>240.9</ele></trkpt><trkpt lon="-74.55488" lat="46.13545"><ele>240.4</ele></trkpt><trkpt lon="-74.55507" lat="46.13469"><ele>240</ele></trkpt><trkpt lon="-74.55526" lat="46.13393"><ele>239.2</ele></trkpt><trkpt lon="-74.555449" lat="46.13317"><ele>238.5</ele></trkpt><trkpt lon="-74.555629" lat="46.13242"><ele>238.4</ele></trkpt><trkpt lon="-74.55582" lat="46.1316"><ele>240</ele></trkpt><trkpt lon="-74.55601" lat="46.13078"><ele>239.3</ele></trkpt><trkpt lon="-74.55625" lat="46.12993"><ele>238</ele></trkpt><trkpt lon="-74.55649" lat="46.12907"><ele>238.6</ele></trkpt><trkpt lon="-74.55665" lat="46.12859"><ele>239</ele></trkpt><trkpt lon="-74.5568" lat="46.1281"><ele>239.4</ele></trkpt><trkpt lon="-74.55689" lat="46.12782"><ele>239.6</ele></trkpt><trkpt lon="-74.55709" lat="46.1272"><ele>240.2</ele></trkpt><trkpt lon="-74.5573" lat="46.12658"><ele>241.6</ele></trkpt><trkpt lon="-74.55752" lat="46.125839"><ele>240</ele></trkpt><trkpt lon="-74.55775" lat="46.1251"><ele>239.3</ele></trkpt><trkpt lon="-74.55774" lat="46.12513"><ele>239.3</ele></trkpt><trkpt lon="-74.55774" lat="46.12513"><ele>239.3</ele></trkpt><trkpt lon="-74.55775" lat="46.1251"><ele>239.3</ele></trkpt><trkpt lon="-74.556839" lat="46.12527"><ele>240.6</ele></trkpt><trkpt lon="-74.55593" lat="46.12544"><ele>243.4</ele></trkpt><trkpt lon="-74.55514" lat="46.1255"><ele>246.5</ele></trkpt><trkpt lon="-74.553929" lat="46.12542"><ele>250.9</ele></trkpt><trkpt lon="-74.5534" lat="46.125369"><ele>251.8</ele></trkpt><trkpt lon="-74.55224" lat="46.125"><ele>255.3</ele></trkpt><trkpt lon="-74.55107" lat="46.12464"><ele>257.8</ele></trkpt><trkpt lon="-74.54991" lat="46.12428"><ele>255.8</ele></trkpt><trkpt lon="-74.54933" lat="46.12408"><ele>257</ele></trkpt><trkpt lon="-74.54874" lat="46.12388"><ele>256.1</ele></trkpt><trkpt lon="-74.5481" lat="46.12375"><ele>254</ele></trkpt><trkpt lon="-74.54701" lat="46.12346"><ele>251.2</ele></trkpt><trkpt lon="-74.5459" lat="46.12314"><ele>252.3</ele></trkpt><trkpt lon="-74.54479" lat="46.12283"><ele>247.2</ele></trkpt><trkpt lon="-74.54369" lat="46.12251"><ele>244</ele></trkpt><trkpt lon="-74.54258" lat="46.12219"><ele>244.9</ele></trkpt><trkpt lon="-74.54147" lat="46.12188"><ele>248.7</ele></trkpt><trkpt lon="-74.54147" lat="46.12188"><ele>248.7</ele></trkpt><trkpt lon="-74.5405" lat="46.1216"><ele>249.9</ele></trkpt><trkpt lon="-74.53952" lat="46.12133"><ele>249.5</ele></trkpt><trkpt lon="-74.53855" lat="46.121049"><ele>251</ele></trkpt><trkpt lon="-74.53758" lat="46.12078"><ele>253.5</ele></trkpt><trkpt lon="-74.5366" lat="46.1205"><ele>253.1</ele></trkpt><trkpt lon="-74.53587" lat="46.12041"><ele>254.4</ele></trkpt><trkpt lon="-74.53479" lat="46.1203"><ele>255.9</ele></trkpt><trkpt lon="-74.53418" lat="46.1201"><ele>255.7</ele></trkpt><trkpt lon="-74.53358" lat="46.1199"><ele>255.2</ele></trkpt><trkpt lon="-74.53291" lat="46.11957"><ele>257.1</ele></trkpt><trkpt lon="-74.53259" lat="46.11949"><ele>258.6</ele></trkpt><trkpt lon="-74.53215" lat="46.11945"><ele>260.7</ele></trkpt><trkpt lon="-74.53186" lat="46.11939"><ele>262.5</ele></trkpt><trkpt lon="-74.53163" lat="46.1193"><ele>264.5</ele></trkpt><trkpt lon="-74.531229" lat="46.11909"><ele>266.6</ele></trkpt><trkpt lon="-74.53066" lat="46.118899"><ele>267.1</ele></trkpt><trkpt lon="-74.52981" lat="46.11868"><ele>267.7</ele></trkpt><trkpt lon="-74.52897" lat="46.11846"><ele>268.6</ele></trkpt><trkpt lon="-74.52793" lat="46.11816"><ele>268.3</ele></trkpt><trkpt lon="-74.5269" lat="46.11786"><ele>267</ele></trkpt><trkpt lon="-74.52587" lat="46.11754"><ele>266.1</ele></trkpt><trkpt lon="-74.52485" lat="46.11722"><ele>267.2</ele></trkpt><trkpt lon="-74.524469" lat="46.117019"><ele>268.3</ele></trkpt><trkpt lon="-74.524109" lat="46.11674"><ele>269.9</ele></trkpt><trkpt lon="-74.52371" lat="46.11632"><ele>272.7</ele></trkpt><trkpt lon="-74.52334" lat="46.11603"><ele>273.3</ele></trkpt><trkpt lon="-74.52281" lat="46.11556"><ele>274.9</ele></trkpt><trkpt lon="-74.52227" lat="46.11508"><ele>272.1</ele></trkpt><trkpt lon="-74.522" lat="46.11489"><ele>272.1</ele></trkpt><trkpt lon="-74.521109" lat="46.11452"><ele>273.9</ele></trkpt><trkpt lon="-74.52021" lat="46.11415"><ele>271.2</ele></trkpt><trkpt lon="-74.51948" lat="46.11391"><ele>270.8</ele></trkpt><trkpt lon="-74.51843" lat="46.11376"><ele>270.5</ele></trkpt><trkpt lon="-74.51801" lat="46.11368"><ele>270.7</ele></trkpt><trkpt lon="-74.51769" lat="46.11361"><ele>270.8</ele></trkpt><trkpt lon="-74.51761" lat="46.11353"><ele>270.6</ele></trkpt><trkpt lon="-74.51757" lat="46.11344"><ele>270.4</ele></trkpt><trkpt lon="-74.5176" lat="46.11336"><ele>270.1</ele></trkpt><trkpt lon="-74.5179" lat="46.11296"><ele>268.9</ele></trkpt><trkpt lon="-74.51791" lat="46.11296"><ele>268.9</ele></trkpt><trkpt lon="-74.51738" lat="46.11264"><ele>268.6</ele></trkpt><trkpt lon="-74.51685" lat="46.11233"><ele>269</ele></trkpt><trkpt lon="-74.51646" lat="46.11215"><ele>269.1</ele></trkpt><trkpt lon="-74.51609" lat="46.11209"><ele>269.6</ele></trkpt><trkpt lon="-74.51593" lat="46.11207"><ele>269.8</ele></trkpt><trkpt lon="-74.51539" lat="46.11203"><ele>269.7</ele></trkpt><trkpt lon="-74.51475" lat="46.11211"><ele>270</ele></trkpt><trkpt lon="-74.51411" lat="46.11219"><ele>270</ele></trkpt><trkpt lon="-74.513589" lat="46.11218"><ele>271</ele></trkpt><trkpt lon="-74.513" lat="46.112139"><ele>273.2</ele></trkpt><trkpt lon="-74.5122" lat="46.1121"><ele>276.9</ele></trkpt><trkpt lon="-74.5117" lat="46.11215"><ele>279.4</ele></trkpt><trkpt lon="-74.51112" lat="46.1123"><ele>280.5</ele></trkpt><trkpt lon="-74.51065" lat="46.11246"><ele>279</ele></trkpt><trkpt lon="-74.51047" lat="46.1125"><ele>278.1</ele></trkpt><trkpt lon="-74.50982" lat="46.11253"><ele>277.9</ele></trkpt><trkpt lon="-74.50917" lat="46.11256"><ele>279.4</ele></trkpt><trkpt lon="-74.50917" lat="46.11256"><ele>279.4</ele></trkpt><trkpt lon="-74.509" lat="46.11259"><ele>280.1</ele></trkpt><trkpt lon="-74.50893" lat="46.11263"><ele>280.5</ele></trkpt><trkpt lon="-74.508799" lat="46.11281"><ele>281.8</ele></trkpt><trkpt lon="-74.50867" lat="46.11296"><ele>282.9</ele></trkpt><trkpt lon="-74.50858" lat="46.11299"><ele>283.4</ele></trkpt><trkpt lon="-74.50841" lat="46.11296"><ele>283.8</ele></trkpt><trkpt lon="-74.50727" lat="46.11253"><ele>279.8</ele></trkpt><trkpt lon="-74.5068" lat="46.11242"><ele>280</ele></trkpt><trkpt lon="-74.5063" lat="46.11237"><ele>280.6</ele></trkpt><trkpt lon="-74.50577" lat="46.11242"><ele>280.4</ele></trkpt><trkpt lon="-74.50463" lat="46.11266"><ele>281.7</ele></trkpt><trkpt lon="-74.50388" lat="46.11278"><ele>287.1</ele></trkpt><trkpt lon="-74.50322" lat="46.11293"><ele>291.7</ele></trkpt><trkpt lon="-74.50282" lat="46.11304"><ele>292.1</ele></trkpt><trkpt lon="-74.50251" lat="46.11307"><ele>293.4</ele></trkpt><trkpt lon="-74.50222" lat="46.11306"><ele>296.3</ele></trkpt><trkpt lon="-74.50205" lat="46.11304"><ele>298.4</ele></trkpt><trkpt lon="-74.5018" lat="46.11299"><ele>301.6</ele></trkpt><trkpt lon="-74.50137" lat="46.11287"><ele>307.1</ele></trkpt><trkpt lon="-74.5008" lat="46.112609"><ele>311.8</ele></trkpt><trkpt lon="-74.50055" lat="46.11252"><ele>312.4</ele></trkpt><trkpt lon="-74.50012" lat="46.11246"><ele>313.8</ele></trkpt><trkpt lon="-74.49928" lat="46.11238"><ele>318.5</ele></trkpt><trkpt lon="-74.49893" lat="46.11238"><ele>320.2</ele></trkpt><trkpt lon="-74.4986" lat="46.11242"><ele>321.1</ele></trkpt><trkpt lon="-74.49814" lat="46.11253"><ele>322.1</ele></trkpt><trkpt lon="-74.49726" lat="46.11281"><ele>325.5</ele></trkpt><trkpt lon="-74.49638" lat="46.11309"><ele>323.5</ele></trkpt><trkpt lon="-74.49551" lat="46.11341"><ele>320.1</ele></trkpt><trkpt lon="-74.49464" lat="46.11372"><ele>323.4</ele></trkpt><trkpt lon="-74.49377" lat="46.11404"><ele>326.2</ele></trkpt><trkpt lon="-74.4929" lat="46.11435"><ele>329.3</ele></trkpt><trkpt lon="-74.49248" lat="46.11447"><ele>330.6</ele></trkpt><trkpt lon="-74.49212" lat="46.11452"><ele>333.7</ele></trkpt><trkpt lon="-74.49161" lat="46.11453"><ele>337.8</ele></trkpt><trkpt lon="-74.49041" lat="46.11435"><ele>346.4</ele></trkpt><trkpt lon="-74.48921" lat="46.11418"><ele>355.7</ele></trkpt><trkpt lon="-74.48899" lat="46.11412"><ele>356.9</ele></trkpt><trkpt lon="-74.48856" lat="46.11393"><ele>359.4</ele></trkpt><trkpt lon="-74.48813" lat="46.11366"><ele>362.4</ele></trkpt><trkpt lon="-74.48712" lat="46.11325"><ele>367.2</ele></trkpt><trkpt lon="-74.48676" lat="46.11316"><ele>367.2</ele></trkpt><trkpt lon="-74.48568" lat="46.11306"><ele>366.4</ele></trkpt><trkpt lon="-74.48471" lat="46.113079"><ele>365.1</ele></trkpt><trkpt lon="-74.48411" lat="46.11366"><ele>367.5</ele></trkpt><trkpt lon="-74.48352" lat="46.11423"><ele>368.5</ele></trkpt><trkpt lon="-74.48294" lat="46.11469"><ele>370.4</ele></trkpt><trkpt lon="-74.48257" lat="46.11493"><ele>371.8</ele></trkpt><trkpt lon="-74.48224" lat="46.11509"><ele>372.5</ele></trkpt><trkpt lon="-74.48174" lat="46.11531"><ele>373.8</ele></trkpt><trkpt lon="-74.48115" lat="46.1155"><ele>375.4</ele></trkpt><trkpt lon="-74.480639" lat="46.11563"><ele>377</ele></trkpt><trkpt lon="-74.47976" lat="46.11577"><ele>380.1</ele></trkpt><trkpt lon="-74.47908" lat="46.11582"><ele>383.4</ele></trkpt><trkpt lon="-74.47859" lat="46.11581"><ele>385.7</ele></trkpt><trkpt lon="-74.47859" lat="46.11581"><ele>385.7</ele></trkpt><trkpt lon="-74.47846" lat="46.1158"><ele>386.4</ele></trkpt><trkpt lon="-74.47823" lat="46.116549"><ele>387.9</ele></trkpt><trkpt lon="-74.478" lat="46.1173"><ele>386.8</ele></trkpt><trkpt lon="-74.47777" lat="46.118049"><ele>386.8</ele></trkpt><trkpt lon="-74.47753" lat="46.11873"><ele>384.5</ele></trkpt><trkpt lon="-74.4773" lat="46.11942"><ele>380.1</ele></trkpt><trkpt lon="-74.47706" lat="46.1201"><ele>376.5</ele></trkpt><trkpt lon="-74.47678" lat="46.120959"><ele>377.5</ele></trkpt><trkpt lon="-74.4765" lat="46.12182"><ele>377.8</ele></trkpt><trkpt lon="-74.47622" lat="46.12268"><ele>376.6</ele></trkpt><trkpt lon="-74.47609" lat="46.122929"><ele>377.6</ele></trkpt><trkpt lon="-74.47592" lat="46.12316"><ele>378.5</ele></trkpt><trkpt lon="-74.47539" lat="46.12372"><ele>380.2</ele></trkpt><trkpt lon="-74.47465" lat="46.1244"><ele>380</ele></trkpt><trkpt lon="-74.47391" lat="46.125079"><ele>375.8</ele></trkpt><trkpt lon="-74.47318" lat="46.12576"><ele>375.1</ele></trkpt><trkpt lon="-74.47278" lat="46.126399"><ele>373.4</ele></trkpt><trkpt lon="-74.47266" lat="46.12664"><ele>373.4</ele></trkpt><trkpt lon="-74.47256" lat="46.12694"><ele>374.4</ele></trkpt><trkpt lon="-74.47248" lat="46.12744"><ele>376</ele></trkpt><trkpt lon="-74.47239" lat="46.12784"><ele>378.8</ele></trkpt><trkpt lon="-74.47239" lat="46.12806"><ele>380.2</ele></trkpt><trkpt lon="-74.47243" lat="46.12821"><ele>380.8</ele></trkpt><trkpt lon="-74.47255" lat="46.1285"><ele>380.8</ele></trkpt><trkpt lon="-74.47272" lat="46.12876"><ele>379.5</ele></trkpt><trkpt lon="-74.4729" lat="46.12913"><ele>378.6</ele></trkpt><trkpt lon="-74.4731" lat="46.129689"><ele>377.3</ele></trkpt><trkpt lon="-74.4733" lat="46.130249"><ele>378.6</ele></trkpt><trkpt lon="-74.47336" lat="46.13053"><ele>380</ele></trkpt><trkpt lon="-74.47335" lat="46.13065"><ele>380.8</ele></trkpt><trkpt lon="-74.47322" lat="46.13098"><ele>382.8</ele></trkpt><trkpt lon="-74.47293" lat="46.13157"><ele>385.2</ele></trkpt><trkpt lon="-74.47264" lat="46.13216"><ele>385</ele></trkpt><trkpt lon="-74.47242" lat="46.13282"><ele>385.3</ele></trkpt><trkpt lon="-74.47242" lat="46.13302"><ele>385.5</ele></trkpt><trkpt lon="-74.472489" lat="46.13349"><ele>385.3</ele></trkpt><trkpt lon="-74.47248" lat="46.13367"><ele>385.6</ele></trkpt><trkpt lon="-74.47242" lat="46.133809"><ele>386.3</ele></trkpt><trkpt lon="-74.47209" lat="46.1343"><ele>389</ele></trkpt><trkpt lon="-74.47177" lat="46.13478"><ele>390</ele></trkpt><trkpt lon="-74.47147" lat="46.1355"><ele>393.8</ele></trkpt><trkpt lon="-74.47122" lat="46.13613"><ele>398.4</ele></trkpt><trkpt lon="-74.47096" lat="46.13675"><ele>402.8</ele></trkpt><trkpt lon="-74.470699" lat="46.13738"><ele>404.1</ele></trkpt><trkpt lon="-74.47058" lat="46.13765"><ele>404.4</ele></trkpt><trkpt lon="-74.47037" lat="46.13798"><ele>405.2</ele></trkpt><trkpt lon="-74.46989" lat="46.13842"><ele>407.6</ele></trkpt><trkpt lon="-74.46966" lat="46.13861"><ele>410.7</ele></trkpt><trkpt lon="-74.46926" lat="46.13888"><ele>414.8</ele></trkpt><trkpt lon="-74.46872" lat="46.13913"><ele>417.9</ele></trkpt><trkpt lon="-74.46808" lat="46.13934"><ele>419.7</ele></trkpt><trkpt lon="-74.46722" lat="46.1395"><ele>420.1</ele></trkpt><trkpt lon="-74.46642" lat="46.13958"><ele>419.1</ele></trkpt><trkpt lon="-74.465909" lat="46.13958"><ele>418.2</ele></trkpt><trkpt lon="-74.46489" lat="46.13946"><ele>416.4</ele></trkpt><trkpt lon="-74.46387" lat="46.13935"><ele>415.6</ele></trkpt><trkpt lon="-74.46285" lat="46.13923"><ele>417.8</ele></trkpt><trkpt lon="-74.46183" lat="46.13911"><ele>425.1</ele></trkpt><trkpt lon="-74.46098" lat="46.13909"><ele>433.2</ele></trkpt><trkpt lon="-74.46014" lat="46.139069"><ele>442.2</ele></trkpt><trkpt lon="-74.45936" lat="46.13903"><ele>451</ele></trkpt><trkpt lon="-74.45859" lat="46.13899"><ele>456.4</ele></trkpt><trkpt lon="-74.45784" lat="46.139"><ele>457.2</ele></trkpt><trkpt lon="-74.45729" lat="46.13906"><ele>457.5</ele></trkpt><trkpt lon="-74.45668" lat="46.13921"><ele>459.1</ele></trkpt><trkpt lon="-74.456149" lat="46.13939"><ele>461.4</ele></trkpt><trkpt lon="-74.45569" lat="46.13959"><ele>463.6</ele></trkpt><trkpt lon="-74.45505" lat="46.14002"><ele>465.3</ele></trkpt><trkpt lon="-74.45443" lat="46.14036"><ele>468.2</ele></trkpt><trkpt lon="-74.45359" lat="46.14076"><ele>468.8</ele></trkpt><trkpt lon="-74.45266" lat="46.14125"><ele>472.8</ele></trkpt><trkpt lon="-74.45174" lat="46.14175"><ele>472.7</ele></trkpt><trkpt lon="-74.45137" lat="46.142"><ele>474.2</ele></trkpt><trkpt lon="-74.45116" lat="46.14233"><ele>475.8</ele></trkpt><trkpt lon="-74.45093" lat="46.14277"><ele>479.2</ele></trkpt><trkpt lon="-74.45084" lat="46.1429"><ele>479.8</ele></trkpt><trkpt lon="-74.45075" lat="46.143"><ele>480.5</ele></trkpt><trkpt lon="-74.45064" lat="46.14309"><ele>480.5</ele></trkpt><trkpt lon="-74.450059" lat="46.14343"><ele>477</ele></trkpt><trkpt lon="-74.44945" lat="46.14376"><ele>475</ele></trkpt><trkpt lon="-74.44909" lat="46.14385"><ele>471.3</ele></trkpt><trkpt lon="-74.44892" lat="46.143859"><ele>471</ele></trkpt><trkpt lon="-74.44802" lat="46.14381"><ele>468.4</ele></trkpt><trkpt lon="-74.44762" lat="46.14381"><ele>466.7</ele></trkpt><trkpt lon="-74.44695" lat="46.14397"><ele>462.1</ele></trkpt><trkpt lon="-74.44675" lat="46.144039"><ele>460.5</ele></trkpt><trkpt lon="-74.44649" lat="46.14417"><ele>457.7</ele></trkpt><trkpt lon="-74.44562" lat="46.14463"><ele>450.2</ele></trkpt><trkpt lon="-74.44476" lat="46.1451"><ele>444.4</ele></trkpt><trkpt lon="-74.44456" lat="46.14519"><ele>443.9</ele></trkpt><trkpt lon="-74.44434" lat="46.14526"><ele>443.2</ele></trkpt><trkpt lon="-74.44416" lat="46.1453"><ele>442.7</ele></trkpt><trkpt lon="-74.44396" lat="46.14533"><ele>442.1</ele></trkpt><trkpt lon="-74.443209" lat="46.14539"><ele>439.8</ele></trkpt><trkpt lon="-74.443" lat="46.14543"><ele>440</ele></trkpt><trkpt lon="-74.44258" lat="46.14556"><ele>439.9</ele></trkpt><trkpt lon="-74.44208" lat="46.14576"><ele>440</ele></trkpt><trkpt lon="-74.441329" lat="46.14602"><ele>437.3</ele></trkpt><trkpt lon="-74.44059" lat="46.14628"><ele>433.8</ele></trkpt><trkpt lon="-74.43968" lat="46.14665"><ele>431.8</ele></trkpt><trkpt lon="-74.43878" lat="46.14703"><ele>429.2</ele></trkpt><trkpt lon="-74.43781" lat="46.14725"><ele>430.2</ele></trkpt><trkpt lon="-74.43683" lat="46.14748"><ele>429</ele></trkpt><trkpt lon="-74.43616" lat="46.14756"><ele>428.3</ele></trkpt><trkpt lon="-74.4355" lat="46.14763"><ele>425.9</ele></trkpt><trkpt lon="-74.43484" lat="46.14772"><ele>422.1</ele></trkpt><trkpt lon="-74.43419" lat="46.147799"><ele>419.9</ele></trkpt><trkpt lon="-74.43333" lat="46.14802"><ele>418.9</ele></trkpt><trkpt lon="-74.43247" lat="46.14825"><ele>417.7</ele></trkpt><trkpt lon="-74.43136" lat="46.14839"><ele>409.4</ele></trkpt><trkpt lon="-74.43037" lat="46.14833"><ele>406.3</ele></trkpt><trkpt lon="-74.42921" lat="46.14816"><ele>402.4</ele></trkpt><trkpt lon="-74.42801" lat="46.14791"><ele>404.9</ele></trkpt><trkpt lon="-74.42681" lat="46.14767"><ele>403.9</ele></trkpt><trkpt lon="-74.42561" lat="46.14743"><ele>407.3</ele></trkpt><trkpt lon="-74.42524" lat="46.1474"><ele>406.7</ele></trkpt><trkpt lon="-74.424449" lat="46.14745"><ele>402.9</ele></trkpt><trkpt lon="-74.42349" lat="46.14756"><ele>395.6</ele></trkpt><trkpt lon="-74.42226" lat="46.14759"><ele>390.3</ele></trkpt><trkpt lon="-74.421449" lat="46.14747"><ele>389.8</ele></trkpt><trkpt lon="-74.42034" lat="46.147329"><ele>388.4</ele></trkpt><trkpt lon="-74.41923" lat="46.14719"><ele>387.3</ele></trkpt><trkpt lon="-74.41813" lat="46.14705"><ele>389.2</ele></trkpt><trkpt lon="-74.417019" lat="46.14691"><ele>389.7</ele></trkpt><trkpt lon="-74.41592" lat="46.146769"><ele>388.7</ele></trkpt><trkpt lon="-74.415229" lat="46.14671"><ele>389.4</ele></trkpt><trkpt lon="-74.41455" lat="46.14665"><ele>389.8</ele></trkpt><trkpt lon="-74.414" lat="46.14665"><ele>390.1</ele></trkpt><trkpt lon="-74.41327" lat="46.14668"><ele>393.1</ele></trkpt><trkpt lon="-74.41238" lat="46.14678"><ele>393.8</ele></trkpt><trkpt lon="-74.41149" lat="46.14689"><ele>392.1</ele></trkpt><trkpt lon="-74.41041" lat="46.14691"><ele>394</ele></trkpt><trkpt lon="-74.40966" lat="46.146859"><ele>394.5</ele></trkpt><trkpt lon="-74.40891" lat="46.14682"><ele>395.2</ele></trkpt><trkpt lon="-74.40773" lat="46.14671"><ele>396.4</ele></trkpt><trkpt lon="-74.40656" lat="46.1466"><ele>398.3</ele></trkpt><trkpt lon="-74.40545" lat="46.14637"><ele>399.9</ele></trkpt><trkpt lon="-74.40434" lat="46.14614"><ele>398.7</ele></trkpt><trkpt lon="-74.40398" lat="46.14599"><ele>397.7</ele></trkpt><trkpt lon="-74.40367" lat="46.14582"><ele>396.7</ele></trkpt><trkpt lon="-74.40342" lat="46.14564"><ele>398</ele></trkpt><trkpt lon="-74.4031" lat="46.14531"><ele>401.7</ele></trkpt><trkpt lon="-74.40295" lat="46.14521"><ele>402.4</ele></trkpt><trkpt lon="-74.402559" lat="46.1451"><ele>401.4</ele></trkpt><trkpt lon="-74.40182" lat="46.14495"><ele>401.7</ele></trkpt><trkpt lon="-74.401316" lat="46.144858"><ele>403.5</ele></trkpt><trkpt lon="-74.4011" lat="46.14482"><ele>404.6</ele></trkpt><trkpt lon="-74.40093" lat="46.14481"><ele>405.2</ele></trkpt><trkpt lon="-74.40089" lat="46.14483"><ele>405.1</ele></trkpt><trkpt lon="-74.40089" lat="46.14483"><ele>405.1</ele></trkpt><trkpt lon="-74.40076" lat="46.144889"><ele>404.6</ele></trkpt><trkpt lon="-74.40062" lat="46.145069"><ele>403.1</ele></trkpt><trkpt lon="-74.4002" lat="46.14577"><ele>399.9</ele></trkpt><trkpt lon="-74.39987" lat="46.14616"><ele>400.3</ele></trkpt><trkpt lon="-74.39961" lat="46.14642"><ele>400.7</ele></trkpt><trkpt lon="-74.39895" lat="46.14696"><ele>403.8</ele></trkpt><trkpt lon="-74.3983" lat="46.1475"><ele>407.3</ele></trkpt><trkpt lon="-74.39818" lat="46.14763"><ele>409.3</ele></trkpt><trkpt lon="-74.39797" lat="46.14792"><ele>412.3</ele></trkpt><trkpt lon="-74.39776" lat="46.14813"><ele>413.7</ele></trkpt><trkpt lon="-74.39718" lat="46.14847"><ele>415</ele></trkpt><trkpt lon="-74.396379" lat="46.14881"><ele>416.9</ele></trkpt><trkpt lon="-74.39557" lat="46.14915"><ele>418.6</ele></trkpt><trkpt lon="-74.39476" lat="46.14969"><ele>420.7</ele></trkpt><trkpt lon="-74.394049" lat="46.15032"><ele>421.7</ele></trkpt><trkpt lon="-74.39334" lat="46.15095"><ele>424</ele></trkpt><trkpt lon="-74.39249" lat="46.15148"><ele>424.7</ele></trkpt><trkpt lon="-74.39207" lat="46.15182"><ele>422.2</ele></trkpt><trkpt lon="-74.39164" lat="46.15217"><ele>418.5</ele></trkpt><trkpt lon="-74.39089" lat="46.15271"><ele>416.4</ele></trkpt><trkpt lon="-74.390379" lat="46.15293"><ele>417.3</ele></trkpt><trkpt lon="-74.39004" lat="46.15298"><ele>417.3</ele></trkpt><trkpt lon="-74.38881" lat="46.15295"><ele>418</ele></trkpt><trkpt lon="-74.38797" lat="46.15301"><ele>418</ele></trkpt><trkpt lon="-74.38714" lat="46.15307"><ele>414.4</ele></trkpt><trkpt lon="-74.386349" lat="46.15305"><ele>411.1</ele></trkpt><trkpt lon="-74.38576" lat="46.15292"><ele>409.8</ele></trkpt><trkpt lon="-74.38553" lat="46.1528"><ele>408.6</ele></trkpt><trkpt lon="-74.38495" lat="46.15232"><ele>407.1</ele></trkpt><trkpt lon="-74.384379" lat="46.15185"><ele>406.1</ele></trkpt><trkpt lon="-74.38385" lat="46.15147"><ele>405.2</ele></trkpt><trkpt lon="-74.38332" lat="46.15109"><ele>404.5</ele></trkpt><trkpt lon="-74.38276" lat="46.15075"><ele>405.6</ele></trkpt><trkpt lon="-74.38221" lat="46.1504"><ele>407.3</ele></trkpt><trkpt lon="-74.3818" lat="46.15026"><ele>405.8</ele></trkpt><trkpt lon="-74.38094" lat="46.15"><ele>402.6</ele></trkpt><trkpt lon="-74.38008" lat="46.14973"><ele>405.6</ele></trkpt><trkpt lon="-74.37951" lat="46.14962"><ele>408.6</ele></trkpt><trkpt lon="-74.37885" lat="46.14954"><ele>410.8</ele></trkpt><trkpt lon="-74.37818" lat="46.14946"><ele>410.9</ele></trkpt><trkpt lon="-74.37697" lat="46.14919"><ele>408.7</ele></trkpt><trkpt lon="-74.37625" lat="46.14897"><ele>409.1</ele></trkpt><trkpt lon="-74.37554" lat="46.14876"><ele>406.6</ele></trkpt><trkpt lon="-74.37519" lat="46.14863"><ele>404.9</ele></trkpt><trkpt lon="-74.37484" lat="46.14846"><ele>403.5</ele></trkpt><trkpt lon="-74.37436" lat="46.14807"><ele>401.2</ele></trkpt><trkpt lon="-74.37388" lat="46.14768"><ele>403.6</ele></trkpt><trkpt lon="-74.37336" lat="46.14739"><ele>405.5</ele></trkpt><trkpt lon="-74.37307" lat="46.14729"><ele>407.8</ele></trkpt><trkpt lon="-74.37287" lat="46.14727"><ele>409.3</ele></trkpt><trkpt lon="-74.37253" lat="46.14732"><ele>411.4</ele></trkpt><trkpt lon="-74.372159" lat="46.14747"><ele>411.9</ele></trkpt><trkpt lon="-74.37187" lat="46.14756"><ele>411.8</ele></trkpt><trkpt lon="-74.37174" lat="46.14762"><ele>411.6</ele></trkpt><trkpt lon="-74.37166" lat="46.14773"><ele>410.8</ele></trkpt><trkpt lon="-74.37149" lat="46.1483"><ele>406.3</ele></trkpt><trkpt lon="-74.371309" lat="46.14887"><ele>403.6</ele></trkpt><trkpt lon="-74.37119" lat="46.149"><ele>403.4</ele></trkpt><trkpt lon="-74.37052" lat="46.14919"><ele>405</ele></trkpt><trkpt lon="-74.369829" lat="46.14949"><ele>405.6</ele></trkpt><trkpt lon="-74.36956" lat="46.14954"><ele>406.2</ele></trkpt><trkpt lon="-74.36855" lat="46.14962"><ele>408.5</ele></trkpt><trkpt lon="-74.36843" lat="46.14965"><ele>408.5</ele></trkpt><trkpt lon="-74.36823" lat="46.149769"><ele>408.4</ele></trkpt><trkpt lon="-74.3681" lat="46.14994"><ele>408</ele></trkpt><trkpt lon="-74.36799" lat="46.15014"><ele>408.5</ele></trkpt><trkpt lon="-74.36794" lat="46.150419"><ele>408.5</ele></trkpt><trkpt lon="-74.36798" lat="46.15094"><ele>407.7</ele></trkpt><trkpt lon="-74.36802" lat="46.151449"><ele>408.7</ele></trkpt><trkpt lon="-74.367949" lat="46.15177"><ele>410.1</ele></trkpt><trkpt lon="-74.36781" lat="46.1521"><ele>411.9</ele></trkpt><trkpt lon="-74.36752" lat="46.15255"><ele>414.1</ele></trkpt><trkpt lon="-74.36742" lat="46.15278"><ele>415.7</ele></trkpt><trkpt lon="-74.36738" lat="46.15298"><ele>416.9</ele></trkpt><trkpt lon="-74.36745" lat="46.15317"><ele>416.9</ele></trkpt><trkpt lon="-74.36775" lat="46.15374"><ele>417.4</ele></trkpt><trkpt lon="-74.36787" lat="46.15415"><ele>418</ele></trkpt><trkpt lon="-74.36796" lat="46.15455"><ele>417.4</ele></trkpt><trkpt lon="-74.367949" lat="46.15478"><ele>417.9</ele></trkpt><trkpt lon="-74.36785" lat="46.15502"><ele>419.1</ele></trkpt><trkpt lon="-74.36774" lat="46.15519"><ele>419.6</ele></trkpt><trkpt lon="-74.36744" lat="46.155589"><ele>420.6</ele></trkpt><trkpt lon="-74.36714" lat="46.15599"><ele>419.7</ele></trkpt><trkpt lon="-74.36665" lat="46.1565"><ele>418.6</ele></trkpt><trkpt lon="-74.366159" lat="46.15702"><ele>418.2</ele></trkpt><trkpt lon="-74.36558" lat="46.15759"><ele>417.5</ele></trkpt><trkpt lon="-74.36521" lat="46.15813"><ele>414.3</ele></trkpt><trkpt lon="-74.365129" lat="46.15828"><ele>413</ele></trkpt><trkpt lon="-74.36508" lat="46.15851"><ele>411.4</ele></trkpt><trkpt lon="-74.36499" lat="46.1593"><ele>406.9</ele></trkpt><trkpt lon="-74.36503" lat="46.15947"><ele>406.4</ele></trkpt><trkpt lon="-74.36511" lat="46.159619"><ele>405.7</ele></trkpt><trkpt lon="-74.36529" lat="46.15981"><ele>405.1</ele></trkpt><trkpt lon="-74.36557" lat="46.15997"><ele>405.1</ele></trkpt><trkpt lon="-74.365799" lat="46.16003"><ele>405.5</ele></trkpt><trkpt lon="-74.36615" lat="46.16005"><ele>405.4</ele></trkpt><trkpt lon="-74.3672" lat="46.16001"><ele>399.1</ele></trkpt><trkpt lon="-74.36753" lat="46.16002"><ele>396.4</ele></trkpt><trkpt lon="-74.36828" lat="46.1601"><ele>397.9</ele></trkpt><trkpt lon="-74.36864" lat="46.16019"><ele>399.3</ele></trkpt><trkpt lon="-74.36913" lat="46.16043"><ele>402.3</ele></trkpt><trkpt lon="-74.37009" lat="46.160939"><ele>403.4</ele></trkpt><trkpt lon="-74.37032" lat="46.16108"><ele>405</ele></trkpt><trkpt lon="-74.37128" lat="46.16155"><ele>406.5</ele></trkpt><trkpt lon="-74.37149" lat="46.16177"><ele>406.9</ele></trkpt><trkpt lon="-74.37182" lat="46.16224"><ele>407</ele></trkpt><trkpt lon="-74.37215" lat="46.16271"><ele>406</ele></trkpt><trkpt lon="-74.37236" lat="46.16307"><ele>404.8</ele></trkpt><trkpt lon="-74.37241" lat="46.16322"><ele>404.7</ele></trkpt><trkpt lon="-74.37239" lat="46.163559"><ele>403.7</ele></trkpt><trkpt lon="-74.3722" lat="46.16399"><ele>402.2</ele></trkpt><trkpt lon="-74.37193" lat="46.16443"><ele>401.3</ele></trkpt><trkpt lon="-74.37166" lat="46.16487"><ele>400.6</ele></trkpt><trkpt lon="-74.37138" lat="46.16542"><ele>401.2</ele></trkpt><trkpt lon="-74.3711" lat="46.16597"><ele>401.9</ele></trkpt><trkpt lon="-74.37067" lat="46.1667"><ele>403.1</ele></trkpt><trkpt lon="-74.37025" lat="46.16744"><ele>401.8</ele></trkpt><trkpt lon="-74.37" lat="46.16802"><ele>401.4</ele></trkpt><trkpt lon="-74.36975" lat="46.16861"><ele>400.6</ele></trkpt><trkpt lon="-74.3695" lat="46.169199"><ele>399.1</ele></trkpt><trkpt lon="-74.36926" lat="46.170029"><ele>398.7</ele></trkpt><trkpt lon="-74.36923" lat="46.17027"><ele>399.4</ele></trkpt><trkpt lon="-74.36938" lat="46.17057"><ele>399.6</ele></trkpt><trkpt lon="-74.36955" lat="46.17074"><ele>399.4</ele></trkpt><trkpt lon="-74.36984" lat="46.17098"><ele>398.6</ele></trkpt><trkpt lon="-74.37002" lat="46.17122"><ele>397.9</ele></trkpt><trkpt lon="-74.370189" lat="46.17156"><ele>397.3</ele></trkpt><trkpt lon="-74.37046" lat="46.17233"><ele>399.2</ele></trkpt><trkpt lon="-74.37074" lat="46.1731"><ele>403.3</ele></trkpt><trkpt lon="-74.37108" lat="46.17385"><ele>401.3</ele></trkpt><trkpt lon="-74.37129" lat="46.17425"><ele>399.4</ele></trkpt><trkpt lon="-74.3713" lat="46.17425"><ele>399.3</ele></trkpt><trkpt lon="-74.37159" lat="46.17483"><ele>399.6</ele></trkpt><trkpt lon="-74.37184" lat="46.17539"><ele>398</ele></trkpt><trkpt lon="-74.37201" lat="46.176139"><ele>396.6</ele></trkpt><trkpt lon="-74.37211" lat="46.17697"><ele>397.6</ele></trkpt><trkpt lon="-74.3722" lat="46.1778"><ele>398.1</ele></trkpt><trkpt lon="-74.37229" lat="46.17864"><ele>397.3</ele></trkpt><trkpt lon="-74.37226" lat="46.1791"><ele>398.3</ele></trkpt><trkpt lon="-74.37218" lat="46.17964"><ele>401.9</ele></trkpt><trkpt lon="-74.37221" lat="46.17997"><ele>402.8</ele></trkpt><trkpt lon="-74.37239" lat="46.18039"><ele>401.3</ele></trkpt><trkpt lon="-74.37282" lat="46.18105"><ele>398</ele></trkpt><trkpt lon="-74.37321" lat="46.18179"><ele>394.9</ele></trkpt><trkpt lon="-74.37361" lat="46.182519"><ele>395.4</ele></trkpt><trkpt lon="-74.37383" lat="46.18278"><ele>396.1</ele></trkpt><trkpt lon="-74.37421" lat="46.18311"><ele>396.1</ele></trkpt><trkpt lon="-74.37461" lat="46.18338"><ele>396.9</ele></trkpt><trkpt lon="-74.37537" lat="46.183639"><ele>396.4</ele></trkpt><trkpt lon="-74.37575" lat="46.18387"><ele>394.9</ele></trkpt><trkpt lon="-74.3759" lat="46.18398"><ele>394.4</ele></trkpt><trkpt lon="-74.376" lat="46.18417"><ele>394.4</ele></trkpt><trkpt lon="-74.37604" lat="46.18432"><ele>394.8</ele></trkpt><trkpt lon="-74.37605" lat="46.18484"><ele>396.6</ele></trkpt><trkpt lon="-74.37605" lat="46.18537"><ele>398.1</ele></trkpt><trkpt lon="-74.37602" lat="46.18603"><ele>400.8</ele></trkpt><trkpt lon="-74.37607" lat="46.18627"><ele>402.2</ele></trkpt><trkpt lon="-74.37618" lat="46.18645"><ele>402.5</ele></trkpt><trkpt lon="-74.3767" lat="46.18676"><ele>400.3</ele></trkpt><trkpt lon="-74.37721" lat="46.18707"><ele>397.2</ele></trkpt><trkpt lon="-74.37802" lat="46.18768"><ele>393.9</ele></trkpt><trkpt lon="-74.37882" lat="46.18828"><ele>393.8</ele></trkpt><trkpt lon="-74.37921" lat="46.18853"><ele>394.4</ele></trkpt><trkpt lon="-74.379769" lat="46.18892"><ele>394.2</ele></trkpt><trkpt lon="-74.3803" lat="46.189369"><ele>392.8</ele></trkpt><trkpt lon="-74.38054" lat="46.18963"><ele>391.3</ele></trkpt><trkpt lon="-74.38072" lat="46.1899"><ele>390.4</ele></trkpt><trkpt lon="-74.38083" lat="46.19003"><ele>389.9</ele></trkpt><trkpt lon="-74.3809" lat="46.19011"><ele>389.6</ele></trkpt><trkpt lon="-74.38104" lat="46.1902"><ele>389.3</ele></trkpt><trkpt lon="-74.38177" lat="46.19035"><ele>389.1</ele></trkpt><trkpt lon="-74.38193" lat="46.19042"><ele>389.2</ele></trkpt><trkpt lon="-74.382589" lat="46.19086"><ele>390</ele></trkpt><trkpt lon="-74.38326" lat="46.1913"><ele>390.2</ele></trkpt><trkpt lon="-74.384" lat="46.19184"><ele>392.2</ele></trkpt><trkpt lon="-74.38475" lat="46.19238"><ele>393.6</ele></trkpt><trkpt lon="-74.3849" lat="46.19253"><ele>394.2</ele></trkpt><trkpt lon="-74.38517" lat="46.19288"><ele>397</ele></trkpt><trkpt lon="-74.38548" lat="46.19318"><ele>399.1</ele></trkpt><trkpt lon="-74.38599" lat="46.19359"><ele>399.4</ele></trkpt><trkpt lon="-74.38643" lat="46.19385"><ele>397.2</ele></trkpt><trkpt lon="-74.3872" lat="46.19407"><ele>393.9</ele></trkpt><trkpt lon="-74.3878" lat="46.19439"><ele>390.8</ele></trkpt><trkpt lon="-74.38836" lat="46.19476"><ele>387.1</ele></trkpt><trkpt lon="-74.38892" lat="46.19512"><ele>387.5</ele></trkpt><trkpt lon="-74.38948" lat="46.19552"><ele>389.4</ele></trkpt><trkpt lon="-74.39005" lat="46.19592"><ele>392.2</ele></trkpt><trkpt lon="-74.39033" lat="46.19606"><ele>394</ele></trkpt><trkpt lon="-74.39061" lat="46.19615"><ele>395.1</ele></trkpt><trkpt lon="-74.3909" lat="46.1962"><ele>395.7</ele></trkpt><trkpt lon="-74.39178" lat="46.19617"><ele>395.4</ele></trkpt><trkpt lon="-74.39293" lat="46.19596"><ele>393.5</ele></trkpt><trkpt lon="-74.39408" lat="46.19576"><ele>392.3</ele></trkpt><trkpt lon="-74.39516" lat="46.195659"><ele>392.2</ele></trkpt><trkpt lon="-74.39586" lat="46.19562"><ele>389.7</ele></trkpt><trkpt lon="-74.39679" lat="46.19555"><ele>389.7</ele></trkpt><trkpt lon="-74.3973" lat="46.19548"><ele>390.7</ele></trkpt><trkpt lon="-74.39806" lat="46.19527"><ele>389</ele></trkpt><trkpt lon="-74.39886" lat="46.19514"><ele>388.6</ele></trkpt><trkpt lon="-74.39966" lat="46.19502"><ele>388.6</ele></trkpt><trkpt lon="-74.40016" lat="46.19487"><ele>387.7</ele></trkpt><trkpt lon="-74.40062" lat="46.19482"><ele>388.5</ele></trkpt><trkpt lon="-74.40105" lat="46.19485"><ele>389.5</ele></trkpt><trkpt lon="-74.40215" lat="46.19506"><ele>392.2</ele></trkpt><trkpt lon="-74.40325" lat="46.195279"><ele>394.4</ele></trkpt><trkpt lon="-74.40396" lat="46.19531"><ele>392.3</ele></trkpt><trkpt lon="-74.40413" lat="46.19529"><ele>391.3</ele></trkpt><trkpt lon="-74.40457" lat="46.19514"><ele>387.9</ele></trkpt><trkpt lon="-74.40543" lat="46.19493"><ele>382.4</ele></trkpt><trkpt lon="-74.40604" lat="46.19487"><ele>379.9</ele></trkpt><trkpt lon="-74.40663" lat="46.19488"><ele>379.3</ele></trkpt><trkpt lon="-74.407169" lat="46.19492"><ele>377.9</ele></trkpt><trkpt lon="-74.40772" lat="46.19503"><ele>376.8</ele></trkpt><trkpt lon="-74.40855" lat="46.19527"><ele>378.1</ele></trkpt><trkpt lon="-74.40889" lat="46.19534"><ele>379.1</ele></trkpt><trkpt lon="-74.40958" lat="46.19545"><ele>380.5</ele></trkpt><trkpt lon="-74.41009" lat="46.19548"><ele>381.3</ele></trkpt><trkpt lon="-74.41056" lat="46.19544"><ele>382.5</ele></trkpt><trkpt lon="-74.41122" lat="46.19526"><ele>382.3</ele></trkpt><trkpt lon="-74.4119" lat="46.19501"><ele>379.5</ele></trkpt><trkpt lon="-74.41259" lat="46.19476"><ele>378.9</ele></trkpt><trkpt lon="-74.412899" lat="46.1947"><ele>378.9</ele></trkpt><trkpt lon="-74.41316" lat="46.19471"><ele>379.1</ele></trkpt><trkpt lon="-74.41336" lat="46.19476"><ele>379.5</ele></trkpt><trkpt lon="-74.4138" lat="46.19494"><ele>380.1</ele></trkpt><trkpt lon="-74.41429" lat="46.19518"><ele>382.9</ele></trkpt><trkpt lon="-74.41512" lat="46.19541"><ele>383.8</ele></trkpt><trkpt lon="-74.4158" lat="46.1955"><ele>381.6</ele></trkpt><trkpt lon="-74.41648" lat="46.19558"><ele>380.3</ele></trkpt><trkpt lon="-74.41729" lat="46.19561"><ele>378.5</ele></trkpt><trkpt lon="-74.41775" lat="46.19569"><ele>377.9</ele></trkpt><trkpt lon="-74.41878" lat="46.19596"><ele>379.7</ele></trkpt><trkpt lon="-74.41914" lat="46.19603"><ele>380.6</ele></trkpt><trkpt lon="-74.41939" lat="46.19603"><ele>381.3</ele></trkpt><trkpt lon="-74.41961" lat="46.196"><ele>381.6</ele></trkpt><trkpt lon="-74.42027" lat="46.195839"><ele>381.1</ele></trkpt><trkpt lon="-74.42057" lat="46.19569"><ele>381.2</ele></trkpt><trkpt lon="-74.42112" lat="46.19522"><ele>380.7</ele></trkpt><trkpt lon="-74.42127" lat="46.19507"><ele>380.5</ele></trkpt><trkpt lon="-74.42165" lat="46.19453"><ele>382.5</ele></trkpt><trkpt lon="-74.42203" lat="46.194"><ele>384.5</ele></trkpt><trkpt lon="-74.42219" lat="46.19386"><ele>384.4</ele></trkpt><trkpt lon="-74.422479" lat="46.19372"><ele>384.6</ele></trkpt><trkpt lon="-74.42295" lat="46.19361"><ele>384.4</ele></trkpt><trkpt lon="-74.42353" lat="46.19338"><ele>382.7</ele></trkpt><trkpt lon="-74.42426" lat="46.192929"><ele>379.2</ele></trkpt><trkpt lon="-74.42473" lat="46.19272"><ele>377.5</ele></trkpt><trkpt lon="-74.42521" lat="46.19258"><ele>376.5</ele></trkpt><trkpt lon="-74.42591" lat="46.19251"><ele>377.3</ele></trkpt><trkpt lon="-74.426599" lat="46.19245"><ele>377.8</ele></trkpt><trkpt lon="-74.4271" lat="46.19231"><ele>378.1</ele></trkpt><trkpt lon="-74.42761" lat="46.19207"><ele>378.5</ele></trkpt><trkpt lon="-74.42803" lat="46.191809"><ele>378.6</ele></trkpt><trkpt lon="-74.42869" lat="46.19162"><ele>380.2</ele></trkpt><trkpt lon="-74.42971" lat="46.19139"><ele>383.6</ele></trkpt><trkpt lon="-74.43021" lat="46.19132"><ele>383.3</ele></trkpt><trkpt lon="-74.43146" lat="46.19122"><ele>377.4</ele></trkpt><trkpt lon="-74.43188" lat="46.19121"><ele>375.2</ele></trkpt><trkpt lon="-74.4323" lat="46.19123"><ele>373.3</ele></trkpt><trkpt lon="-74.432689" lat="46.19132"><ele>372.3</ele></trkpt><trkpt lon="-74.43307" lat="46.19152"><ele>371.5</ele></trkpt><trkpt lon="-74.43362" lat="46.19186"><ele>374.1</ele></trkpt><trkpt lon="-74.43417" lat="46.19221"><ele>378.5</ele></trkpt><trkpt lon="-74.43463" lat="46.19243"><ele>378.3</ele></trkpt><trkpt lon="-74.43494" lat="46.19252"><ele>376.7</ele></trkpt><trkpt lon="-74.43541" lat="46.19257"><ele>373.6</ele></trkpt><trkpt lon="-74.43655" lat="46.19277"><ele>371.1</ele></trkpt><trkpt lon="-74.43673" lat="46.19277"><ele>370.9</ele></trkpt><trkpt lon="-74.43713" lat="46.19272"><ele>370.1</ele></trkpt><trkpt lon="-74.4377" lat="46.19258"><ele>366.7</ele></trkpt><trkpt lon="-74.438689" lat="46.19222"><ele>361.4</ele></trkpt><trkpt lon="-74.43952" lat="46.19188"><ele>356.7</ele></trkpt><trkpt lon="-74.44036" lat="46.19154"><ele>354</ele></trkpt><trkpt lon="-74.4411" lat="46.19132"><ele>351.9</ele></trkpt><trkpt lon="-74.44162" lat="46.19124"><ele>351.8</ele></trkpt><trkpt lon="-74.4421" lat="46.19122"><ele>353.1</ele></trkpt><trkpt lon="-74.443029" lat="46.19124"><ele>356.5</ele></trkpt><trkpt lon="-74.44396" lat="46.19126"><ele>355.1</ele></trkpt><trkpt lon="-74.44489" lat="46.19128"><ele>350.4</ele></trkpt><trkpt lon="-74.445449" lat="46.19136"><ele>346.9</ele></trkpt><trkpt lon="-74.44592" lat="46.19147"><ele>343.9</ele></trkpt><trkpt lon="-74.4461" lat="46.19115"><ele>344.1</ele></trkpt><trkpt lon="-74.4465" lat="46.19062"><ele>343.3</ele></trkpt><trkpt lon="-74.44678" lat="46.19038"><ele>341.8</ele></trkpt><trkpt lon="-74.447149" lat="46.19013"><ele>340.6</ele></trkpt><trkpt lon="-74.4479" lat="46.18979"><ele>336.7</ele></trkpt><trkpt lon="-74.44864" lat="46.18944"><ele>330.8</ele></trkpt><trkpt lon="-74.44878" lat="46.18935"><ele>329.4</ele></trkpt><trkpt lon="-74.44917" lat="46.18891"><ele>326.4</ele></trkpt><trkpt lon="-74.44932" lat="46.18879"><ele>325.7</ele></trkpt><trkpt lon="-74.44949" lat="46.18872"><ele>324.9</ele></trkpt><trkpt lon="-74.45047" lat="46.18851"><ele>320.4</ele></trkpt><trkpt lon="-74.45059" lat="46.1885"><ele>319.9</ele></trkpt><trkpt lon="-74.45084" lat="46.18848"><ele>318.9</ele></trkpt><trkpt lon="-74.45119" lat="46.18848"><ele>317.4</ele></trkpt><trkpt lon="-74.45217" lat="46.1885"><ele>319.3</ele></trkpt><trkpt lon="-74.45314" lat="46.188519"><ele>320.2</ele></trkpt><trkpt lon="-74.45412" lat="46.18854"><ele>320.2</ele></trkpt><trkpt lon="-74.45509" lat="46.18856"><ele>319.6</ele></trkpt><trkpt lon="-74.45535" lat="46.18855"><ele>319.8</ele></trkpt><trkpt lon="-74.455609" lat="46.188519"><ele>319.6</ele></trkpt><trkpt lon="-74.45623" lat="46.18839"><ele>317.8</ele></trkpt><trkpt lon="-74.456639" lat="46.18833"><ele>317</ele></trkpt><trkpt lon="-74.45694" lat="46.18833"><ele>316.3</ele></trkpt><trkpt lon="-74.45811" lat="46.18841"><ele>315.9</ele></trkpt><trkpt lon="-74.45853" lat="46.1884"><ele>315.9</ele></trkpt><trkpt lon="-74.45894" lat="46.18837"><ele>316.1</ele></trkpt><trkpt lon="-74.45959" lat="46.18824"><ele>316.1</ele></trkpt><trkpt lon="-74.46024" lat="46.18812"><ele>316.2</ele></trkpt><trkpt lon="-74.461" lat="46.18803"><ele>317.4</ele></trkpt><trkpt lon="-74.46176" lat="46.18795"><ele>318.9</ele></trkpt><trkpt lon="-74.46216" lat="46.18792"><ele>318.5</ele></trkpt><trkpt lon="-74.46249" lat="46.18794"><ele>318.8</ele></trkpt><trkpt lon="-74.46312" lat="46.18807"><ele>320.5</ele></trkpt><trkpt lon="-74.46352" lat="46.18811"><ele>321.1</ele></trkpt><trkpt lon="-74.46381" lat="46.18809"><ele>320.8</ele></trkpt><trkpt lon="-74.46468" lat="46.18781"><ele>318.6</ele></trkpt><trkpt lon="-74.46492" lat="46.18777"><ele>318.7</ele></trkpt><trkpt lon="-74.46513" lat="46.18784"><ele>320.7</ele></trkpt><trkpt lon="-74.46512" lat="46.18784"><ele>320.6</ele></trkpt><trkpt lon="-74.46512" lat="46.18784"><ele>320.6</ele></trkpt><trkpt lon="-74.46513" lat="46.18784"><ele>320.7</ele></trkpt><trkpt lon="-74.46463" lat="46.18815"><ele>323.1</ele></trkpt><trkpt lon="-74.46414" lat="46.18847"><ele>326.8</ele></trkpt><trkpt lon="-74.464" lat="46.18862"><ele>329.8</ele></trkpt><trkpt lon="-74.4639" lat="46.18879"><ele>333.1</ele></trkpt><trkpt lon="-74.46383" lat="46.18908"><ele>338.9</ele></trkpt><trkpt lon="-74.46373" lat="46.189749"><ele>345</ele></trkpt><trkpt lon="-74.463759" lat="46.190019"><ele>347.2</ele></trkpt><trkpt lon="-74.46395" lat="46.19068"><ele>352.4</ele></trkpt><trkpt lon="-74.46412" lat="46.19118"><ele>355.1</ele></trkpt><trkpt lon="-74.46429" lat="46.19168"><ele>358.5</ele></trkpt><trkpt lon="-74.46433" lat="46.19187"><ele>358.8</ele></trkpt><trkpt lon="-74.46433" lat="46.19216"><ele>358.6</ele></trkpt><trkpt lon="-74.46428" lat="46.19245"><ele>358</ele></trkpt><trkpt lon="-74.46421" lat="46.19265"><ele>357.5</ele></trkpt><trkpt lon="-74.46407" lat="46.19288"><ele>357.2</ele></trkpt><trkpt lon="-74.46353" lat="46.19365"><ele>355.6</ele></trkpt><trkpt lon="-74.46299" lat="46.19442"><ele>356</ele></trkpt><trkpt lon="-74.46244" lat="46.195189"><ele>357.8</ele></trkpt><trkpt lon="-74.4619" lat="46.19597"><ele>360.8</ele></trkpt><trkpt lon="-74.46172" lat="46.19643"><ele>361.5</ele></trkpt><trkpt lon="-74.46166" lat="46.19693"><ele>360.6</ele></trkpt><trkpt lon="-74.46166" lat="46.19715"><ele>359.6</ele></trkpt><trkpt lon="-74.461699" lat="46.19736"><ele>359.2</ele></trkpt><trkpt lon="-74.46192" lat="46.19799"><ele>358.7</ele></trkpt><trkpt lon="-74.46204" lat="46.19849"><ele>357.5</ele></trkpt><trkpt lon="-74.46215" lat="46.19874"><ele>357.7</ele></trkpt><trkpt lon="-74.4623" lat="46.19898"><ele>358.1</ele></trkpt><trkpt lon="-74.46289" lat="46.19975"><ele>361.7</ele></trkpt><trkpt lon="-74.462999" lat="46.19994"><ele>362.4</ele></trkpt><trkpt lon="-74.46319" lat="46.2004"><ele>364.2</ele></trkpt><trkpt lon="-74.4636" lat="46.20123"><ele>365.6</ele></trkpt><trkpt lon="-74.46401" lat="46.20206"><ele>361.2</ele></trkpt><trkpt lon="-74.46412" lat="46.2022"><ele>360.8</ele></trkpt><trkpt lon="-74.46427" lat="46.20233"><ele>360.8</ele></trkpt><trkpt lon="-74.4652" lat="46.20292"><ele>361.1</ele></trkpt><trkpt lon="-74.46577" lat="46.20332"><ele>359.7</ele></trkpt><trkpt lon="-74.46593" lat="46.20341"><ele>359.8</ele></trkpt><trkpt lon="-74.46634" lat="46.20353"><ele>361.4</ele></trkpt><trkpt lon="-74.46703" lat="46.203629"><ele>363.7</ele></trkpt><trkpt lon="-74.46762" lat="46.20377"><ele>363.4</ele></trkpt><trkpt lon="-74.46861" lat="46.20411"><ele>360.3</ele></trkpt><trkpt lon="-74.4696" lat="46.2045"><ele>358.2</ele></trkpt><trkpt lon="-74.46984" lat="46.20465"><ele>358.3</ele></trkpt><trkpt lon="-74.46998" lat="46.20477"><ele>358.3</ele></trkpt><trkpt lon="-74.470339" lat="46.20518"><ele>355.7</ele></trkpt><trkpt lon="-74.47047" lat="46.20529"><ele>354.6</ele></trkpt><trkpt lon="-74.47108" lat="46.20567"><ele>353</ele></trkpt><trkpt lon="-74.4712" lat="46.20576"><ele>352.9</ele></trkpt><trkpt lon="-74.47166" lat="46.20625"><ele>351</ele></trkpt><trkpt lon="-74.47177" lat="46.20633"><ele>350.1</ele></trkpt><trkpt lon="-74.47211" lat="46.20649"><ele>348.8</ele></trkpt><trkpt lon="-74.47239" lat="46.20656"><ele>348.7</ele></trkpt><trkpt lon="-74.47293" lat="46.20658"><ele>346.1</ele></trkpt><trkpt lon="-74.47376" lat="46.20653"><ele>341.8</ele></trkpt><trkpt lon="-74.47459" lat="46.20649"><ele>339.7</ele></trkpt><trkpt lon="-74.4749" lat="46.20646"><ele>339.8</ele></trkpt><trkpt lon="-74.47535" lat="46.20637"><ele>339.3</ele></trkpt><trkpt lon="-74.4756" lat="46.20627"><ele>339.1</ele></trkpt><trkpt lon="-74.47571" lat="46.20619"><ele>339.2</ele></trkpt><trkpt lon="-74.47601" lat="46.20587"><ele>339.5</ele></trkpt><trkpt lon="-74.47617" lat="46.20576"><ele>339.5</ele></trkpt><trkpt lon="-74.47651" lat="46.20559"><ele>339.3</ele></trkpt><trkpt lon="-74.4772" lat="46.20535"><ele>338.8</ele></trkpt><trkpt lon="-74.47756" lat="46.20526"><ele>337.7</ele></trkpt><trkpt lon="-74.47786" lat="46.20523"><ele>337.3</ele></trkpt><trkpt lon="-74.47824" lat="46.20522"><ele>336.6</ele></trkpt><trkpt lon="-74.47871" lat="46.20525"><ele>336.4</ele></trkpt><trkpt lon="-74.47938" lat="46.205329"><ele>336.4</ele></trkpt><trkpt lon="-74.48023" lat="46.20553"><ele>337.1</ele></trkpt><trkpt lon="-74.48044" lat="46.20554"><ele>338</ele></trkpt><trkpt lon="-74.48063" lat="46.20552"><ele>338.9</ele></trkpt><trkpt lon="-74.48128" lat="46.2054"><ele>341.4</ele></trkpt><trkpt lon="-74.48155" lat="46.20539"><ele>342.2</ele></trkpt><trkpt lon="-74.48172" lat="46.205419"><ele>342.4</ele></trkpt><trkpt lon="-74.48233" lat="46.20575"><ele>340</ele></trkpt><trkpt lon="-74.48296" lat="46.20604"><ele>338.3</ele></trkpt><trkpt lon="-74.48323" lat="46.2062"><ele>337.7</ele></trkpt><trkpt lon="-74.48383" lat="46.2066"><ele>337.4</ele></trkpt><trkpt lon="-74.48443" lat="46.207009"><ele>341.1</ele></trkpt><trkpt lon="-74.48457" lat="46.20713"><ele>342.8</ele></trkpt><trkpt lon="-74.48468" lat="46.20728"><ele>343.7</ele></trkpt><trkpt lon="-74.48497" lat="46.20785"><ele>341.7</ele></trkpt><trkpt lon="-74.48518" lat="46.20853"><ele>346.8</ele></trkpt><trkpt lon="-74.48519" lat="46.20865"><ele>349.6</ele></trkpt><trkpt lon="-74.48517" lat="46.20879"><ele>351.5</ele></trkpt><trkpt lon="-74.4851" lat="46.20894"><ele>351.8</ele></trkpt><trkpt lon="-74.48485" lat="46.20933"><ele>351.8</ele></trkpt><trkpt lon="-74.48437" lat="46.20994"><ele>348.2</ele></trkpt><trkpt lon="-74.4839" lat="46.21055"><ele>347.4</ele></trkpt><trkpt lon="-74.48343" lat="46.21116"><ele>348.1</ele></trkpt><trkpt lon="-74.483279" lat="46.21143"><ele>348.8</ele></trkpt><trkpt lon="-74.483099" lat="46.21192"><ele>351</ele></trkpt><trkpt lon="-74.482919" lat="46.21242"><ele>352.5</ele></trkpt><trkpt lon="-74.48279" lat="46.21271"><ele>354.2</ele></trkpt><trkpt lon="-74.48256" lat="46.21307"><ele>356.6</ele></trkpt><trkpt lon="-74.48241" lat="46.21323"><ele>357.2</ele></trkpt><trkpt lon="-74.48219" lat="46.2134"><ele>356.7</ele></trkpt><trkpt lon="-74.48204" lat="46.21356"><ele>356.3</ele></trkpt><trkpt lon="-74.48181" lat="46.21412"><ele>357.5</ele></trkpt><trkpt lon="-74.4818" lat="46.2143"><ele>357.8</ele></trkpt><trkpt lon="-74.48185" lat="46.21443"><ele>358.8</ele></trkpt><trkpt lon="-74.48191" lat="46.21452"><ele>359.9</ele></trkpt><trkpt lon="-74.48226" lat="46.214889"><ele>365.5</ele></trkpt><trkpt lon="-74.48237" lat="46.21507"><ele>367.4</ele></trkpt><trkpt lon="-74.48242" lat="46.21526"><ele>369.3</ele></trkpt><trkpt lon="-74.482429" lat="46.21545"><ele>370.6</ele></trkpt><trkpt lon="-74.48238" lat="46.21568"><ele>371.2</ele></trkpt><trkpt lon="-74.48232" lat="46.2158"><ele>371</ele></trkpt><trkpt lon="-74.48191" lat="46.21626"><ele>366.1</ele></trkpt><trkpt lon="-74.4818" lat="46.21643"><ele>364.1</ele></trkpt><trkpt lon="-74.48174" lat="46.21662"><ele>362.9</ele></trkpt><trkpt lon="-74.48172" lat="46.21688"><ele>362</ele></trkpt><trkpt lon="-74.48173" lat="46.21713"><ele>361.8</ele></trkpt><trkpt lon="-74.48179" lat="46.21735"><ele>362.5</ele></trkpt><trkpt lon="-74.48197" lat="46.21779"><ele>363.8</ele></trkpt><trkpt lon="-74.48215" lat="46.21824"><ele>363</ele></trkpt><trkpt lon="-74.48233" lat="46.21851"><ele>363.8</ele></trkpt><trkpt lon="-74.48255" lat="46.21873"><ele>364.2</ele></trkpt><trkpt lon="-74.48343" lat="46.21938"><ele>363.6</ele></trkpt><trkpt lon="-74.48358" lat="46.21955"><ele>365.2</ele></trkpt><trkpt lon="-74.484" lat="46.220149"><ele>363</ele></trkpt><trkpt lon="-74.48424" lat="46.22042"><ele>359.5</ele></trkpt><trkpt lon="-74.48444" lat="46.220619"><ele>357.5</ele></trkpt><trkpt lon="-74.48457" lat="46.22079"><ele>355.1</ele></trkpt><trkpt lon="-74.48494" lat="46.22133"><ele>349.7</ele></trkpt><trkpt lon="-74.48531" lat="46.22188"><ele>346.1</ele></trkpt><trkpt lon="-74.4858" lat="46.22255"><ele>340.4</ele></trkpt><trkpt lon="-74.48597" lat="46.22273"><ele>339.6</ele></trkpt><trkpt lon="-74.48644" lat="46.22316"><ele>338.4</ele></trkpt><trkpt lon="-74.48691" lat="46.22359"><ele>338.6</ele></trkpt><trkpt lon="-74.48745" lat="46.22405"><ele>339.8</ele></trkpt><trkpt lon="-74.48754" lat="46.22412"><ele>339.9</ele></trkpt><trkpt lon="-74.48791" lat="46.2243"><ele>339.8</ele></trkpt><trkpt lon="-74.48847" lat="46.22448"><ele>339.9</ele></trkpt><trkpt lon="-74.48944" lat="46.22472"><ele>339.6</ele></trkpt><trkpt lon="-74.490399" lat="46.22495"><ele>339.5</ele></trkpt><trkpt lon="-74.49137" lat="46.22518"><ele>339.8</ele></trkpt><trkpt lon="-74.49216" lat="46.22535"><ele>340.6</ele></trkpt><trkpt lon="-74.49296" lat="46.22551"><ele>341.6</ele></trkpt><trkpt lon="-74.49388" lat="46.22555"><ele>342.4</ele></trkpt><trkpt lon="-74.4948" lat="46.2256"><ele>341.6</ele></trkpt><trkpt lon="-74.49571" lat="46.22563"><ele>341.7</ele></trkpt><trkpt lon="-74.49663" lat="46.22565"><ele>340.6</ele></trkpt><trkpt lon="-74.49754" lat="46.225679"><ele>335.8</ele></trkpt><trkpt lon="-74.49817" lat="46.22573"><ele>333.5</ele></trkpt><trkpt lon="-74.498589" lat="46.22579"><ele>333.3</ele></trkpt><trkpt lon="-74.49934" lat="46.226"><ele>333</ele></trkpt><trkpt lon="-74.4996" lat="46.22607"><ele>333</ele></trkpt><trkpt lon="-74.49985" lat="46.22609"><ele>333.4</ele></trkpt><trkpt lon="-74.50014" lat="46.22603"><ele>333.7</ele></trkpt><trkpt lon="-74.50031" lat="46.22595"><ele>333.8</ele></trkpt><trkpt lon="-74.50045" lat="46.22579"><ele>333.5</ele></trkpt><trkpt lon="-74.500559" lat="46.22557"><ele>333.4</ele></trkpt><trkpt lon="-74.500739" lat="46.22502"><ele>332.7</ele></trkpt><trkpt lon="-74.500919" lat="46.22446"><ele>334.5</ele></trkpt><trkpt lon="-74.50118" lat="46.22385"><ele>335.5</ele></trkpt><trkpt lon="-74.50144" lat="46.22325"><ele>335.2</ele></trkpt><trkpt lon="-74.50164" lat="46.22287"><ele>334.8</ele></trkpt><trkpt lon="-74.50183" lat="46.22265"><ele>334</ele></trkpt><trkpt lon="-74.50201" lat="46.22251"><ele>333.2</ele></trkpt><trkpt lon="-74.50228" lat="46.22237"><ele>332.3</ele></trkpt><trkpt lon="-74.50249" lat="46.22232"><ele>331.8</ele></trkpt><trkpt lon="-74.5029" lat="46.22231"><ele>331.8</ele></trkpt><trkpt lon="-74.50379" lat="46.22235"><ele>332</ele></trkpt><trkpt lon="-74.504679" lat="46.2224"><ele>333</ele></trkpt><trkpt lon="-74.50522" lat="46.22239"><ele>333.9</ele></trkpt><trkpt lon="-74.50549" lat="46.22233"><ele>334.1</ele></trkpt><trkpt lon="-74.506469" lat="46.22202"><ele>331.5</ele></trkpt><trkpt lon="-74.50678" lat="46.22198"><ele>330.9</ele></trkpt><trkpt lon="-74.507009" lat="46.222"><ele>331.4</ele></trkpt><trkpt lon="-74.50723" lat="46.22206"><ele>332.4</ele></trkpt><trkpt lon="-74.50756" lat="46.22222"><ele>334.9</ele></trkpt><trkpt lon="-74.50808" lat="46.22266"><ele>341</ele></trkpt><trkpt lon="-74.50832" lat="46.22281"><ele>343</ele></trkpt><trkpt lon="-74.50856" lat="46.2229"><ele>344.8</ele></trkpt><trkpt lon="-74.50879" lat="46.22291"><ele>345.8</ele></trkpt><trkpt lon="-74.50934" lat="46.22281"><ele>347</ele></trkpt><trkpt lon="-74.51056" lat="46.22253"><ele>348.3</ele></trkpt><trkpt lon="-74.51177" lat="46.22224"><ele>350.7</ele></trkpt><trkpt lon="-74.5129" lat="46.22215"><ele>353.8</ele></trkpt><trkpt lon="-74.51403" lat="46.22206"><ele>352.1</ele></trkpt><trkpt lon="-74.51516" lat="46.22198"><ele>351.2</ele></trkpt><trkpt lon="-74.51535" lat="46.22193"><ele>350.3</ele></trkpt><trkpt lon="-74.51577" lat="46.2217"><ele>345.7</ele></trkpt><trkpt lon="-74.51633" lat="46.22124"><ele>342</ele></trkpt><trkpt lon="-74.51647" lat="46.22119"><ele>341.8</ele></trkpt><trkpt lon="-74.51665" lat="46.22119"><ele>342</ele></trkpt><trkpt lon="-74.516769" lat="46.22121"><ele>341.9</ele></trkpt><trkpt lon="-74.51718" lat="46.22137"><ele>342.1</ele></trkpt><trkpt lon="-74.51736" lat="46.221179"><ele>340.4</ele></trkpt><trkpt lon="-74.51767" lat="46.22089"><ele>338.5</ele></trkpt><trkpt lon="-74.51787" lat="46.22074"><ele>338.9</ele></trkpt><trkpt lon="-74.51824" lat="46.220529"><ele>339.6</ele></trkpt><trkpt lon="-74.51886" lat="46.22025"><ele>340.7</ele></trkpt><trkpt lon="-74.51897" lat="46.22017"><ele>341.1</ele></trkpt><trkpt lon="-74.519139" lat="46.22001"><ele>341.9</ele></trkpt><trkpt lon="-74.5193" lat="46.21976"><ele>344</ele></trkpt><trkpt lon="-74.51937" lat="46.21957"><ele>345.4</ele></trkpt><trkpt lon="-74.51945" lat="46.21919"><ele>347.7</ele></trkpt><trkpt lon="-74.51946" lat="46.21888"><ele>349.3</ele></trkpt><trkpt lon="-74.51937" lat="46.21843"><ele>350</ele></trkpt><trkpt lon="-74.51929" lat="46.21798"><ele>349.1</ele></trkpt><trkpt lon="-74.51925" lat="46.21723"><ele>347.4</ele></trkpt><trkpt lon="-74.51921" lat="46.21647"><ele>343.3</ele></trkpt><trkpt lon="-74.51912" lat="46.21586"><ele>338.5</ele></trkpt><trkpt lon="-74.51911" lat="46.21561"><ele>337.9</ele></trkpt><trkpt lon="-74.51921" lat="46.21506"><ele>339.2</ele></trkpt><trkpt lon="-74.5192" lat="46.21487"><ele>339.2</ele></trkpt><trkpt lon="-74.519139" lat="46.2147"><ele>338.3</ele></trkpt><trkpt lon="-74.51892" lat="46.21437"><ele>336.1</ele></trkpt><trkpt lon="-74.518739" lat="46.21385"><ele>335.3</ele></trkpt><trkpt lon="-74.51863" lat="46.21364"><ele>335.1</ele></trkpt><trkpt lon="-74.51834" lat="46.21327"><ele>334.8</ele></trkpt><trkpt lon="-74.51783" lat="46.2128"><ele>331.4</ele></trkpt><trkpt lon="-74.517619" lat="46.21256"><ele>331.1</ele></trkpt><trkpt lon="-74.51733" lat="46.21213"><ele>328.3</ele></trkpt><trkpt lon="-74.51715" lat="46.21181"><ele>326.8</ele></trkpt><trkpt lon="-74.51708" lat="46.21163"><ele>326.7</ele></trkpt><trkpt lon="-74.51709" lat="46.21081"><ele>330.5</ele></trkpt><trkpt lon="-74.517" lat="46.2104"><ele>331.4</ele></trkpt><trkpt lon="-74.51684" lat="46.21006"><ele>331.6</ele></trkpt><trkpt lon="-74.51672" lat="46.20993"><ele>332.3</ele></trkpt><trkpt lon="-74.51655" lat="46.2098"><ele>333.7</ele></trkpt><trkpt lon="-74.516" lat="46.209449"><ele>335.3</ele></trkpt><trkpt lon="-74.51561" lat="46.20915"><ele>336</ele></trkpt><trkpt lon="-74.51539" lat="46.20888"><ele>336.3</ele></trkpt><trkpt lon="-74.51531" lat="46.20873"><ele>336.7</ele></trkpt><trkpt lon="-74.515289" lat="46.20859"><ele>337.4</ele></trkpt><trkpt lon="-74.515289" lat="46.20838"><ele>338.5</ele></trkpt><trkpt lon="-74.51545" lat="46.20793"><ele>340</ele></trkpt><trkpt lon="-74.5156" lat="46.207479"><ele>341.4</ele></trkpt><trkpt lon="-74.515649" lat="46.20721"><ele>341.3</ele></trkpt><trkpt lon="-74.515649" lat="46.20689"><ele>341.1</ele></trkpt><trkpt lon="-74.51549" lat="46.206449"><ele>340.1</ele></trkpt><trkpt lon="-74.51533" lat="46.20601"><ele>338.5</ele></trkpt><trkpt lon="-74.51535" lat="46.2058"><ele>338.4</ele></trkpt><trkpt lon="-74.51548" lat="46.20557"><ele>339.3</ele></trkpt><trkpt lon="-74.51606" lat="46.2048"><ele>345.8</ele></trkpt><trkpt lon="-74.51628" lat="46.20458"><ele>345.6</ele></trkpt><trkpt lon="-74.5167" lat="46.2043"><ele>348.6</ele></trkpt><trkpt lon="-74.51688" lat="46.20415"><ele>351.8</ele></trkpt><trkpt lon="-74.5172" lat="46.20373"><ele>352.7</ele></trkpt><trkpt lon="-74.51752" lat="46.20332"><ele>351.6</ele></trkpt><trkpt lon="-74.51759" lat="46.20317"><ele>352.5</ele></trkpt><trkpt lon="-74.51764" lat="46.20302"><ele>352.4</ele></trkpt><trkpt lon="-74.51764" lat="46.20282"><ele>349.8</ele></trkpt><trkpt lon="-74.51761" lat="46.20254"><ele>345.3</ele></trkpt><trkpt lon="-74.51755" lat="46.202219"><ele>341.8</ele></trkpt><trkpt lon="-74.51765" lat="46.2014"><ele>339.5</ele></trkpt><trkpt lon="-74.51764" lat="46.20121"><ele>338.6</ele></trkpt><trkpt lon="-74.51761" lat="46.20106"><ele>337.6</ele></trkpt><trkpt lon="-74.51752" lat="46.20085"><ele>335.4</ele></trkpt><trkpt lon="-74.517349" lat="46.200539"><ele>334.1</ele></trkpt><trkpt lon="-74.51722" lat="46.200159"><ele>333.6</ele></trkpt><trkpt lon="-74.51719" lat="46.19977"><ele>333.3</ele></trkpt><trkpt lon="-74.51741" lat="46.19917"><ele>336.3</ele></trkpt><trkpt lon="-74.517709" lat="46.19847"><ele>337.6</ele></trkpt><trkpt lon="-74.518" lat="46.19778"><ele>336</ele></trkpt><trkpt lon="-74.51809" lat="46.19748"><ele>334.1</ele></trkpt><trkpt lon="-74.51804" lat="46.19679"><ele>329</ele></trkpt><trkpt lon="-74.51796" lat="46.19639"><ele>327.4</ele></trkpt><trkpt lon="-74.51785" lat="46.19572"><ele>326.2</ele></trkpt><trkpt lon="-74.517709" lat="46.19539"><ele>324.7</ele></trkpt><trkpt lon="-74.517529" lat="46.19516"><ele>323.2</ele></trkpt><trkpt lon="-74.51712" lat="46.1948"><ele>318.8</ele></trkpt><trkpt lon="-74.51662" lat="46.1943"><ele>317.6</ele></trkpt><trkpt lon="-74.51634" lat="46.1939"><ele>316.8</ele></trkpt><trkpt lon="-74.5162" lat="46.19357"><ele>316.7</ele></trkpt><trkpt lon="-74.51621" lat="46.19332"><ele>317.2</ele></trkpt><trkpt lon="-74.51624" lat="46.1932"><ele>316.3</ele></trkpt><trkpt lon="-74.5163" lat="46.19307"><ele>315.3</ele></trkpt><trkpt lon="-74.51637" lat="46.19297"><ele>314.7</ele></trkpt><trkpt lon="-74.51709" lat="46.19226"><ele>314.2</ele></trkpt><trkpt lon="-74.51722" lat="46.19205"><ele>314.5</ele></trkpt><trkpt lon="-74.51729" lat="46.191899"><ele>314.7</ele></trkpt><trkpt lon="-74.51732" lat="46.19178"><ele>314.6</ele></trkpt><trkpt lon="-74.51728" lat="46.19158"><ele>314.1</ele></trkpt><trkpt lon="-74.51716" lat="46.19116"><ele>314</ele></trkpt><trkpt lon="-74.51685" lat="46.19033"><ele>309.8</ele></trkpt><trkpt lon="-74.51669" lat="46.18966"><ele>306.3</ele></trkpt><trkpt lon="-74.51653" lat="46.18898"><ele>301.1</ele></trkpt><trkpt lon="-74.516499" lat="46.18864"><ele>298.1</ele></trkpt><trkpt lon="-74.51655" lat="46.18839"><ele>297.3</ele></trkpt><trkpt lon="-74.51671" lat="46.18802"><ele>295.7</ele></trkpt><trkpt lon="-74.517169" lat="46.18747"><ele>297</ele></trkpt><trkpt lon="-74.51763" lat="46.18691"><ele>294.9</ele></trkpt><trkpt lon="-74.51784" lat="46.18675"><ele>295</ele></trkpt><trkpt lon="-74.51821" lat="46.18657"><ele>296.5</ele></trkpt><trkpt lon="-74.519229" lat="46.18617"><ele>299.6</ele></trkpt><trkpt lon="-74.52002" lat="46.18573"><ele>295.3</ele></trkpt><trkpt lon="-74.520169" lat="46.18567"><ele>294.3</ele></trkpt><trkpt lon="-74.52031" lat="46.18563"><ele>293.8</ele></trkpt><trkpt lon="-74.5205" lat="46.1856"><ele>293.8</ele></trkpt><trkpt lon="-74.52073" lat="46.185609"><ele>295</ele></trkpt><trkpt lon="-74.52105" lat="46.18564"><ele>296.3</ele></trkpt><trkpt lon="-74.52209" lat="46.18583"><ele>300.4</ele></trkpt><trkpt lon="-74.52251" lat="46.18588"><ele>301.1</ele></trkpt><trkpt lon="-74.52285" lat="46.18592"><ele>301.8</ele></trkpt><trkpt lon="-74.52374" lat="46.18595"><ele>300.5</ele></trkpt><trkpt lon="-74.5241" lat="46.18602"><ele>300.7</ele></trkpt><trkpt lon="-74.5244" lat="46.18613"><ele>302.7</ele></trkpt><trkpt lon="-74.52459" lat="46.18625"><ele>305.7</ele></trkpt><trkpt lon="-74.525409" lat="46.18694"><ele>321.9</ele></trkpt><trkpt lon="-74.52558" lat="46.18706"><ele>323.8</ele></trkpt><trkpt lon="-74.52577" lat="46.18713"><ele>324.8</ele></trkpt><trkpt lon="-74.52597" lat="46.18716"><ele>325.5</ele></trkpt><trkpt lon="-74.527109" lat="46.18716"><ele>324.1</ele></trkpt><trkpt lon="-74.52759" lat="46.18721"><ele>322.8</ele></trkpt><trkpt lon="-74.52803" lat="46.187309"><ele>324.4</ele></trkpt><trkpt lon="-74.52843" lat="46.18732"><ele>324.1</ele></trkpt><trkpt lon="-74.5288" lat="46.18727"><ele>322.2</ele></trkpt><trkpt lon="-74.5295" lat="46.18712"><ele>316.2</ele></trkpt><trkpt lon="-74.52989" lat="46.18706"><ele>314</ele></trkpt><trkpt lon="-74.531" lat="46.18705"><ele>311</ele></trkpt><trkpt lon="-74.53167" lat="46.186929"><ele>306.1</ele></trkpt><trkpt lon="-74.53233" lat="46.18681"><ele>301.8</ele></trkpt><trkpt lon="-74.53326" lat="46.18671"><ele>296.9</ele></trkpt><trkpt lon="-74.53449" lat="46.18662"><ele>291.7</ele></trkpt><trkpt lon="-74.53487" lat="46.18664"><ele>292.3</ele></trkpt><trkpt lon="-74.53516" lat="46.18669"><ele>293</ele></trkpt><trkpt lon="-74.53555" lat="46.1868"><ele>294.3</ele></trkpt><trkpt lon="-74.53641" lat="46.18717"><ele>296.7</ele></trkpt><trkpt lon="-74.53726" lat="46.18755"><ele>294.8</ele></trkpt><trkpt lon="-74.537989" lat="46.18784"><ele>299.6</ele></trkpt><trkpt lon="-74.53864" lat="46.18803"><ele>302.3</ele></trkpt><trkpt lon="-74.539869" lat="46.18822"><ele>298.7</ele></trkpt><trkpt lon="-74.54109" lat="46.1884"><ele>298.3</ele></trkpt><trkpt lon="-74.54163" lat="46.1884"><ele>296.4</ele></trkpt><trkpt lon="-74.54226" lat="46.18827"><ele>292</ele></trkpt><trkpt lon="-74.54285" lat="46.18821"><ele>289.3</ele></trkpt><trkpt lon="-74.54323" lat="46.1882"><ele>288.6</ele></trkpt><trkpt lon="-74.54368" lat="46.18822"><ele>288.7</ele></trkpt><trkpt lon="-74.54414" lat="46.18831"><ele>291.2</ele></trkpt><trkpt lon="-74.54516" lat="46.1886"><ele>291.5</ele></trkpt><trkpt lon="-74.54554" lat="46.18867"><ele>289.5</ele></trkpt><trkpt lon="-74.54594" lat="46.18865"><ele>285.6</ele></trkpt><trkpt lon="-74.54665" lat="46.18849"><ele>277.4</ele></trkpt><trkpt lon="-74.54703" lat="46.18846"><ele>274.3</ele></trkpt><trkpt lon="-74.54786" lat="46.188429"><ele>269.6</ele></trkpt><trkpt lon="-74.54821" lat="46.18838"><ele>267.3</ele></trkpt><trkpt lon="-74.54884" lat="46.18827"><ele>266.4</ele></trkpt><trkpt lon="-74.54947" lat="46.18815"><ele>263.9</ele></trkpt><trkpt lon="-74.54986" lat="46.18812"><ele>261.8</ele></trkpt><trkpt lon="-74.55015" lat="46.18813"><ele>260.8</ele></trkpt><trkpt lon="-74.55065" lat="46.18822"><ele>260.6</ele></trkpt><trkpt lon="-74.55125" lat="46.18837"><ele>259.4</ele></trkpt><trkpt lon="-74.5518" lat="46.18856"><ele>259</ele></trkpt><trkpt lon="-74.55243" lat="46.18885"><ele>258.6</ele></trkpt><trkpt lon="-74.55275" lat="46.18903"><ele>257.5</ele></trkpt><trkpt lon="-74.55311" lat="46.189279"><ele>254.7</ele></trkpt><trkpt lon="-74.55342" lat="46.1896"><ele>255.1</ele></trkpt><trkpt lon="-74.55378" lat="46.19008"><ele>257.1</ele></trkpt><trkpt lon="-74.55397" lat="46.19027"><ele>257.5</ele></trkpt><trkpt lon="-74.55421" lat="46.19045"><ele>257.2</ele></trkpt><trkpt lon="-74.55467" lat="46.19072"><ele>256.4</ele></trkpt><trkpt lon="-74.55483" lat="46.190779"><ele>254.9</ele></trkpt><trkpt lon="-74.55555" lat="46.190959"><ele>250.2</ele></trkpt><trkpt lon="-74.55627" lat="46.19114"><ele>250.3</ele></trkpt><trkpt lon="-74.55734" lat="46.19149"><ele>252.1</ele></trkpt><trkpt lon="-74.55784" lat="46.19163"><ele>250.2</ele></trkpt><trkpt lon="-74.55821" lat="46.1917"><ele>248.2</ele></trkpt><trkpt lon="-74.55906" lat="46.19178"><ele>243.7</ele></trkpt><trkpt lon="-74.55992" lat="46.19187"><ele>242.2</ele></trkpt><trkpt lon="-74.56064" lat="46.19198"><ele>241.8</ele></trkpt><trkpt lon="-74.56131" lat="46.19213"><ele>242.1</ele></trkpt><trkpt lon="-74.56197" lat="46.192279"><ele>242.3</ele></trkpt><trkpt lon="-74.56225" lat="46.1923"><ele>242.1</ele></trkpt><trkpt lon="-74.56258" lat="46.192279"><ele>241.3</ele></trkpt><trkpt lon="-74.56284" lat="46.19223"><ele>240.5</ele></trkpt><trkpt lon="-74.563599" lat="46.19202"><ele>237.5</ele></trkpt><trkpt lon="-74.56424" lat="46.19192"><ele>237</ele></trkpt><trkpt lon="-74.56459" lat="46.19191"><ele>236.7</ele></trkpt><trkpt lon="-74.56497" lat="46.19196"><ele>236.8</ele></trkpt><trkpt lon="-74.56527" lat="46.19204"><ele>237.1</ele></trkpt><trkpt lon="-74.566059" lat="46.19245"><ele>237.2</ele></trkpt><trkpt lon="-74.56686" lat="46.19285"><ele>236.9</ele></trkpt><trkpt lon="-74.56787" lat="46.193219"><ele>235.4</ele></trkpt><trkpt lon="-74.56817" lat="46.19337"><ele>234.8</ele></trkpt><trkpt lon="-74.56913" lat="46.19392"><ele>236.6</ele></trkpt><trkpt lon="-74.56948" lat="46.19409"><ele>236.2</ele></trkpt><trkpt lon="-74.57016" lat="46.19429"><ele>234.2</ele></trkpt><trkpt lon="-74.571119" lat="46.19465"><ele>235.9</ele></trkpt><trkpt lon="-74.57165" lat="46.19495"><ele>240.3</ele></trkpt><trkpt lon="-74.57204" lat="46.19522"><ele>243.5</ele></trkpt><trkpt lon="-74.57257" lat="46.19569"><ele>249.2</ele></trkpt><trkpt lon="-74.57302" lat="46.196219"><ele>253.1</ele></trkpt><trkpt lon="-74.57338" lat="46.19671"><ele>254.5</ele></trkpt><trkpt lon="-74.57373" lat="46.1972"><ele>257.3</ele></trkpt><trkpt lon="-74.574209" lat="46.197719"><ele>257</ele></trkpt><trkpt lon="-74.57466" lat="46.19813"><ele>257.7</ele></trkpt><trkpt lon="-74.57487" lat="46.19844"><ele>257.8</ele></trkpt><trkpt lon="-74.57493" lat="46.19869"><ele>258.3</ele></trkpt><trkpt lon="-74.57501" lat="46.198749"><ele>258</ele></trkpt><trkpt lon="-74.57513" lat="46.19876"><ele>257.7</ele></trkpt><trkpt lon="-74.57542" lat="46.1989"><ele>257.2</ele></trkpt><trkpt lon="-74.57568" lat="46.19905"><ele>256.5</ele></trkpt><trkpt lon="-74.57583" lat="46.19917"><ele>256</ele></trkpt><trkpt lon="-74.57606" lat="46.19941"><ele>257</ele></trkpt><trkpt lon="-74.57617" lat="46.19956"><ele>257.4</ele></trkpt><trkpt lon="-74.576669" lat="46.20035"><ele>259.9</ele></trkpt><trkpt lon="-74.57684" lat="46.200539"><ele>260</ele></trkpt><trkpt lon="-74.57709" lat="46.20079"><ele>257.9</ele></trkpt><trkpt lon="-74.57774" lat="46.201279"><ele>254.8</ele></trkpt><trkpt lon="-74.57839" lat="46.20176"><ele>250.5</ele></trkpt><trkpt lon="-74.57881" lat="46.20203"><ele>252.4</ele></trkpt><trkpt lon="-74.57895" lat="46.2021"><ele>252.2</ele></trkpt><trkpt lon="-74.57924" lat="46.20221"><ele>251.5</ele></trkpt><trkpt lon="-74.58006" lat="46.20246"><ele>249.4</ele></trkpt><trkpt lon="-74.58022" lat="46.20253"><ele>250.2</ele></trkpt><trkpt lon="-74.58034" lat="46.20261"><ele>251.3</ele></trkpt><trkpt lon="-74.58056" lat="46.20283"><ele>252.6</ele></trkpt><trkpt lon="-74.58068" lat="46.20299"><ele>252.5</ele></trkpt><trkpt lon="-74.580969" lat="46.20349"><ele>252.6</ele></trkpt><trkpt lon="-74.58113" lat="46.20369"><ele>253.7</ele></trkpt><trkpt lon="-74.58133" lat="46.2039"><ele>252.8</ele></trkpt><trkpt lon="-74.58159" lat="46.20409"><ele>249.3</ele></trkpt><trkpt lon="-74.5819" lat="46.20426"><ele>246.2</ele></trkpt><trkpt lon="-74.5823" lat="46.2044"><ele>241.7</ele></trkpt><trkpt lon="-74.58272" lat="46.204479"><ele>237.6</ele></trkpt><trkpt lon="-74.58363" lat="46.20459"><ele>233.6</ele></trkpt><trkpt lon="-74.583969" lat="46.20469"><ele>233.2</ele></trkpt><trkpt lon="-74.58485" lat="46.2051"><ele>234.9</ele></trkpt><trkpt lon="-74.58575" lat="46.2055"><ele>231.9</ele></trkpt><trkpt lon="-74.58586" lat="46.20554"><ele>231.7</ele></trkpt><trkpt lon="-74.58662" lat="46.20592"><ele>231.1</ele></trkpt><trkpt lon="-74.58738" lat="46.20631"><ele>232.2</ele></trkpt><trkpt lon="-74.58813" lat="46.2067"><ele>232.5</ele></trkpt><trkpt lon="-74.58836" lat="46.20685"><ele>232.4</ele></trkpt><trkpt lon="-74.58914" lat="46.20727"><ele>231.1</ele></trkpt><trkpt lon="-74.58972" lat="46.20754"><ele>231.4</ele></trkpt><trkpt lon="-74.58996" lat="46.20763"><ele>232.6</ele></trkpt><trkpt lon="-74.58985" lat="46.207859"><ele>230.1</ele></trkpt><trkpt lon="-74.58999" lat="46.20791"><ele>230.5</ele></trkpt><trkpt lon="-74.59012" lat="46.20787"><ele>232</ele></trkpt><trkpt lon="-74.59022" lat="46.20788"><ele>232.8</ele></trkpt><trkpt lon="-74.5903" lat="46.20793"><ele>233.1</ele></trkpt><trkpt lon="-74.590459" lat="46.20806"><ele>232.9</ele></trkpt><trkpt lon="-74.59065" lat="46.20818"><ele>232.9</ele></trkpt><trkpt lon="-74.590729" lat="46.20821"><ele>233</ele></trkpt><trkpt lon="-74.59084" lat="46.20822"><ele>233.6</ele></trkpt><trkpt lon="-74.59104" lat="46.20819"><ele>234.3</ele></trkpt><trkpt lon="-74.59119" lat="46.2081"><ele>235.8</ele></trkpt><trkpt lon="-74.59126" lat="46.20801"><ele>237.1</ele></trkpt><trkpt lon="-74.591309" lat="46.20799"><ele>237.5</ele></trkpt><trkpt lon="-74.59153" lat="46.20797"><ele>238.1</ele></trkpt><trkpt lon="-74.59171" lat="46.20798"><ele>238.2</ele></trkpt><trkpt lon="-74.59193" lat="46.20797"><ele>239</ele></trkpt><trkpt lon="-74.593" lat="46.20773"><ele>240.3</ele></trkpt><trkpt lon="-74.59408" lat="46.2075"><ele>234.6</ele></trkpt><trkpt lon="-74.59429" lat="46.20735"><ele>234</ele></trkpt><trkpt lon="-74.59461" lat="46.20724"><ele>233.1</ele></trkpt><trkpt lon="-74.59472" lat="46.20728"><ele>232.5</ele></trkpt><trkpt lon="-74.59477" lat="46.20733"><ele>232</ele></trkpt><trkpt lon="-74.59493" lat="46.20743"><ele>230.7</ele></trkpt><trkpt lon="-74.59522" lat="46.20752"><ele>230.1</ele></trkpt><trkpt lon="-74.59573" lat="46.20755"><ele>230.5</ele></trkpt><trkpt lon="-74.59581" lat="46.20752"><ele>230.8</ele></trkpt><trkpt lon="-74.59594" lat="46.20736"><ele>232.2</ele></trkpt><trkpt lon="-74.59606" lat="46.20724"><ele>233.2</ele></trkpt><trkpt lon="-74.59622" lat="46.20713"><ele>234</ele></trkpt><trkpt lon="-74.59672" lat="46.2066"><ele>236.6</ele></trkpt><trkpt lon="-74.59684" lat="46.2065"><ele>237.5</ele></trkpt><trkpt lon="-74.59689" lat="46.20644"><ele>237.9</ele></trkpt><trkpt lon="-74.59695" lat="46.20626"><ele>238.7</ele></trkpt><trkpt lon="-74.59694" lat="46.20604"><ele>239.3</ele></trkpt><trkpt lon="-74.59697" lat="46.20601"><ele>239.5</ele></trkpt><trkpt lon="-74.59714" lat="46.20595"><ele>239.8</ele></trkpt><trkpt lon="-74.5972" lat="46.20588"><ele>239.9</ele></trkpt><trkpt lon="-74.597309" lat="46.20541"><ele>241.9</ele></trkpt><trkpt lon="-74.597309" lat="46.20532"><ele>242.3</ele></trkpt><trkpt lon="-74.59742" lat="46.20507"><ele>243.6</ele></trkpt><trkpt lon="-74.59747" lat="46.20489"><ele>244.7</ele></trkpt><trkpt lon="-74.59753" lat="46.20442"><ele>248.5</ele></trkpt><trkpt lon="-74.59755" lat="46.20386"><ele>251.7</ele></trkpt><trkpt lon="-74.597579" lat="46.20329"><ele>254</ele></trkpt><trkpt lon="-74.59756" lat="46.20323"><ele>253.4</ele></trkpt><trkpt lon="-74.59756" lat="46.20304"><ele>253</ele></trkpt><trkpt lon="-74.597489" lat="46.2029"><ele>250.8</ele></trkpt><trkpt lon="-74.59746" lat="46.20273"><ele>250.3</ele></trkpt><trkpt lon="-74.59754" lat="46.20244"><ele>251</ele></trkpt><trkpt lon="-74.59764" lat="46.20221"><ele>253</ele></trkpt><trkpt lon="-74.59769" lat="46.2018"><ele>252.9</ele></trkpt><trkpt lon="-74.59769" lat="46.20168"><ele>252.2</ele></trkpt><trkpt lon="-74.597849" lat="46.20131"><ele>255.9</ele></trkpt><trkpt lon="-74.59783" lat="46.20113"><ele>254.4</ele></trkpt><trkpt lon="-74.59796" lat="46.20042"><ele>255</ele></trkpt><trkpt lon="-74.59799" lat="46.19997"><ele>254.3</ele></trkpt><trkpt lon="-74.5981" lat="46.19974"><ele>256</ele></trkpt><trkpt lon="-74.59826" lat="46.19932"><ele>258</ele></trkpt><trkpt lon="-74.59833" lat="46.1989"><ele>257.1</ele></trkpt><trkpt lon="-74.59849" lat="46.19851"><ele>258.6</ele></trkpt><trkpt lon="-74.59851" lat="46.19821"><ele>256.8</ele></trkpt><trkpt lon="-74.59856" lat="46.19804"><ele>256.4</ele></trkpt><trkpt lon="-74.59897" lat="46.19749"><ele>256.3</ele></trkpt><trkpt lon="-74.599369" lat="46.19695"><ele>256</ele></trkpt><trkpt lon="-74.59941" lat="46.19676"><ele>253.6</ele></trkpt><trkpt lon="-74.5994" lat="46.196599"><ele>251.4</ele></trkpt><trkpt lon="-74.59934" lat="46.19636"><ele>248.7</ele></trkpt><trkpt lon="-74.599279" lat="46.19628"><ele>247.2</ele></trkpt><trkpt lon="-74.59923" lat="46.19624"><ele>246.1</ele></trkpt><trkpt lon="-74.59914" lat="46.19621"><ele>244.8</ele></trkpt><trkpt lon="-74.5991" lat="46.19618"><ele>244.6</ele></trkpt><trkpt lon="-74.5991" lat="46.19614"><ele>244.4</ele></trkpt><trkpt lon="-74.59911" lat="46.1961"><ele>244.2</ele></trkpt><trkpt lon="-74.59979" lat="46.19548"><ele>245.1</ele></trkpt><trkpt lon="-74.59989" lat="46.1953"><ele>242.8</ele></trkpt><trkpt lon="-74.5999" lat="46.19511"><ele>239.4</ele></trkpt><trkpt lon="-74.59987" lat="46.19494"><ele>235.8</ele></trkpt><trkpt lon="-74.59977" lat="46.19468"><ele>229.6</ele></trkpt><trkpt lon="-74.60007" lat="46.1946"><ele>228.8</ele></trkpt><trkpt lon="-74.6002" lat="46.19454"><ele>228.1</ele></trkpt><trkpt lon="-74.60054" lat="46.19447"><ele>228.1</ele></trkpt><trkpt lon="-74.60079" lat="46.19444"><ele>228.5</ele></trkpt><trkpt lon="-74.60133" lat="46.19441"><ele>226.5</ele></trkpt><trkpt lon="-74.60204" lat="46.19448"><ele>224.6</ele></trkpt><trkpt lon="-74.60226" lat="46.19454"><ele>224.3</ele></trkpt><trkpt lon="-74.60267" lat="46.194719"><ele>224.9</ele></trkpt><trkpt lon="-74.60282" lat="46.19486"><ele>225.9</ele></trkpt><trkpt lon="-74.6031" lat="46.19521"><ele>227.3</ele></trkpt><trkpt lon="-74.60318" lat="46.19534"><ele>227.7</ele></trkpt><trkpt lon="-74.60324" lat="46.19554"><ele>228.9</ele></trkpt><trkpt lon="-74.60329" lat="46.19564"><ele>228.9</ele></trkpt><trkpt lon="-74.60346" lat="46.19581"><ele>227.9</ele></trkpt><trkpt lon="-74.60364" lat="46.196"><ele>226.5</ele></trkpt><trkpt lon="-74.60374" lat="46.19607"><ele>225.4</ele></trkpt><trkpt lon="-74.60411" lat="46.19619"><ele>219.4</ele></trkpt><trkpt lon="-74.6043" lat="46.19621"><ele>219.4</ele></trkpt><trkpt lon="-74.60451" lat="46.1962"><ele>221</ele></trkpt><trkpt lon="-74.60484" lat="46.19612"><ele>223.4</ele></trkpt><trkpt lon="-74.605459" lat="46.19579"><ele>226</ele></trkpt><trkpt lon="-74.60585" lat="46.19569"><ele>227.3</ele></trkpt><trkpt lon="-74.60596" lat="46.1957"><ele>228.3</ele></trkpt><trkpt lon="-74.60603" lat="46.19573"><ele>229</ele></trkpt><trkpt lon="-74.60609" lat="46.19581"><ele>229.9</ele></trkpt><trkpt lon="-74.60611" lat="46.19587"><ele>230.5</ele></trkpt><trkpt lon="-74.60608" lat="46.19593"><ele>230.7</ele></trkpt><trkpt lon="-74.6056" lat="46.19611"><ele>228.5</ele></trkpt><trkpt lon="-74.60544" lat="46.19624"><ele>228.1</ele></trkpt><trkpt lon="-74.605369" lat="46.19634"><ele>228.1</ele></trkpt><trkpt lon="-74.60539" lat="46.19645"><ele>228.8</ele></trkpt><trkpt lon="-74.60548" lat="46.19657"><ele>230.2</ele></trkpt><trkpt lon="-74.60572" lat="46.19673"><ele>232.5</ele></trkpt><trkpt lon="-74.60601" lat="46.19683"><ele>234.4</ele></trkpt><trkpt lon="-74.60638" lat="46.19686"><ele>238.1</ele></trkpt><trkpt lon="-74.6065" lat="46.19692"><ele>239.4</ele></trkpt><trkpt lon="-74.60659" lat="46.19705"><ele>240.4</ele></trkpt><trkpt lon="-74.60666" lat="46.19731"><ele>241.6</ele></trkpt><trkpt lon="-74.60672" lat="46.198009"><ele>240.4</ele></trkpt><trkpt lon="-74.60678" lat="46.19871"><ele>237.7</ele></trkpt><trkpt lon="-74.60688" lat="46.19918"><ele>237</ele></trkpt><trkpt lon="-74.60701" lat="46.19949"><ele>238.7</ele></trkpt><trkpt lon="-74.60721" lat="46.19984"><ele>240.3</ele></trkpt><trkpt lon="-74.60721" lat="46.19997"><ele>239.4</ele></trkpt><trkpt lon="-74.607159" lat="46.20005"><ele>238.9</ele></trkpt><trkpt lon="-74.60682" lat="46.20035"><ele>236.9</ele></trkpt><trkpt lon="-74.60664" lat="46.20065"><ele>237.2</ele></trkpt><trkpt lon="-74.60611" lat="46.20111"><ele>235.4</ele></trkpt><trkpt lon="-74.6057" lat="46.20137"><ele>232.9</ele></trkpt><trkpt lon="-74.60561" lat="46.20151"><ele>233.3</ele></trkpt><trkpt lon="-74.60557" lat="46.201659"><ele>234</ele></trkpt><trkpt lon="-74.60558" lat="46.20178"><ele>235.3</ele></trkpt><trkpt lon="-74.605639" lat="46.2019"><ele>236.7</ele></trkpt><trkpt lon="-74.60595" lat="46.20241"><ele>241.2</ele></trkpt><trkpt lon="-74.60611" lat="46.20245"><ele>241.2</ele></trkpt><trkpt lon="-74.60626" lat="46.20244"><ele>241</ele></trkpt><trkpt lon="-74.60662" lat="46.20236"><ele>241.1</ele></trkpt><trkpt lon="-74.60708" lat="46.20232"><ele>241.5</ele></trkpt><trkpt lon="-74.60742" lat="46.202219"><ele>243.3</ele></trkpt><trkpt lon="-74.60795" lat="46.20188"><ele>245.8</ele></trkpt><trkpt lon="-74.60827" lat="46.201749"><ele>243.4</ele></trkpt><trkpt lon="-74.6084" lat="46.20165"><ele>242.6</ele></trkpt><trkpt lon="-74.6086" lat="46.20151"><ele>241.5</ele></trkpt><trkpt lon="-74.60898" lat="46.20127"><ele>238.6</ele></trkpt><trkpt lon="-74.6093" lat="46.20118"><ele>237.3</ele></trkpt><trkpt lon="-74.60948" lat="46.20118"><ele>237.8</ele></trkpt><trkpt lon="-74.60973" lat="46.20134"><ele>239</ele></trkpt><trkpt lon="-74.60987" lat="46.20134"><ele>239.6</ele></trkpt><trkpt lon="-74.61001" lat="46.2013"><ele>239.8</ele></trkpt><trkpt lon="-74.61044" lat="46.201099"><ele>240.8</ele></trkpt><trkpt lon="-74.61063" lat="46.20103"><ele>241.1</ele></trkpt><trkpt lon="-74.61074" lat="46.20102"><ele>241.6</ele></trkpt><trkpt lon="-74.61084" lat="46.20104"><ele>242.2</ele></trkpt><trkpt lon="-74.61113" lat="46.20118"><ele>247.5</ele></trkpt><trkpt lon="-74.61124" lat="46.20121"><ele>249.5</ele></trkpt><trkpt lon="-74.61133" lat="46.20121"><ele>250.7</ele></trkpt><trkpt lon="-74.611459" lat="46.20118"><ele>251.9</ele></trkpt><trkpt lon="-74.61161" lat="46.20111"><ele>252.7</ele></trkpt><trkpt lon="-74.6122" lat="46.20079"><ele>249.6</ele></trkpt><trkpt lon="-74.61335" lat="46.20042"><ele>253.1</ele></trkpt><trkpt lon="-74.61384" lat="46.20019"><ele>253.8</ele></trkpt><trkpt lon="-74.61431" lat="46.19979"><ele>252.5</ele></trkpt><trkpt lon="-74.614769" lat="46.19942"><ele>252.4</ele></trkpt><trkpt lon="-74.61515" lat="46.19921"><ele>253.1</ele></trkpt><trkpt lon="-74.615219" lat="46.19914"><ele>253.2</ele></trkpt><trkpt lon="-74.61524" lat="46.19903"><ele>252.7</ele></trkpt><trkpt lon="-74.615219" lat="46.19888"><ele>251.6</ele></trkpt><trkpt lon="-74.61498" lat="46.19849"><ele>248.6</ele></trkpt><trkpt lon="-74.61496" lat="46.19841"><ele>248.3</ele></trkpt><trkpt lon="-74.615" lat="46.19827"><ele>248.1</ele></trkpt><trkpt lon="-74.61618" lat="46.19793"><ele>246.3</ele></trkpt><trkpt lon="-74.61697" lat="46.19762"><ele>243.3</ele></trkpt><trkpt lon="-74.617769" lat="46.19731"><ele>244.3</ele></trkpt><trkpt lon="-74.61856" lat="46.19701"><ele>244.6</ele></trkpt><trkpt lon="-74.61894" lat="46.19683"><ele>243.5</ele></trkpt><trkpt lon="-74.6192" lat="46.19666"><ele>242.4</ele></trkpt><trkpt lon="-74.61955" lat="46.19637"><ele>242.7</ele></trkpt><trkpt lon="-74.61979" lat="46.19618"><ele>241.1</ele></trkpt><trkpt lon="-74.62012" lat="46.19606"><ele>239.9</ele></trkpt><trkpt lon="-74.62061" lat="46.19591"><ele>238.2</ele></trkpt><trkpt lon="-74.62124" lat="46.19576"><ele>239.7</ele></trkpt><trkpt lon="-74.62211" lat="46.1956"><ele>243.2</ele></trkpt><trkpt lon="-74.6221" lat="46.19555"><ele>242.7</ele></trkpt><trkpt lon="-74.62215" lat="46.19553"><ele>242.5</ele></trkpt><trkpt lon="-74.62232" lat="46.19549"><ele>242.5</ele></trkpt><trkpt lon="-74.62259" lat="46.195369"><ele>241.6</ele></trkpt><trkpt lon="-74.62315" lat="46.19529"><ele>241.8</ele></trkpt><trkpt lon="-74.6235" lat="46.19527"><ele>241.5</ele></trkpt><trkpt lon="-74.624" lat="46.19527"><ele>240.6</ele></trkpt><trkpt lon="-74.6249" lat="46.19535"><ele>242.3</ele></trkpt><trkpt lon="-74.625069" lat="46.19535"><ele>242</ele></trkpt><trkpt lon="-74.62554" lat="46.19518"><ele>238.4</ele></trkpt><trkpt lon="-74.62586" lat="46.19514"><ele>236.8</ele></trkpt><trkpt lon="-74.62664" lat="46.19494"><ele>236.3</ele></trkpt><trkpt lon="-74.62743" lat="46.19475"><ele>238.2</ele></trkpt><trkpt lon="-74.6276" lat="46.194719"><ele>238.1</ele></trkpt><trkpt lon="-74.6277" lat="46.194719"><ele>237.7</ele></trkpt><trkpt lon="-74.62776" lat="46.19475"><ele>237.4</ele></trkpt><trkpt lon="-74.62779" lat="46.194809"><ele>236.9</ele></trkpt><trkpt lon="-74.62784" lat="46.19507"><ele>236.2</ele></trkpt><trkpt lon="-74.62818" lat="46.195"><ele>234.6</ele></trkpt><trkpt lon="-74.62837" lat="46.19499"><ele>234.1</ele></trkpt><trkpt lon="-74.62926" lat="46.19501"><ele>234.4</ele></trkpt><trkpt lon="-74.62928" lat="46.19494"><ele>234.4</ele></trkpt><trkpt lon="-74.62932" lat="46.19489"><ele>234.6</ele></trkpt><trkpt lon="-74.629409" lat="46.19484"><ele>234.9</ele></trkpt><trkpt lon="-74.62952" lat="46.19483"><ele>235</ele></trkpt><trkpt lon="-74.62983" lat="46.19487"><ele>235.4</ele></trkpt><trkpt lon="-74.62991" lat="46.19487"><ele>235.6</ele></trkpt><trkpt lon="-74.63036" lat="46.19482"><ele>234.1</ele></trkpt><trkpt lon="-74.63056" lat="46.19482"><ele>233.3</ele></trkpt><trkpt lon="-74.63069" lat="46.19477"><ele>232.5</ele></trkpt><trkpt lon="-74.63081" lat="46.19466"><ele>231.5</ele></trkpt><trkpt lon="-74.63085" lat="46.19464"><ele>231.2</ele></trkpt><trkpt lon="-74.631" lat="46.19464"><ele>230.6</ele></trkpt><trkpt lon="-74.63119" lat="46.19458"><ele>229.5</ele></trkpt><trkpt lon="-74.63133" lat="46.19458"><ele>228.9</ele></trkpt><trkpt lon="-74.63133" lat="46.19445"><ele>228.3</ele></trkpt><trkpt lon="-74.63129" lat="46.1942"><ele>227.5</ele></trkpt><trkpt lon="-74.63131" lat="46.19412"><ele>227.4</ele></trkpt><trkpt lon="-74.63155" lat="46.19348"><ele>227</ele></trkpt><trkpt lon="-74.6318" lat="46.192839"><ele>228.6</ele></trkpt><trkpt lon="-74.63195" lat="46.192369"><ele>229.5</ele></trkpt><trkpt lon="-74.63211" lat="46.191899"><ele>228.9</ele></trkpt><trkpt lon="-74.63213" lat="46.19162"><ele>229.1</ele></trkpt><trkpt lon="-74.63211" lat="46.19138"><ele>228.5</ele></trkpt><trkpt lon="-74.632009" lat="46.19113"><ele>228.5</ele></trkpt><trkpt lon="-74.631649" lat="46.19057"><ele>228.2</ele></trkpt><trkpt lon="-74.63128" lat="46.19001"><ele>229.2</ele></trkpt><trkpt lon="-74.63108" lat="46.18963"><ele>229.7</ele></trkpt><trkpt lon="-74.631" lat="46.18942"><ele>228.9</ele></trkpt><trkpt lon="-74.63097" lat="46.18909"><ele>227.2</ele></trkpt><trkpt lon="-74.63097" lat="46.18879"><ele>226.9</ele></trkpt><trkpt lon="-74.63103" lat="46.18809"><ele>226.2</ele></trkpt><trkpt lon="-74.63099" lat="46.18765"><ele>225.4</ele></trkpt><trkpt lon="-74.63085" lat="46.18736"><ele>225.3</ele></trkpt><trkpt lon="-74.63059" lat="46.18699"><ele>229.9</ele></trkpt><trkpt lon="-74.63047" lat="46.18685"><ele>230.7</ele></trkpt><trkpt lon="-74.63029" lat="46.1867"><ele>230.5</ele></trkpt><trkpt lon="-74.62956" lat="46.18615"><ele>233.5</ele></trkpt><trkpt lon="-74.628829" lat="46.18559"><ele>232.7</ele></trkpt><trkpt lon="-74.6281" lat="46.18503"><ele>229.5</ele></trkpt><trkpt lon="-74.6273" lat="46.184399"><ele>235</ele></trkpt><trkpt lon="-74.626499" lat="46.18376"><ele>238.9</ele></trkpt><trkpt lon="-74.62589" lat="46.18328"><ele>234.4</ele></trkpt><trkpt lon="-74.62527" lat="46.1828"><ele>235.1</ele></trkpt><trkpt lon="-74.62465" lat="46.18232"><ele>233.4</ele></trkpt><trkpt lon="-74.62396" lat="46.18175"><ele>230.8</ele></trkpt><trkpt lon="-74.62344" lat="46.18134"><ele>228.8</ele></trkpt><trkpt lon="-74.622919" lat="46.180929"><ele>227.6</ele></trkpt><trkpt lon="-74.6224" lat="46.180459"><ele>224.5</ele></trkpt><trkpt lon="-74.62217" lat="46.1801"><ele>223.5</ele></trkpt><trkpt lon="-74.62202" lat="46.179699"><ele>221.8</ele></trkpt><trkpt lon="-74.621979" lat="46.1794"><ele>221.4</ele></trkpt><trkpt lon="-74.62201" lat="46.17882"><ele>221.1</ele></trkpt><trkpt lon="-74.62204" lat="46.17824"><ele>220.7</ele></trkpt><trkpt lon="-74.62212" lat="46.17759"><ele>223.8</ele></trkpt><trkpt lon="-74.62222" lat="46.17713"><ele>223.7</ele></trkpt><trkpt lon="-74.62246" lat="46.17636"><ele>222.6</ele></trkpt><trkpt lon="-74.62271" lat="46.175579"><ele>223.2</ele></trkpt><trkpt lon="-74.62295" lat="46.17481"><ele>221.5</ele></trkpt><trkpt lon="-74.62313" lat="46.17421"><ele>221.1</ele></trkpt><trkpt lon="-74.6233" lat="46.173609"><ele>221.2</ele></trkpt><trkpt lon="-74.6235" lat="46.17283"><ele>220.6</ele></trkpt><trkpt lon="-74.62355" lat="46.17253"><ele>219.8</ele></trkpt><trkpt lon="-74.62356" lat="46.17233"><ele>220</ele></trkpt><trkpt lon="-74.6235" lat="46.1721"><ele>219.8</ele></trkpt><trkpt lon="-74.62342" lat="46.17194"><ele>219.3</ele></trkpt><trkpt lon="-74.62338" lat="46.17187"><ele>219</ele></trkpt><trkpt lon="-74.62315" lat="46.17159"><ele>219.1</ele></trkpt><trkpt lon="-74.62294" lat="46.17142"><ele>219.5</ele></trkpt><trkpt lon="-74.622739" lat="46.1713"><ele>219.3</ele></trkpt><trkpt lon="-74.62251" lat="46.17118"><ele>218.4</ele></trkpt><trkpt lon="-74.622159" lat="46.17105"><ele>217.3</ele></trkpt><trkpt lon="-74.62101" lat="46.17071"><ele>216.5</ele></trkpt><trkpt lon="-74.61987" lat="46.17037"><ele>218.5</ele></trkpt><trkpt lon="-74.61873" lat="46.17004"><ele>218.2</ele></trkpt><trkpt lon="-74.61839" lat="46.16991"><ele>215.9</ele></trkpt><trkpt lon="-74.61797" lat="46.16972"><ele>214.3</ele></trkpt><trkpt lon="-74.61764" lat="46.16953"><ele>212.9</ele></trkpt><trkpt lon="-74.6172" lat="46.16928"><ele>213</ele></trkpt><trkpt lon="-74.61676" lat="46.16895"><ele>213.8</ele></trkpt><trkpt lon="-74.61618" lat="46.16836"><ele>213</ele></trkpt><trkpt lon="-74.61575" lat="46.16784"><ele>216.1</ele></trkpt><trkpt lon="-74.61533" lat="46.167319"><ele>217.1</ele></trkpt><trkpt lon="-74.61493" lat="46.16684"><ele>217.5</ele></trkpt><trkpt lon="-74.61453" lat="46.16636"><ele>219.9</ele></trkpt><trkpt lon="-74.61388" lat="46.16563"><ele>220</ele></trkpt><trkpt lon="-74.61364" lat="46.1654"><ele>219.4</ele></trkpt><trkpt lon="-74.61349" lat="46.16527"><ele>218</ele></trkpt><trkpt lon="-74.61327" lat="46.16513"><ele>215.6</ele></trkpt><trkpt lon="-74.61277" lat="46.1649"><ele>213.9</ele></trkpt><trkpt lon="-74.61218" lat="46.16467"><ele>212.8</ele></trkpt><trkpt lon="-74.61194" lat="46.16452"><ele>213.6</ele></trkpt><trkpt lon="-74.61164" lat="46.16429"><ele>215</ele></trkpt><trkpt lon="-74.611009" lat="46.16374"><ele>214.5</ele></trkpt><trkpt lon="-74.61037" lat="46.16319"><ele>215</ele></trkpt><trkpt lon="-74.60983" lat="46.16271"><ele>216.9</ele></trkpt><trkpt lon="-74.60929" lat="46.16223"><ele>218.4</ele></trkpt><trkpt lon="-74.60875" lat="46.16175"><ele>219.9</ele></trkpt><trkpt lon="-74.60821" lat="46.16117"><ele>218.7</ele></trkpt><trkpt lon="-74.60783" lat="46.16087"><ele>216.1</ele></trkpt><trkpt lon="-74.60724" lat="46.1605"><ele>214.9</ele></trkpt><trkpt lon="-74.606579" lat="46.16017"><ele>213</ele></trkpt><trkpt lon="-74.60624" lat="46.16005"><ele>213.7</ele></trkpt><trkpt lon="-74.60556" lat="46.15983"><ele>213.8</ele></trkpt><trkpt lon="-74.60527" lat="46.15976"><ele>213.1</ele></trkpt><trkpt lon="-74.60494" lat="46.159709"><ele>212.3</ele></trkpt><trkpt lon="-74.60447" lat="46.15967"><ele>211.9</ele></trkpt><trkpt lon="-74.60395" lat="46.15966"><ele>211.5</ele></trkpt><trkpt lon="-74.60314" lat="46.15967"><ele>210.8</ele></trkpt><trkpt lon="-74.60252" lat="46.159709"><ele>210.1</ele></trkpt><trkpt lon="-74.60185" lat="46.1597"><ele>211.7</ele></trkpt><trkpt lon="-74.60149" lat="46.15968"><ele>212.7</ele></trkpt><trkpt lon="-74.60109" lat="46.15961"><ele>213.9</ele></trkpt><trkpt lon="-74.6008" lat="46.159529"><ele>214.7</ele></trkpt><trkpt lon="-74.6005" lat="46.15941"><ele>213.9</ele></trkpt><trkpt lon="-74.600219" lat="46.159239"><ele>213.6</ele></trkpt><trkpt lon="-74.59998" lat="46.15904"><ele>212.7</ele></trkpt><trkpt lon="-74.59971" lat="46.15872"><ele>210.8</ele></trkpt><trkpt lon="-74.59965" lat="46.15858"><ele>210.3</ele></trkpt><trkpt lon="-74.59959" lat="46.15841"><ele>210</ele></trkpt><trkpt lon="-74.599549" lat="46.15824"><ele>210.1</ele></trkpt><trkpt lon="-74.59956" lat="46.15796"><ele>211.1</ele></trkpt><trkpt lon="-74.59962" lat="46.15769"><ele>211.9</ele></trkpt><trkpt lon="-74.59969" lat="46.15755"><ele>212.3</ele></trkpt><trkpt lon="-74.60018" lat="46.1569"><ele>212.2</ele></trkpt><trkpt lon="-74.60036" lat="46.15659"><ele>211.9</ele></trkpt><trkpt lon="-74.60043" lat="46.15639"><ele>211.5</ele></trkpt><trkpt lon="-74.60046" lat="46.15622"><ele>211.2</ele></trkpt><trkpt lon="-74.60044" lat="46.15589"><ele>210.6</ele></trkpt><trkpt lon="-74.60039" lat="46.15576"><ele>210.3</ele></trkpt><trkpt lon="-74.60023" lat="46.15549"><ele>209.7</ele></trkpt><trkpt lon="-74.600129" lat="46.15535"><ele>209.3</ele></trkpt><trkpt lon="-74.60002" lat="46.15525"><ele>208.9</ele></trkpt><trkpt lon="-74.59979" lat="46.15507"><ele>208.5</ele></trkpt><trkpt lon="-74.59961" lat="46.15497"><ele>208.4</ele></trkpt><trkpt lon="-74.59893" lat="46.15467"><ele>206.7</ele></trkpt><trkpt lon="-74.59811" lat="46.15437"><ele>205.8</ele></trkpt><trkpt lon="-74.59736" lat="46.1541"><ele>209.3</ele></trkpt><trkpt lon="-74.59661" lat="46.15383"><ele>209.2</ele></trkpt><trkpt lon="-74.5959" lat="46.15355"><ele>208.4</ele></trkpt><trkpt lon="-74.595339" lat="46.15323"><ele>209.2</ele></trkpt><trkpt lon="-74.59506" lat="46.15304"><ele>209.9</ele></trkpt><trkpt lon="-74.59487" lat="46.15288"><ele>210.5</ele></trkpt><trkpt lon="-74.59468" lat="46.152679"><ele>211.4</ele></trkpt><trkpt lon="-74.59441" lat="46.15235"><ele>212.7</ele></trkpt><trkpt lon="-74.59418" lat="46.15189"><ele>213.2</ele></trkpt><trkpt lon="-74.5941" lat="46.15163"><ele>213.3</ele></trkpt><trkpt lon="-74.59404" lat="46.15111"><ele>213.8</ele></trkpt><trkpt lon="-74.59398" lat="46.1506"><ele>213.3</ele></trkpt><trkpt lon="-74.59394" lat="46.14984"><ele>211.6</ele></trkpt><trkpt lon="-74.59386" lat="46.14904"><ele>212.1</ele></trkpt><trkpt lon="-74.59378" lat="46.14823"><ele>213.3</ele></trkpt><trkpt lon="-74.5937" lat="46.14743"><ele>214.8</ele></trkpt><trkpt lon="-74.59361" lat="46.14662"><ele>213.2</ele></trkpt><trkpt lon="-74.59353" lat="46.14582"><ele>211.7</ele></trkpt><trkpt lon="-74.59356" lat="46.14518"><ele>211.2</ele></trkpt><trkpt lon="-74.593639" lat="46.14476"><ele>210.9</ele></trkpt><trkpt lon="-74.59377" lat="46.14443"><ele>210.6</ele></trkpt><trkpt lon="-74.59389" lat="46.14418"><ele>210.3</ele></trkpt><trkpt lon="-74.59432" lat="46.14336"><ele>210.6</ele></trkpt><trkpt lon="-74.59475" lat="46.14253"><ele>211.3</ele></trkpt><trkpt lon="-74.59519" lat="46.14171"><ele>209.7</ele></trkpt><trkpt lon="-74.59555" lat="46.14106"><ele>209.5</ele></trkpt><trkpt lon="-74.59574" lat="46.140659"><ele>208.3</ele></trkpt><trkpt lon="-74.59597" lat="46.13984"><ele>207.6</ele></trkpt><trkpt lon="-74.5962" lat="46.13901"><ele>208.2</ele></trkpt><trkpt lon="-74.59643" lat="46.13819"><ele>209.7</ele></trkpt><trkpt lon="-74.596459" lat="46.13805"><ele>209.7</ele></trkpt>
                            </trkseg>
                        </trk>
                    </gpx>