<?xml version="1.0"?>
<gpx xmlns="http://www.topografix.com/GPX/1/1" xmlns:xsi="http://www.w3.org/2001/XMLSchema-instance" version="1.1" creator="AllTrails.com" xsi:schemaLocation="http://www.topografix.com/GPX/1/1 http://www.topografix.com/GPX/1/1/gpx.xsd">
  <metadata>
    <name><![CDATA[Pic Johannsen, Pic Pangman, The Edge and Pic White]]></name>
    <desc><![CDATA[]]></desc>
    <link href="http://www.alltrails.com">
      <text>AllTrails, LLC</text>
    </link>
    <bounds minlat="46.20804" minlon="-74.5912" maxlat="46.25006" maxlon="-74.548"/>
  </metadata>
  <wpt lat="46.2494938" lon="-74.5604357">
    <name><![CDATA[Roof intersection of the Laurentians]]></name>
    <desc><![CDATA[parking la sablonniere 6,8km]]></desc>
  </wpt>
  <wpt lat="46.2413613" lon="-74.5588651">
    <name><![CDATA[Pic Pangman]]></name>
    <desc><![CDATA[]]></desc>
  </wpt>
  <wpt lat="46.2319044" lon="-74.553228">
    <name><![CDATA[Sommet The Edge]]></name>
    <desc><![CDATA[]]></desc>
  </wpt>
  <wpt lat="46.2219516" lon="-74.5558436">
    <name><![CDATA[Tour d'observation]]></name>
    <desc><![CDATA[]]></desc>
  </wpt>
  <wpt lat="46.2188499" lon="-74.5517193">
    <name><![CDATA[Pic Blanc]]></name>
    <desc><![CDATA[]]></desc>
  </wpt>
  <wpt lat="46.2150222" lon="-74.5577777">
    <name><![CDATA[Étang]]></name>
    <desc><![CDATA[]]></desc>
  </wpt>
  <trk>
    <name><![CDATA[Pic Johannsen, Pic Pangman, The Edge and Pic White]]></name>
    <src>AllTrails</src>
    <trkseg>
      <trkpt lat="46.21417" lon="-74.5864">
        <ele>258.88</ele>
      </trkpt>
      <trkpt lat="46.21414" lon="-74.5864">
        <ele>259.36</ele>
      </trkpt>
      <trkpt lat="46.21415" lon="-74.5864">
        <ele>259.18</ele>
      </trkpt>
      <trkpt lat="46.21437" lon="-74.58627">
        <ele>260.8</ele>
      </trkpt>
      <trkpt lat="46.21444" lon="-74.58624">
        <ele>261.65</ele>
      </trkpt>
      <trkpt lat="46.21486" lon="-74.58611">
        <ele>266.02</ele>
      </trkpt>
      <trkpt lat="46.21502" lon="-74.58614">
        <ele>266.29</ele>
      </trkpt>
      <trkpt lat="46.21505" lon="-74.58614">
        <ele>266.17</ele>
      </trkpt>
      <trkpt lat="46.2152" lon="-74.5862">
        <ele>265.48</ele>
      </trkpt>
      <trkpt lat="46.21545" lon="-74.58643">
        <ele>272.28</ele>
      </trkpt>
      <trkpt lat="46.21547" lon="-74.58655">
        <ele>273.65</ele>
      </trkpt>
      <trkpt lat="46.21566" lon="-74.58665">
        <ele>275.68</ele>
      </trkpt>
      <trkpt lat="46.2159" lon="-74.58664">
        <ele>276.34</ele>
      </trkpt>
      <trkpt lat="46.21601" lon="-74.58649">
        <ele>280.09</ele>
      </trkpt>
      <trkpt lat="46.21603" lon="-74.58633">
        <ele>281.74</ele>
      </trkpt>
      <trkpt lat="46.21603" lon="-74.58633">
        <ele>281.74</ele>
      </trkpt>
      <trkpt lat="46.21604" lon="-74.58629">
        <ele>281.8</ele>
      </trkpt>
      <trkpt lat="46.21614" lon="-74.58618">
        <ele>282.35</ele>
      </trkpt>
      <trkpt lat="46.21627" lon="-74.58611">
        <ele>282.0</ele>
      </trkpt>
      <trkpt lat="46.21634" lon="-74.58582">
        <ele>283.2</ele>
      </trkpt>
      <trkpt lat="46.21634" lon="-74.58563">
        <ele>286.02</ele>
      </trkpt>
      <trkpt lat="46.21633" lon="-74.5855">
        <ele>287.7</ele>
      </trkpt>
      <trkpt lat="46.21672" lon="-74.58555">
        <ele>286.46</ele>
      </trkpt>
      <trkpt lat="46.21685" lon="-74.58566">
        <ele>287.3</ele>
      </trkpt>
      <trkpt lat="46.21707" lon="-74.58582">
        <ele>290.7</ele>
      </trkpt>
      <trkpt lat="46.21733" lon="-74.58595">
        <ele>292.77</ele>
      </trkpt>
      <trkpt lat="46.21767" lon="-74.58597">
        <ele>293.63</ele>
      </trkpt>
      <trkpt lat="46.21767" lon="-74.58597">
        <ele>293.63</ele>
      </trkpt>
      <trkpt lat="46.21772" lon="-74.58597">
        <ele>293.81</ele>
      </trkpt>
      <trkpt lat="46.21788" lon="-74.5862">
        <ele>293.37</ele>
      </trkpt>
      <trkpt lat="46.21811" lon="-74.58627">
        <ele>294.28</ele>
      </trkpt>
      <trkpt lat="46.21822" lon="-74.58633">
        <ele>294.72</ele>
      </trkpt>
      <trkpt lat="46.2186" lon="-74.58634">
        <ele>297.72</ele>
      </trkpt>
      <trkpt lat="46.21921" lon="-74.58651">
        <ele>306.82</ele>
      </trkpt>
      <trkpt lat="46.21943" lon="-74.58676">
        <ele>310.8</ele>
      </trkpt>
      <trkpt lat="46.2195" lon="-74.58692">
        <ele>309.04</ele>
      </trkpt>
      <trkpt lat="46.21958" lon="-74.58704">
        <ele>308.75</ele>
      </trkpt>
      <trkpt lat="46.21964" lon="-74.58708">
        <ele>308.49</ele>
      </trkpt>
      <trkpt lat="46.21976" lon="-74.5871">
        <ele>307.92</ele>
      </trkpt>
      <trkpt lat="46.21986" lon="-74.58714">
        <ele>308.81</ele>
      </trkpt>
      <trkpt lat="46.22003" lon="-74.58732">
        <ele>311.0</ele>
      </trkpt>
      <trkpt lat="46.22012" lon="-74.58736">
        <ele>312.28</ele>
      </trkpt>
      <trkpt lat="46.2202" lon="-74.58737">
        <ele>313.27</ele>
      </trkpt>
      <trkpt lat="46.22033" lon="-74.58731">
        <ele>313.08</ele>
      </trkpt>
      <trkpt lat="46.22044" lon="-74.58727">
        <ele>312.1</ele>
      </trkpt>
      <trkpt lat="46.22057" lon="-74.58729">
        <ele>312.13</ele>
      </trkpt>
      <trkpt lat="46.22058" lon="-74.5873">
        <ele>312.38</ele>
      </trkpt>
      <trkpt lat="46.22058" lon="-74.5873">
        <ele>312.38</ele>
      </trkpt>
      <trkpt lat="46.22065" lon="-74.58733">
        <ele>313.57</ele>
      </trkpt>
      <trkpt lat="46.22095" lon="-74.58762">
        <ele>320.14</ele>
      </trkpt>
      <trkpt lat="46.22101" lon="-74.58767">
        <ele>321.11</ele>
      </trkpt>
      <trkpt lat="46.22113" lon="-74.58768">
        <ele>322.1</ele>
      </trkpt>
      <trkpt lat="46.2216" lon="-74.58759">
        <ele>325.95</ele>
      </trkpt>
      <trkpt lat="46.22161" lon="-74.58791">
        <ele>326.75</ele>
      </trkpt>
      <trkpt lat="46.22176" lon="-74.58797">
        <ele>330.25</ele>
      </trkpt>
      <trkpt lat="46.22184" lon="-74.58794">
        <ele>332.83</ele>
      </trkpt>
      <trkpt lat="46.22188" lon="-74.58795">
        <ele>334.08</ele>
      </trkpt>
      <trkpt lat="46.22192" lon="-74.58801">
        <ele>334.8</ele>
      </trkpt>
      <trkpt lat="46.22196" lon="-74.58803">
        <ele>335.62</ele>
      </trkpt>
      <trkpt lat="46.22219" lon="-74.5879">
        <ele>342.48</ele>
      </trkpt>
      <trkpt lat="46.22223" lon="-74.58788">
        <ele>343.52</ele>
      </trkpt>
      <trkpt lat="46.22228" lon="-74.58788">
        <ele>343.49</ele>
      </trkpt>
      <trkpt lat="46.22237" lon="-74.58794">
        <ele>343.15</ele>
      </trkpt>
      <trkpt lat="46.2225" lon="-74.58801">
        <ele>343.84</ele>
      </trkpt>
      <trkpt lat="46.22256" lon="-74.58801">
        <ele>345.24</ele>
      </trkpt>
      <trkpt lat="46.2226" lon="-74.58797">
        <ele>346.18</ele>
      </trkpt>
      <trkpt lat="46.22268" lon="-74.58787">
        <ele>348.52</ele>
      </trkpt>
      <trkpt lat="46.22274" lon="-74.58784">
        <ele>350.42</ele>
      </trkpt>
      <trkpt lat="46.22292" lon="-74.58782">
        <ele>350.91</ele>
      </trkpt>
      <trkpt lat="46.22304" lon="-74.58783">
        <ele>350.27</ele>
      </trkpt>
      <trkpt lat="46.22304" lon="-74.58783">
        <ele>350.27</ele>
      </trkpt>
      <trkpt lat="46.22319" lon="-74.58784">
        <ele>355.27</ele>
      </trkpt>
      <trkpt lat="46.22337" lon="-74.5879">
        <ele>359.74</ele>
      </trkpt>
      <trkpt lat="46.2235" lon="-74.58799">
        <ele>359.53</ele>
      </trkpt>
      <trkpt lat="46.22374" lon="-74.58827">
        <ele>362.38</ele>
      </trkpt>
      <trkpt lat="46.2237" lon="-74.58849">
        <ele>364.04</ele>
      </trkpt>
      <trkpt lat="46.22375" lon="-74.58859">
        <ele>365.73</ele>
      </trkpt>
      <trkpt lat="46.22389" lon="-74.58862">
        <ele>367.12</ele>
      </trkpt>
      <trkpt lat="46.22401" lon="-74.58853">
        <ele>368.79</ele>
      </trkpt>
      <trkpt lat="46.22412" lon="-74.58855">
        <ele>371.61</ele>
      </trkpt>
      <trkpt lat="46.22427" lon="-74.58862">
        <ele>375.2</ele>
      </trkpt>
      <trkpt lat="46.22451" lon="-74.58871">
        <ele>378.58</ele>
      </trkpt>
      <trkpt lat="46.22467" lon="-74.5888">
        <ele>379.98</ele>
      </trkpt>
      <trkpt lat="46.22481" lon="-74.58883">
        <ele>381.51</ele>
      </trkpt>
      <trkpt lat="46.22496" lon="-74.58879">
        <ele>383.41</ele>
      </trkpt>
      <trkpt lat="46.22503" lon="-74.58874">
        <ele>384.37</ele>
      </trkpt>
      <trkpt lat="46.22508" lon="-74.58866">
        <ele>384.73</ele>
      </trkpt>
      <trkpt lat="46.22511" lon="-74.58855">
        <ele>384.97</ele>
      </trkpt>
      <trkpt lat="46.22513" lon="-74.58822">
        <ele>385.1</ele>
      </trkpt>
      <trkpt lat="46.22517" lon="-74.58797">
        <ele>385.13</ele>
      </trkpt>
      <trkpt lat="46.2252" lon="-74.58803">
        <ele>384.93</ele>
      </trkpt>
      <trkpt lat="46.22538" lon="-74.5882">
        <ele>386.25</ele>
      </trkpt>
      <trkpt lat="46.2256" lon="-74.58846">
        <ele>388.07</ele>
      </trkpt>
      <trkpt lat="46.22567" lon="-74.58849">
        <ele>389.85</ele>
      </trkpt>
      <trkpt lat="46.22569" lon="-74.58853">
        <ele>390.2</ele>
      </trkpt>
      <trkpt lat="46.22583" lon="-74.58868">
        <ele>392.95</ele>
      </trkpt>
      <trkpt lat="46.22596" lon="-74.58892">
        <ele>398.44</ele>
      </trkpt>
      <trkpt lat="46.22601" lon="-74.589">
        <ele>400.8</ele>
      </trkpt>
      <trkpt lat="46.22601" lon="-74.589">
        <ele>400.8</ele>
      </trkpt>
      <trkpt lat="46.22605" lon="-74.58907">
        <ele>402.89</ele>
      </trkpt>
      <trkpt lat="46.22607" lon="-74.58916">
        <ele>405.12</ele>
      </trkpt>
      <trkpt lat="46.22612" lon="-74.58932">
        <ele>406.5</ele>
      </trkpt>
      <trkpt lat="46.22625" lon="-74.58949">
        <ele>406.16</ele>
      </trkpt>
      <trkpt lat="46.22628" lon="-74.58951">
        <ele>405.97</ele>
      </trkpt>
      <trkpt lat="46.22638" lon="-74.58967">
        <ele>405.12</ele>
      </trkpt>
      <trkpt lat="46.22659" lon="-74.59007">
        <ele>406.95</ele>
      </trkpt>
      <trkpt lat="46.22676" lon="-74.59026">
        <ele>408.38</ele>
      </trkpt>
      <trkpt lat="46.22683" lon="-74.59031">
        <ele>407.76</ele>
      </trkpt>
      <trkpt lat="46.22697" lon="-74.59046">
        <ele>407.3</ele>
      </trkpt>
      <trkpt lat="46.22704" lon="-74.59055">
        <ele>409.71</ele>
      </trkpt>
      <trkpt lat="46.22711" lon="-74.59068">
        <ele>413.65</ele>
      </trkpt>
      <trkpt lat="46.22728" lon="-74.59087">
        <ele>419.62</ele>
      </trkpt>
      <trkpt lat="46.22731" lon="-74.59088">
        <ele>420.27</ele>
      </trkpt>
      <trkpt lat="46.22736" lon="-74.59095">
        <ele>422.5</ele>
      </trkpt>
      <trkpt lat="46.22739" lon="-74.59097">
        <ele>423.37</ele>
      </trkpt>
      <trkpt lat="46.22745" lon="-74.59103">
        <ele>425.53</ele>
      </trkpt>
      <trkpt lat="46.22755" lon="-74.59106">
        <ele>426.96</ele>
      </trkpt>
      <trkpt lat="46.22761" lon="-74.59113">
        <ele>428.45</ele>
      </trkpt>
      <trkpt lat="46.22772" lon="-74.59114">
        <ele>428.85</ele>
      </trkpt>
      <trkpt lat="46.22778" lon="-74.5912">
        <ele>430.85</ele>
      </trkpt>
      <trkpt lat="46.22803" lon="-74.5912">
        <ele>427.65</ele>
      </trkpt>
      <trkpt lat="46.22813" lon="-74.59114">
        <ele>427.13</ele>
      </trkpt>
      <trkpt lat="46.22831" lon="-74.59113">
        <ele>427.13</ele>
      </trkpt>
      <trkpt lat="46.2284" lon="-74.59106">
        <ele>427.64</ele>
      </trkpt>
      <trkpt lat="46.22847" lon="-74.59103">
        <ele>428.25</ele>
      </trkpt>
      <trkpt lat="46.22861" lon="-74.59088">
        <ele>427.67</ele>
      </trkpt>
      <trkpt lat="46.22888" lon="-74.59026">
        <ele>430.77</ele>
      </trkpt>
      <trkpt lat="46.22908" lon="-74.5899">
        <ele>434.85</ele>
      </trkpt>
      <trkpt lat="46.22914" lon="-74.58939">
        <ele>439.27</ele>
      </trkpt>
      <trkpt lat="46.22917" lon="-74.58932">
        <ele>439.96</ele>
      </trkpt>
      <trkpt lat="46.22917" lon="-74.58932">
        <ele>439.96</ele>
      </trkpt>
      <trkpt lat="46.22919" lon="-74.58925">
        <ele>439.69</ele>
      </trkpt>
      <trkpt lat="46.22926" lon="-74.58913">
        <ele>438.26</ele>
      </trkpt>
      <trkpt lat="46.22932" lon="-74.58907">
        <ele>436.52</ele>
      </trkpt>
      <trkpt lat="46.22943" lon="-74.58907">
        <ele>434.52</ele>
      </trkpt>
      <trkpt lat="46.22957" lon="-74.58908">
        <ele>433.65</ele>
      </trkpt>
      <trkpt lat="46.22963" lon="-74.58913">
        <ele>433.69</ele>
      </trkpt>
      <trkpt lat="46.22966" lon="-74.58915">
        <ele>433.56</ele>
      </trkpt>
      <trkpt lat="46.22969" lon="-74.58913">
        <ele>433.15</ele>
      </trkpt>
      <trkpt lat="46.22972" lon="-74.5891">
        <ele>432.78</ele>
      </trkpt>
      <trkpt lat="46.22982" lon="-74.58906">
        <ele>431.61</ele>
      </trkpt>
      <trkpt lat="46.22995" lon="-74.58896">
        <ele>430.81</ele>
      </trkpt>
      <trkpt lat="46.23005" lon="-74.58883">
        <ele>433.68</ele>
      </trkpt>
      <trkpt lat="46.23008" lon="-74.58874">
        <ele>435.02</ele>
      </trkpt>
      <trkpt lat="46.23014" lon="-74.58843">
        <ele>434.57</ele>
      </trkpt>
      <trkpt lat="46.23019" lon="-74.58831">
        <ele>434.59</ele>
      </trkpt>
      <trkpt lat="46.23026" lon="-74.58798">
        <ele>439.75</ele>
      </trkpt>
      <trkpt lat="46.23029" lon="-74.58746">
        <ele>452.08</ele>
      </trkpt>
      <trkpt lat="46.23031" lon="-74.58736">
        <ele>454.55</ele>
      </trkpt>
      <trkpt lat="46.23049" lon="-74.5871">
        <ele>460.37</ele>
      </trkpt>
      <trkpt lat="46.23073" lon="-74.58665">
        <ele>467.02</ele>
      </trkpt>
      <trkpt lat="46.23077" lon="-74.58634">
        <ele>470.86</ele>
      </trkpt>
      <trkpt lat="46.23085" lon="-74.58617">
        <ele>474.77</ele>
      </trkpt>
      <trkpt lat="46.23099" lon="-74.58612">
        <ele>474.17</ele>
      </trkpt>
      <trkpt lat="46.23105" lon="-74.58607">
        <ele>474.4</ele>
      </trkpt>
      <trkpt lat="46.23112" lon="-74.58606">
        <ele>473.85</ele>
      </trkpt>
      <trkpt lat="46.23125" lon="-74.58597">
        <ele>474.29</ele>
      </trkpt>
      <trkpt lat="46.23135" lon="-74.58582">
        <ele>475.89</ele>
      </trkpt>
      <trkpt lat="46.23149" lon="-74.58566">
        <ele>479.06</ele>
      </trkpt>
      <trkpt lat="46.23163" lon="-74.58562">
        <ele>477.47</ele>
      </trkpt>
      <trkpt lat="46.23169" lon="-74.58556">
        <ele>478.59</ele>
      </trkpt>
      <trkpt lat="46.23179" lon="-74.58553">
        <ele>478.69</ele>
      </trkpt>
      <trkpt lat="46.23185" lon="-74.58547">
        <ele>480.31</ele>
      </trkpt>
      <trkpt lat="46.23196" lon="-74.58546">
        <ele>479.42</ele>
      </trkpt>
      <trkpt lat="46.23202" lon="-74.5854">
        <ele>481.26</ele>
      </trkpt>
      <trkpt lat="46.23212" lon="-74.58537">
        <ele>481.62</ele>
      </trkpt>
      <trkpt lat="46.23218" lon="-74.58531">
        <ele>482.69</ele>
      </trkpt>
      <trkpt lat="46.23231" lon="-74.58527">
        <ele>483.5</ele>
      </trkpt>
      <trkpt lat="46.2324" lon="-74.58518">
        <ele>485.33</ele>
      </trkpt>
      <trkpt lat="46.2325" lon="-74.5849">
        <ele>488.8</ele>
      </trkpt>
      <trkpt lat="46.23256" lon="-74.58485">
        <ele>489.95</ele>
      </trkpt>
      <trkpt lat="46.23261" lon="-74.58474">
        <ele>492.77</ele>
      </trkpt>
      <trkpt lat="46.23261" lon="-74.58474">
        <ele>492.77</ele>
      </trkpt>
      <trkpt lat="46.23267" lon="-74.58464">
        <ele>494.49</ele>
      </trkpt>
      <trkpt lat="46.23277" lon="-74.58459">
        <ele>496.32</ele>
      </trkpt>
      <trkpt lat="46.23286" lon="-74.58443">
        <ele>497.88</ele>
      </trkpt>
      <trkpt lat="46.23307" lon="-74.58424">
        <ele>499.31</ele>
      </trkpt>
      <trkpt lat="46.23319" lon="-74.58405">
        <ele>499.34</ele>
      </trkpt>
      <trkpt lat="46.23332" lon="-74.58379">
        <ele>498.98</ele>
      </trkpt>
      <trkpt lat="46.23345" lon="-74.58362">
        <ele>499.95</ele>
      </trkpt>
      <trkpt lat="46.23356" lon="-74.5833">
        <ele>499.37</ele>
      </trkpt>
      <trkpt lat="46.23361" lon="-74.58268">
        <ele>503.77</ele>
      </trkpt>
      <trkpt lat="46.23359" lon="-74.58248">
        <ele>507.43</ele>
      </trkpt>
      <trkpt lat="46.23361" lon="-74.58238">
        <ele>508.3</ele>
      </trkpt>
      <trkpt lat="46.23366" lon="-74.58231">
        <ele>509.75</ele>
      </trkpt>
      <trkpt lat="46.23372" lon="-74.58227">
        <ele>510.86</ele>
      </trkpt>
      <trkpt lat="46.23387" lon="-74.58212">
        <ele>513.87</ele>
      </trkpt>
      <trkpt lat="46.23409" lon="-74.58211">
        <ele>517.39</ele>
      </trkpt>
      <trkpt lat="46.2343" lon="-74.58212">
        <ele>520.3</ele>
      </trkpt>
      <trkpt lat="46.23444" lon="-74.58218">
        <ele>521.41</ele>
      </trkpt>
      <trkpt lat="46.23476" lon="-74.58221">
        <ele>527.61</ele>
      </trkpt>
      <trkpt lat="46.23502" lon="-74.58236">
        <ele>525.04</ele>
      </trkpt>
      <trkpt lat="46.23513" lon="-74.58237">
        <ele>525.13</ele>
      </trkpt>
      <trkpt lat="46.23513" lon="-74.58237">
        <ele>525.13</ele>
      </trkpt>
      <trkpt lat="46.2352" lon="-74.58237">
        <ele>525.23</ele>
      </trkpt>
      <trkpt lat="46.23526" lon="-74.58244">
        <ele>524.1</ele>
      </trkpt>
      <trkpt lat="46.2354" lon="-74.58246">
        <ele>523.78</ele>
      </trkpt>
      <trkpt lat="46.23577" lon="-74.58279">
        <ele>519.68</ele>
      </trkpt>
      <trkpt lat="46.23584" lon="-74.58281">
        <ele>519.8</ele>
      </trkpt>
      <trkpt lat="46.2359" lon="-74.58294">
        <ele>519.97</ele>
      </trkpt>
      <trkpt lat="46.23597" lon="-74.58297">
        <ele>521.56</ele>
      </trkpt>
      <trkpt lat="46.236" lon="-74.58296">
        <ele>522.42</ele>
      </trkpt>
      <trkpt lat="46.23609" lon="-74.58287">
        <ele>525.16</ele>
      </trkpt>
      <trkpt lat="46.23615" lon="-74.58274">
        <ele>526.83</ele>
      </trkpt>
      <trkpt lat="46.23627" lon="-74.58256">
        <ele>529.86</ele>
      </trkpt>
      <trkpt lat="46.23643" lon="-74.58237">
        <ele>534.11</ele>
      </trkpt>
      <trkpt lat="46.2365" lon="-74.58235">
        <ele>536.31</ele>
      </trkpt>
      <trkpt lat="46.23656" lon="-74.58229">
        <ele>538.76</ele>
      </trkpt>
      <trkpt lat="46.23663" lon="-74.58228">
        <ele>541.03</ele>
      </trkpt>
      <trkpt lat="46.23672" lon="-74.5822">
        <ele>542.18</ele>
      </trkpt>
      <trkpt lat="46.2368" lon="-74.58219">
        <ele>540.94</ele>
      </trkpt>
      <trkpt lat="46.23685" lon="-74.58213">
        <ele>540.91</ele>
      </trkpt>
      <trkpt lat="46.23692" lon="-74.5821">
        <ele>540.49</ele>
      </trkpt>
      <trkpt lat="46.23702" lon="-74.58203">
        <ele>540.56</ele>
      </trkpt>
      <trkpt lat="46.23713" lon="-74.58202">
        <ele>539.45</ele>
      </trkpt>
      <trkpt lat="46.23722" lon="-74.58195">
        <ele>539.9</ele>
      </trkpt>
      <trkpt lat="46.23729" lon="-74.58193">
        <ele>540.79</ele>
      </trkpt>
      <trkpt lat="46.23735" lon="-74.58187">
        <ele>542.4</ele>
      </trkpt>
      <trkpt lat="46.23753" lon="-74.58186">
        <ele>544.06</ele>
      </trkpt>
      <trkpt lat="46.23766" lon="-74.58194">
        <ele>544.96</ele>
      </trkpt>
      <trkpt lat="46.23773" lon="-74.58195">
        <ele>546.03</ele>
      </trkpt>
      <trkpt lat="46.23783" lon="-74.58202">
        <ele>545.66</ele>
      </trkpt>
      <trkpt lat="46.23813" lon="-74.58201">
        <ele>549.2</ele>
      </trkpt>
      <trkpt lat="46.23813" lon="-74.58201">
        <ele>549.2</ele>
      </trkpt>
      <trkpt lat="46.23837" lon="-74.58201">
        <ele>555.28</ele>
      </trkpt>
      <trkpt lat="46.23846" lon="-74.58192">
        <ele>556.76</ele>
      </trkpt>
      <trkpt lat="46.2385" lon="-74.58184">
        <ele>557.95</ele>
      </trkpt>
      <trkpt lat="46.23859" lon="-74.58145">
        <ele>564.51</ele>
      </trkpt>
      <trkpt lat="46.23881" lon="-74.58092">
        <ele>574.95</ele>
      </trkpt>
      <trkpt lat="46.23888" lon="-74.58031">
        <ele>588.88</ele>
      </trkpt>
      <trkpt lat="46.23897" lon="-74.58003">
        <ele>595.74</ele>
      </trkpt>
      <trkpt lat="46.23901" lon="-74.57983">
        <ele>598.01</ele>
      </trkpt>
      <trkpt lat="46.23912" lon="-74.57956">
        <ele>600.56</ele>
      </trkpt>
      <trkpt lat="46.23923" lon="-74.57944">
        <ele>602.32</ele>
      </trkpt>
      <trkpt lat="46.23945" lon="-74.5791">
        <ele>611.42</ele>
      </trkpt>
      <trkpt lat="46.23957" lon="-74.57883">
        <ele>616.52</ele>
      </trkpt>
      <trkpt lat="46.23964" lon="-74.57838">
        <ele>623.85</ele>
      </trkpt>
      <trkpt lat="46.23968" lon="-74.57787">
        <ele>628.87</ele>
      </trkpt>
      <trkpt lat="46.23969" lon="-74.5774">
        <ele>635.41</ele>
      </trkpt>
      <trkpt lat="46.23973" lon="-74.5772">
        <ele>640.48</ele>
      </trkpt>
      <trkpt lat="46.23975" lon="-74.57694">
        <ele>646.95</ele>
      </trkpt>
      <trkpt lat="46.2398" lon="-74.57675">
        <ele>649.41</ele>
      </trkpt>
      <trkpt lat="46.2398" lon="-74.57675">
        <ele>649.41</ele>
      </trkpt>
      <trkpt lat="46.23986" lon="-74.57645">
        <ele>653.73</ele>
      </trkpt>
      <trkpt lat="46.24006" lon="-74.576">
        <ele>657.45</ele>
      </trkpt>
      <trkpt lat="46.24016" lon="-74.57594">
        <ele>657.43</ele>
      </trkpt>
      <trkpt lat="46.24033" lon="-74.57576">
        <ele>658.46</ele>
      </trkpt>
      <trkpt lat="46.24039" lon="-74.57573">
        <ele>658.97</ele>
      </trkpt>
      <trkpt lat="46.24059" lon="-74.57551">
        <ele>664.32</ele>
      </trkpt>
      <trkpt lat="46.24073" lon="-74.57551">
        <ele>666.33</ele>
      </trkpt>
      <trkpt lat="46.24083" lon="-74.57558">
        <ele>666.51</ele>
      </trkpt>
      <trkpt lat="46.24093" lon="-74.5756">
        <ele>668.4</ele>
      </trkpt>
      <trkpt lat="46.24103" lon="-74.57566">
        <ele>669.9</ele>
      </trkpt>
      <trkpt lat="46.24128" lon="-74.57566">
        <ele>674.0</ele>
      </trkpt>
      <trkpt lat="46.24147" lon="-74.57552">
        <ele>677.01</ele>
      </trkpt>
      <trkpt lat="46.24156" lon="-74.57542">
        <ele>679.67</ele>
      </trkpt>
      <trkpt lat="46.24163" lon="-74.57539">
        <ele>681.4</ele>
      </trkpt>
      <trkpt lat="46.24174" lon="-74.57526">
        <ele>684.26</ele>
      </trkpt>
      <trkpt lat="46.24184" lon="-74.57523">
        <ele>685.6</ele>
      </trkpt>
      <trkpt lat="46.24206" lon="-74.57506">
        <ele>688.82</ele>
      </trkpt>
      <trkpt lat="46.24212" lon="-74.57499">
        <ele>690.77</ele>
      </trkpt>
      <trkpt lat="46.24218" lon="-74.57496">
        <ele>693.1</ele>
      </trkpt>
      <trkpt lat="46.24251" lon="-74.57448">
        <ele>709.81</ele>
      </trkpt>
      <trkpt lat="46.24257" lon="-74.57443">
        <ele>710.71</ele>
      </trkpt>
      <trkpt lat="46.2426" lon="-74.57439">
        <ele>711.59</ele>
      </trkpt>
      <trkpt lat="46.24266" lon="-74.57436">
        <ele>712.76</ele>
      </trkpt>
      <trkpt lat="46.24297" lon="-74.574">
        <ele>715.86</ele>
      </trkpt>
      <trkpt lat="46.24297" lon="-74.574">
        <ele>715.86</ele>
      </trkpt>
      <trkpt lat="46.24299" lon="-74.57397">
        <ele>715.97</ele>
      </trkpt>
      <trkpt lat="46.2431" lon="-74.57394">
        <ele>716.96</ele>
      </trkpt>
      <trkpt lat="46.24345" lon="-74.57394">
        <ele>724.63</ele>
      </trkpt>
      <trkpt lat="46.24368" lon="-74.57368">
        <ele>733.79</ele>
      </trkpt>
      <trkpt lat="46.2438" lon="-74.57343">
        <ele>741.51</ele>
      </trkpt>
      <trkpt lat="46.24404" lon="-74.5731">
        <ele>744.29</ele>
      </trkpt>
      <trkpt lat="46.24411" lon="-74.57307">
        <ele>745.14</ele>
      </trkpt>
      <trkpt lat="46.24433" lon="-74.57282">
        <ele>741.47</ele>
      </trkpt>
      <trkpt lat="46.24443" lon="-74.57266">
        <ele>741.89</ele>
      </trkpt>
      <trkpt lat="46.24484" lon="-74.57233">
        <ele>743.16</ele>
      </trkpt>
      <trkpt lat="46.24491" lon="-74.57231">
        <ele>744.47</ele>
      </trkpt>
      <trkpt lat="46.24501" lon="-74.57217">
        <ele>746.18</ele>
      </trkpt>
      <trkpt lat="46.24508" lon="-74.57212">
        <ele>747.09</ele>
      </trkpt>
      <trkpt lat="46.24511" lon="-74.57202">
        <ele>746.65</ele>
      </trkpt>
      <trkpt lat="46.24514" lon="-74.57196">
        <ele>746.17</ele>
      </trkpt>
      <trkpt lat="46.24514" lon="-74.57196">
        <ele>746.17</ele>
      </trkpt>
      <trkpt lat="46.24529" lon="-74.57165">
        <ele>743.96</ele>
      </trkpt>
      <trkpt lat="46.24543" lon="-74.57147">
        <ele>744.23</ele>
      </trkpt>
      <trkpt lat="46.24549" lon="-74.57145">
        <ele>744.43</ele>
      </trkpt>
      <trkpt lat="46.24564" lon="-74.57121">
        <ele>746.52</ele>
      </trkpt>
      <trkpt lat="46.2457" lon="-74.57118">
        <ele>747.6</ele>
      </trkpt>
      <trkpt lat="46.24585" lon="-74.57103">
        <ele>750.25</ele>
      </trkpt>
      <trkpt lat="46.24593" lon="-74.57092">
        <ele>750.58</ele>
      </trkpt>
      <trkpt lat="46.24602" lon="-74.57085">
        <ele>750.9</ele>
      </trkpt>
      <trkpt lat="46.24612" lon="-74.57078">
        <ele>750.73</ele>
      </trkpt>
      <trkpt lat="46.24622" lon="-74.57076">
        <ele>749.75</ele>
      </trkpt>
      <trkpt lat="46.24651" lon="-74.57054">
        <ele>746.07</ele>
      </trkpt>
      <trkpt lat="46.24668" lon="-74.57035">
        <ele>754.67</ele>
      </trkpt>
      <trkpt lat="46.24675" lon="-74.57033">
        <ele>755.86</ele>
      </trkpt>
      <trkpt lat="46.24704" lon="-74.57011">
        <ele>769.32</ele>
      </trkpt>
      <trkpt lat="46.24718" lon="-74.57008">
        <ele>773.6</ele>
      </trkpt>
      <trkpt lat="46.24728" lon="-74.57001">
        <ele>775.46</ele>
      </trkpt>
      <trkpt lat="46.2476" lon="-74.56999">
        <ele>773.36</ele>
      </trkpt>
      <trkpt lat="46.2477" lon="-74.56992">
        <ele>773.34</ele>
      </trkpt>
      <trkpt lat="46.2478" lon="-74.5699">
        <ele>772.76</ele>
      </trkpt>
      <trkpt lat="46.24786" lon="-74.56977">
        <ele>773.3</ele>
      </trkpt>
      <trkpt lat="46.24797" lon="-74.56957">
        <ele>775.56</ele>
      </trkpt>
      <trkpt lat="46.2481" lon="-74.56949">
        <ele>776.85</ele>
      </trkpt>
      <trkpt lat="46.24817" lon="-74.5695">
        <ele>776.6</ele>
      </trkpt>
      <trkpt lat="46.24832" lon="-74.56965">
        <ele>772.82</ele>
      </trkpt>
      <trkpt lat="46.24839" lon="-74.56966">
        <ele>773.65</ele>
      </trkpt>
      <trkpt lat="46.2486" lon="-74.56965">
        <ele>777.83</ele>
      </trkpt>
      <trkpt lat="46.24881" lon="-74.56947">
        <ele>786.88</ele>
      </trkpt>
      <trkpt lat="46.24886" lon="-74.56934">
        <ele>790.43</ele>
      </trkpt>
      <trkpt lat="46.24881" lon="-74.56904">
        <ele>795.53</ele>
      </trkpt>
      <trkpt lat="46.24883" lon="-74.56873">
        <ele>803.64</ele>
      </trkpt>
      <trkpt lat="46.24896" lon="-74.56856">
        <ele>806.18</ele>
      </trkpt>
      <trkpt lat="46.24924" lon="-74.56834">
        <ele>806.42</ele>
      </trkpt>
      <trkpt lat="46.24939" lon="-74.56799">
        <ele>810.7</ele>
      </trkpt>
      <trkpt lat="46.24961" lon="-74.56766">
        <ele>818.59</ele>
      </trkpt>
      <trkpt lat="46.24968" lon="-74.56747">
        <ele>822.28</ele>
      </trkpt>
      <trkpt lat="46.2497" lon="-74.56732">
        <ele>826.24</ele>
      </trkpt>
      <trkpt lat="46.24967" lon="-74.56712">
        <ele>829.42</ele>
      </trkpt>
      <trkpt lat="46.24961" lon="-74.56699">
        <ele>830.23</ele>
      </trkpt>
      <trkpt lat="46.24957" lon="-74.56697">
        <ele>830.03</ele>
      </trkpt>
      <trkpt lat="46.24953" lon="-74.56689">
        <ele>831.11</ele>
      </trkpt>
      <trkpt lat="46.24942" lon="-74.56676">
        <ele>833.5</ele>
      </trkpt>
      <trkpt lat="46.24929" lon="-74.5667">
        <ele>834.47</ele>
      </trkpt>
      <trkpt lat="46.24922" lon="-74.56652">
        <ele>837.41</ele>
      </trkpt>
      <trkpt lat="46.24922" lon="-74.56631">
        <ele>840.75</ele>
      </trkpt>
      <trkpt lat="46.24919" lon="-74.56616">
        <ele>843.22</ele>
      </trkpt>
      <trkpt lat="46.24903" lon="-74.56597">
        <ele>843.6</ele>
      </trkpt>
      <trkpt lat="46.24897" lon="-74.56593">
        <ele>843.44</ele>
      </trkpt>
      <trkpt lat="46.24891" lon="-74.5658">
        <ele>846.48</ele>
      </trkpt>
      <trkpt lat="46.2489" lon="-74.56575">
        <ele>848.12</ele>
      </trkpt>
      <trkpt lat="46.2489" lon="-74.56575">
        <ele>848.12</ele>
      </trkpt>
      <trkpt lat="46.24887" lon="-74.56565">
        <ele>851.26</ele>
      </trkpt>
      <trkpt lat="46.24887" lon="-74.56539">
        <ele>858.34</ele>
      </trkpt>
      <trkpt lat="46.24893" lon="-74.56515">
        <ele>863.23</ele>
      </trkpt>
      <trkpt lat="46.24907" lon="-74.56485">
        <ele>867.16</ele>
      </trkpt>
      <trkpt lat="46.24911" lon="-74.5647">
        <ele>868.86</ele>
      </trkpt>
      <trkpt lat="46.24918" lon="-74.56459">
        <ele>870.26</ele>
      </trkpt>
      <trkpt lat="46.24936" lon="-74.56442">
        <ele>871.06</ele>
      </trkpt>
      <trkpt lat="46.24943" lon="-74.56441">
        <ele>870.4</ele>
      </trkpt>
      <trkpt lat="46.24961" lon="-74.56425">
        <ele>869.37</ele>
      </trkpt>
      <trkpt lat="46.24974" lon="-74.56393">
        <ele>872.28</ele>
      </trkpt>
      <trkpt lat="46.24989" lon="-74.5638">
        <ele>875.88</ele>
      </trkpt>
      <trkpt lat="46.25005" lon="-74.56361">
        <ele>882.38</ele>
      </trkpt>
      <trkpt lat="46.25001" lon="-74.56331">
        <ele>887.26</ele>
      </trkpt>
      <trkpt lat="46.25001" lon="-74.5631">
        <ele>889.55</ele>
      </trkpt>
      <trkpt lat="46.25003" lon="-74.56284">
        <ele>891.74</ele>
      </trkpt>
      <trkpt lat="46.25006" lon="-74.56207">
        <ele>897.84</ele>
      </trkpt>
      <trkpt lat="46.25002" lon="-74.5615">
        <ele>906.58</ele>
      </trkpt>
      <trkpt lat="46.24999" lon="-74.56135">
        <ele>910.54</ele>
      </trkpt>
      <trkpt lat="46.2499" lon="-74.56129">
        <ele>913.49</ele>
      </trkpt>
      <trkpt lat="46.2498" lon="-74.56114">
        <ele>918.12</ele>
      </trkpt>
      <trkpt lat="46.24965" lon="-74.56085">
        <ele>921.3</ele>
      </trkpt>
      <trkpt lat="46.24953" lon="-74.56047">
        <ele>923.46</ele>
      </trkpt>
      <trkpt lat="46.2495" lon="-74.56039">
        <ele>924.0</ele>
      </trkpt>
      <trkpt lat="46.24943" lon="-74.56035">
        <ele>924.86</ele>
      </trkpt>
      <trkpt lat="46.24937" lon="-74.5603">
        <ele>924.4</ele>
      </trkpt>
      <trkpt lat="46.24925" lon="-74.56004">
        <ele>924.71</ele>
      </trkpt>
      <trkpt lat="46.24902" lon="-74.55971">
        <ele>930.09</ele>
      </trkpt>
      <trkpt lat="46.24892" lon="-74.55949">
        <ele>931.67</ele>
      </trkpt>
      <trkpt lat="46.24883" lon="-74.55937">
        <ele>929.84</ele>
      </trkpt>
      <trkpt lat="46.24879" lon="-74.55933">
        <ele>928.71</ele>
      </trkpt>
      <trkpt lat="46.24874" lon="-74.55941">
        <ele>927.26</ele>
      </trkpt>
      <trkpt lat="46.24866" lon="-74.55975">
        <ele>920.38</ele>
      </trkpt>
      <trkpt lat="46.24866" lon="-74.56017">
        <ele>912.35</ele>
      </trkpt>
      <trkpt lat="46.24863" lon="-74.56037">
        <ele>909.14</ele>
      </trkpt>
      <trkpt lat="46.24858" lon="-74.56045">
        <ele>908.31</ele>
      </trkpt>
      <trkpt lat="46.24852" lon="-74.56048">
        <ele>908.03</ele>
      </trkpt>
      <trkpt lat="46.2483" lon="-74.56065">
        <ele>906.32</ele>
      </trkpt>
      <trkpt lat="46.24825" lon="-74.56071">
        <ele>905.37</ele>
      </trkpt>
      <trkpt lat="46.24809" lon="-74.56084">
        <ele>902.58</ele>
      </trkpt>
      <trkpt lat="46.24798" lon="-74.56097">
        <ele>898.56</ele>
      </trkpt>
      <trkpt lat="46.24794" lon="-74.56095">
        <ele>897.28</ele>
      </trkpt>
      <trkpt lat="46.24791" lon="-74.56087">
        <ele>896.25</ele>
      </trkpt>
      <trkpt lat="46.24787" lon="-74.56078">
        <ele>894.2</ele>
      </trkpt>
      <trkpt lat="46.24781" lon="-74.56048">
        <ele>889.81</ele>
      </trkpt>
      <trkpt lat="46.24769" lon="-74.56016">
        <ele>886.73</ele>
      </trkpt>
      <trkpt lat="46.24757" lon="-74.5599">
        <ele>883.73</ele>
      </trkpt>
      <trkpt lat="46.24754" lon="-74.55987">
        <ele>883.11</ele>
      </trkpt>
      <trkpt lat="46.24747" lon="-74.55984">
        <ele>881.7</ele>
      </trkpt>
      <trkpt lat="46.24737" lon="-74.5597">
        <ele>883.12</ele>
      </trkpt>
      <trkpt lat="46.24726" lon="-74.55959">
        <ele>882.33</ele>
      </trkpt>
      <trkpt lat="46.24723" lon="-74.55954">
        <ele>882.48</ele>
      </trkpt>
      <trkpt lat="46.24723" lon="-74.55954">
        <ele>882.48</ele>
      </trkpt>
      <trkpt lat="46.24707" lon="-74.55927">
        <ele>878.32</ele>
      </trkpt>
      <trkpt lat="46.247" lon="-74.55924">
        <ele>875.79</ele>
      </trkpt>
      <trkpt lat="46.24681" lon="-74.5591">
        <ele>868.42</ele>
      </trkpt>
      <trkpt lat="46.2466" lon="-74.55908">
        <ele>861.78</ele>
      </trkpt>
      <trkpt lat="46.24654" lon="-74.55901">
        <ele>862.03</ele>
      </trkpt>
      <trkpt lat="46.24647" lon="-74.559">
        <ele>861.42</ele>
      </trkpt>
      <trkpt lat="46.24634" lon="-74.55891">
        <ele>860.92</ele>
      </trkpt>
      <trkpt lat="46.24627" lon="-74.55881">
        <ele>861.97</ele>
      </trkpt>
      <trkpt lat="46.2462" lon="-74.55881">
        <ele>862.05</ele>
      </trkpt>
      <trkpt lat="46.2461" lon="-74.55875">
        <ele>863.12</ele>
      </trkpt>
      <trkpt lat="46.24577" lon="-74.55875">
        <ele>866.23</ele>
      </trkpt>
      <trkpt lat="46.2457" lon="-74.55876">
        <ele>866.37</ele>
      </trkpt>
      <trkpt lat="46.24564" lon="-74.55881">
        <ele>866.13</ele>
      </trkpt>
      <trkpt lat="46.24554" lon="-74.55875">
        <ele>867.17</ele>
      </trkpt>
      <trkpt lat="46.24518" lon="-74.55873">
        <ele>869.25</ele>
      </trkpt>
      <trkpt lat="46.24504" lon="-74.55866">
        <ele>867.73</ele>
      </trkpt>
      <trkpt lat="46.2444" lon="-74.55865">
        <ele>872.05</ele>
      </trkpt>
      <trkpt lat="46.24413" lon="-74.55849">
        <ele>872.72</ele>
      </trkpt>
      <trkpt lat="46.24384" lon="-74.55848">
        <ele>876.01</ele>
      </trkpt>
      <trkpt lat="46.24375" lon="-74.55841">
        <ele>877.0</ele>
      </trkpt>
      <trkpt lat="46.2436" lon="-74.5584">
        <ele>878.47</ele>
      </trkpt>
      <trkpt lat="46.24351" lon="-74.55833">
        <ele>880.15</ele>
      </trkpt>
      <trkpt lat="46.2434" lon="-74.55832">
        <ele>882.37</ele>
      </trkpt>
      <trkpt lat="46.24333" lon="-74.55833">
        <ele>883.9</ele>
      </trkpt>
      <trkpt lat="46.24323" lon="-74.55839">
        <ele>883.11</ele>
      </trkpt>
      <trkpt lat="46.24309" lon="-74.55841">
        <ele>882.1</ele>
      </trkpt>
      <trkpt lat="46.24295" lon="-74.55857">
        <ele>883.12</ele>
      </trkpt>
      <trkpt lat="46.24285" lon="-74.55864">
        <ele>883.54</ele>
      </trkpt>
      <trkpt lat="46.24273" lon="-74.55864">
        <ele>883.67</ele>
      </trkpt>
      <trkpt lat="46.24268" lon="-74.55863">
        <ele>883.93</ele>
      </trkpt>
      <trkpt lat="46.24268" lon="-74.55863">
        <ele>883.93</ele>
      </trkpt>
      <trkpt lat="46.24253" lon="-74.55858">
        <ele>884.34</ele>
      </trkpt>
      <trkpt lat="46.24245" lon="-74.55866">
        <ele>886.9</ele>
      </trkpt>
      <trkpt lat="46.24237" lon="-74.55884">
        <ele>890.8</ele>
      </trkpt>
      <trkpt lat="46.24231" lon="-74.55896">
        <ele>892.76</ele>
      </trkpt>
      <trkpt lat="46.24219" lon="-74.55903">
        <ele>895.09</ele>
      </trkpt>
      <trkpt lat="46.24209" lon="-74.55909">
        <ele>896.89</ele>
      </trkpt>
      <trkpt lat="46.24161" lon="-74.559">
        <ele>895.98</ele>
      </trkpt>
      <trkpt lat="46.24144" lon="-74.55892">
        <ele>892.92</ele>
      </trkpt>
      <trkpt lat="46.24134" lon="-74.55891">
        <ele>891.21</ele>
      </trkpt>
      <trkpt lat="46.2412" lon="-74.55898">
        <ele>890.16</ele>
      </trkpt>
      <trkpt lat="46.24096" lon="-74.55908">
        <ele>891.58</ele>
      </trkpt>
      <trkpt lat="46.24081" lon="-74.55908">
        <ele>890.81</ele>
      </trkpt>
      <trkpt lat="46.24063" lon="-74.55908">
        <ele>886.48</ele>
      </trkpt>
      <trkpt lat="46.24053" lon="-74.55906">
        <ele>884.11</ele>
      </trkpt>
      <trkpt lat="46.24038" lon="-74.55893">
        <ele>881.88</ele>
      </trkpt>
      <trkpt lat="46.24025" lon="-74.55893">
        <ele>879.99</ele>
      </trkpt>
      <trkpt lat="46.24014" lon="-74.55898">
        <ele>877.37</ele>
      </trkpt>
      <trkpt lat="46.24005" lon="-74.55902">
        <ele>875.44</ele>
      </trkpt>
      <trkpt lat="46.2399" lon="-74.55909">
        <ele>871.98</ele>
      </trkpt>
      <trkpt lat="46.23978" lon="-74.55911">
        <ele>869.44</ele>
      </trkpt>
      <trkpt lat="46.23954" lon="-74.55914">
        <ele>867.24</ele>
      </trkpt>
      <trkpt lat="46.23936" lon="-74.55916">
        <ele>865.67</ele>
      </trkpt>
      <trkpt lat="46.23929" lon="-74.55916">
        <ele>864.67</ele>
      </trkpt>
      <trkpt lat="46.23919" lon="-74.5591">
        <ele>862.36</ele>
      </trkpt>
      <trkpt lat="46.23912" lon="-74.55911">
        <ele>862.45</ele>
      </trkpt>
      <trkpt lat="46.23905" lon="-74.55915">
        <ele>863.26</ele>
      </trkpt>
      <trkpt lat="46.23891" lon="-74.55917">
        <ele>863.92</ele>
      </trkpt>
      <trkpt lat="46.23884" lon="-74.55916">
        <ele>862.9</ele>
      </trkpt>
      <trkpt lat="46.23874" lon="-74.55917">
        <ele>860.8</ele>
      </trkpt>
      <trkpt lat="46.23862" lon="-74.55911">
        <ele>857.2</ele>
      </trkpt>
      <trkpt lat="46.23849" lon="-74.55885">
        <ele>850.13</ele>
      </trkpt>
      <trkpt lat="46.23831" lon="-74.55866">
        <ele>847.55</ele>
      </trkpt>
      <trkpt lat="46.23824" lon="-74.55865">
        <ele>846.7</ele>
      </trkpt>
      <trkpt lat="46.23811" lon="-74.55857">
        <ele>844.07</ele>
      </trkpt>
      <trkpt lat="46.23789" lon="-74.55857">
        <ele>844.8</ele>
      </trkpt>
      <trkpt lat="46.23782" lon="-74.55859">
        <ele>845.57</ele>
      </trkpt>
      <trkpt lat="46.23774" lon="-74.5586">
        <ele>846.49</ele>
      </trkpt>
      <trkpt lat="46.23771" lon="-74.55869">
        <ele>847.54</ele>
      </trkpt>
      <trkpt lat="46.23776" lon="-74.55886">
        <ele>848.05</ele>
      </trkpt>
      <trkpt lat="46.23787" lon="-74.55907">
        <ele>848.76</ele>
      </trkpt>
      <trkpt lat="46.23783" lon="-74.55919">
        <ele>849.52</ele>
      </trkpt>
      <trkpt lat="46.23766" lon="-74.55934">
        <ele>850.08</ele>
      </trkpt>
      <trkpt lat="46.23758" lon="-74.55951">
        <ele>848.38</ele>
      </trkpt>
      <trkpt lat="46.23753" lon="-74.55958">
        <ele>847.45</ele>
      </trkpt>
      <trkpt lat="46.23746" lon="-74.55961">
        <ele>847.86</ele>
      </trkpt>
      <trkpt lat="46.2374" lon="-74.55967">
        <ele>847.88</ele>
      </trkpt>
      <trkpt lat="46.23733" lon="-74.55968">
        <ele>849.01</ele>
      </trkpt>
      <trkpt lat="46.23726" lon="-74.55968">
        <ele>850.34</ele>
      </trkpt>
      <trkpt lat="46.23716" lon="-74.55961">
        <ele>854.3</ele>
      </trkpt>
      <trkpt lat="46.23687" lon="-74.55961">
        <ele>860.21</ele>
      </trkpt>
      <trkpt lat="46.23687" lon="-74.55961">
        <ele>860.21</ele>
      </trkpt>
      <trkpt lat="46.23634" lon="-74.5596">
        <ele>853.83</ele>
      </trkpt>
      <trkpt lat="46.23619" lon="-74.55957">
        <ele>852.01</ele>
      </trkpt>
      <trkpt lat="46.23607" lon="-74.55948">
        <ele>850.24</ele>
      </trkpt>
      <trkpt lat="46.23592" lon="-74.5592">
        <ele>848.71</ele>
      </trkpt>
      <trkpt lat="46.2358" lon="-74.55893">
        <ele>848.38</ele>
      </trkpt>
      <trkpt lat="46.23564" lon="-74.55872">
        <ele>846.78</ele>
      </trkpt>
      <trkpt lat="46.23558" lon="-74.55866">
        <ele>846.8</ele>
      </trkpt>
      <trkpt lat="46.23525" lon="-74.55849">
        <ele>844.96</ele>
      </trkpt>
      <trkpt lat="46.23463" lon="-74.55848">
        <ele>839.7</ele>
      </trkpt>
      <trkpt lat="46.23444" lon="-74.55838">
        <ele>839.29</ele>
      </trkpt>
      <trkpt lat="46.23438" lon="-74.55833">
        <ele>838.28</ele>
      </trkpt>
      <trkpt lat="46.2343" lon="-74.55831">
        <ele>837.23</ele>
      </trkpt>
      <trkpt lat="46.2342" lon="-74.55832">
        <ele>836.22</ele>
      </trkpt>
      <trkpt lat="46.2341" lon="-74.55838">
        <ele>835.74</ele>
      </trkpt>
      <trkpt lat="46.23403" lon="-74.5584">
        <ele>835.13</ele>
      </trkpt>
      <trkpt lat="46.23349" lon="-74.55841">
        <ele>829.59</ele>
      </trkpt>
      <trkpt lat="46.23335" lon="-74.55839">
        <ele>828.16</ele>
      </trkpt>
      <trkpt lat="46.23326" lon="-74.5583">
        <ele>826.52</ele>
      </trkpt>
      <trkpt lat="46.23319" lon="-74.55818">
        <ele>823.71</ele>
      </trkpt>
      <trkpt lat="46.23307" lon="-74.55792">
        <ele>820.65</ele>
      </trkpt>
      <trkpt lat="46.23304" lon="-74.55782">
        <ele>821.76</ele>
      </trkpt>
      <trkpt lat="46.23302" lon="-74.55741">
        <ele>822.73</ele>
      </trkpt>
      <trkpt lat="46.23305" lon="-74.55695">
        <ele>821.12</ele>
      </trkpt>
      <trkpt lat="46.23298" lon="-74.55671">
        <ele>822.05</ele>
      </trkpt>
      <trkpt lat="46.23287" lon="-74.55616">
        <ele>825.44</ele>
      </trkpt>
      <trkpt lat="46.23288" lon="-74.55585">
        <ele>826.21</ele>
      </trkpt>
      <trkpt lat="46.23292" lon="-74.55554">
        <ele>827.01</ele>
      </trkpt>
      <trkpt lat="46.23291" lon="-74.55534">
        <ele>827.8</ele>
      </trkpt>
      <trkpt lat="46.23281" lon="-74.55495">
        <ele>826.39</ele>
      </trkpt>
      <trkpt lat="46.2328" lon="-74.55469">
        <ele>824.08</ele>
      </trkpt>
      <trkpt lat="46.23265" lon="-74.55421">
        <ele>824.7</ele>
      </trkpt>
      <trkpt lat="46.23252" lon="-74.55391">
        <ele>825.07</ele>
      </trkpt>
      <trkpt lat="46.23245" lon="-74.55367">
        <ele>826.01</ele>
      </trkpt>
      <trkpt lat="46.23244" lon="-74.55335">
        <ele>825.28</ele>
      </trkpt>
      <trkpt lat="46.2324" lon="-74.55327">
        <ele>824.45</ele>
      </trkpt>
      <trkpt lat="46.23237" lon="-74.55325">
        <ele>824.27</ele>
      </trkpt>
      <trkpt lat="46.23227" lon="-74.55323">
        <ele>824.34</ele>
      </trkpt>
      <trkpt lat="46.23217" lon="-74.55318">
        <ele>822.46</ele>
      </trkpt>
      <trkpt lat="46.23207" lon="-74.55324">
        <ele>821.0</ele>
      </trkpt>
      <trkpt lat="46.23199" lon="-74.55324">
        <ele>819.08</ele>
      </trkpt>
      <trkpt lat="46.23189" lon="-74.5532">
        <ele>816.54</ele>
      </trkpt>
      <trkpt lat="46.23183" lon="-74.55325">
        <ele>817.13</ele>
      </trkpt>
      <trkpt lat="46.23171" lon="-74.55338">
        <ele>819.6</ele>
      </trkpt>
      <trkpt lat="46.23169" lon="-74.55348">
        <ele>822.3</ele>
      </trkpt>
      <trkpt lat="46.23169" lon="-74.55379">
        <ele>830.29</ele>
      </trkpt>
      <trkpt lat="46.23173" lon="-74.55394">
        <ele>832.6</ele>
      </trkpt>
      <trkpt lat="46.23174" lon="-74.5542">
        <ele>834.56</ele>
      </trkpt>
      <trkpt lat="46.23156" lon="-74.55459">
        <ele>833.91</ele>
      </trkpt>
      <trkpt lat="46.23142" lon="-74.55475">
        <ele>832.83</ele>
      </trkpt>
      <trkpt lat="46.23136" lon="-74.5548">
        <ele>831.76</ele>
      </trkpt>
      <trkpt lat="46.23136" lon="-74.5548">
        <ele>831.76</ele>
      </trkpt>
      <trkpt lat="46.23124" lon="-74.55491">
        <ele>829.74</ele>
      </trkpt>
      <trkpt lat="46.2311" lon="-74.55515">
        <ele>827.27</ele>
      </trkpt>
      <trkpt lat="46.23106" lon="-74.55529">
        <ele>825.73</ele>
      </trkpt>
      <trkpt lat="46.23107" lon="-74.55555">
        <ele>823.89</ele>
      </trkpt>
      <trkpt lat="46.23103" lon="-74.55575">
        <ele>822.72</ele>
      </trkpt>
      <trkpt lat="46.23099" lon="-74.55606">
        <ele>821.01</ele>
      </trkpt>
      <trkpt lat="46.23094" lon="-74.55625">
        <ele>821.27</ele>
      </trkpt>
      <trkpt lat="46.23083" lon="-74.55646">
        <ele>821.74</ele>
      </trkpt>
      <trkpt lat="46.23065" lon="-74.55652">
        <ele>820.9</ele>
      </trkpt>
      <trkpt lat="46.23057" lon="-74.55661">
        <ele>819.69</ele>
      </trkpt>
      <trkpt lat="46.23047" lon="-74.55666">
        <ele>818.16</ele>
      </trkpt>
      <trkpt lat="46.23038" lon="-74.55676">
        <ele>815.39</ele>
      </trkpt>
      <trkpt lat="46.23033" lon="-74.55683">
        <ele>813.88</ele>
      </trkpt>
      <trkpt lat="46.23031" lon="-74.55693">
        <ele>812.23</ele>
      </trkpt>
      <trkpt lat="46.23027" lon="-74.55702">
        <ele>813.01</ele>
      </trkpt>
      <trkpt lat="46.23011" lon="-74.55715">
        <ele>818.45</ele>
      </trkpt>
      <trkpt lat="46.23005" lon="-74.55717">
        <ele>820.18</ele>
      </trkpt>
      <trkpt lat="46.22998" lon="-74.55715">
        <ele>821.15</ele>
      </trkpt>
      <trkpt lat="46.22976" lon="-74.55714">
        <ele>820.25</ele>
      </trkpt>
      <trkpt lat="46.22969" lon="-74.55712">
        <ele>819.88</ele>
      </trkpt>
      <trkpt lat="46.22923" lon="-74.55724">
        <ele>819.77</ele>
      </trkpt>
      <trkpt lat="46.22866" lon="-74.5573">
        <ele>818.72</ele>
      </trkpt>
      <trkpt lat="46.22851" lon="-74.55728">
        <ele>819.0</ele>
      </trkpt>
      <trkpt lat="46.22838" lon="-74.55712">
        <ele>821.67</ele>
      </trkpt>
      <trkpt lat="46.22821" lon="-74.55703">
        <ele>822.98</ele>
      </trkpt>
      <trkpt lat="46.22792" lon="-74.557">
        <ele>820.45</ele>
      </trkpt>
      <trkpt lat="46.2277" lon="-74.55702">
        <ele>817.79</ele>
      </trkpt>
      <trkpt lat="46.22747" lon="-74.55716">
        <ele>817.1</ele>
      </trkpt>
      <trkpt lat="46.22712" lon="-74.5576">
        <ele>813.23</ele>
      </trkpt>
      <trkpt lat="46.22691" lon="-74.55768">
        <ele>807.64</ele>
      </trkpt>
      <trkpt lat="46.22684" lon="-74.55772">
        <ele>804.8</ele>
      </trkpt>
      <trkpt lat="46.22682" lon="-74.55775">
        <ele>803.78</ele>
      </trkpt>
      <trkpt lat="46.22674" lon="-74.55799">
        <ele>796.17</ele>
      </trkpt>
      <trkpt lat="46.22657" lon="-74.55814">
        <ele>790.42</ele>
      </trkpt>
      <trkpt lat="46.22644" lon="-74.55823">
        <ele>788.54</ele>
      </trkpt>
      <trkpt lat="46.22604" lon="-74.55824">
        <ele>781.9</ele>
      </trkpt>
      <trkpt lat="46.22591" lon="-74.55832">
        <ele>778.98</ele>
      </trkpt>
      <trkpt lat="46.22577" lon="-74.55831">
        <ele>778.59</ele>
      </trkpt>
      <trkpt lat="46.22567" lon="-74.55824">
        <ele>779.45</ele>
      </trkpt>
      <trkpt lat="46.22553" lon="-74.55823">
        <ele>779.92</ele>
      </trkpt>
      <trkpt lat="46.22539" lon="-74.55817">
        <ele>779.86</ele>
      </trkpt>
      <trkpt lat="46.22522" lon="-74.55814">
        <ele>781.61</ele>
      </trkpt>
      <trkpt lat="46.22511" lon="-74.55808">
        <ele>785.02</ele>
      </trkpt>
      <trkpt lat="46.22503" lon="-74.55799">
        <ele>787.84</ele>
      </trkpt>
      <trkpt lat="46.22499" lon="-74.55772">
        <ele>791.06</ele>
      </trkpt>
      <trkpt lat="46.22502" lon="-74.55752">
        <ele>793.23</ele>
      </trkpt>
      <trkpt lat="46.22502" lon="-74.55733">
        <ele>791.66</ele>
      </trkpt>
      <trkpt lat="46.22495" lon="-74.5572">
        <ele>792.09</ele>
      </trkpt>
      <trkpt lat="46.22479" lon="-74.55717">
        <ele>796.44</ele>
      </trkpt>
      <trkpt lat="46.22458" lon="-74.55727">
        <ele>801.07</ele>
      </trkpt>
      <trkpt lat="46.22449" lon="-74.55723">
        <ele>803.02</ele>
      </trkpt>
      <trkpt lat="46.2243" lon="-74.5572">
        <ele>806.32</ele>
      </trkpt>
      <trkpt lat="46.22417" lon="-74.55712">
        <ele>807.11</ele>
      </trkpt>
      <trkpt lat="46.224" lon="-74.55703">
        <ele>811.17</ele>
      </trkpt>
      <trkpt lat="46.22387" lon="-74.55694">
        <ele>814.99</ele>
      </trkpt>
      <trkpt lat="46.22379" lon="-74.55684">
        <ele>819.31</ele>
      </trkpt>
      <trkpt lat="46.22369" lon="-74.55667">
        <ele>822.74</ele>
      </trkpt>
      <trkpt lat="46.22363" lon="-74.55658">
        <ele>823.29</ele>
      </trkpt>
      <trkpt lat="46.22361" lon="-74.55653">
        <ele>823.05</ele>
      </trkpt>
      <trkpt lat="46.22361" lon="-74.55653">
        <ele>823.05</ele>
      </trkpt>
      <trkpt lat="46.22358" lon="-74.55644">
        <ele>822.32</ele>
      </trkpt>
      <trkpt lat="46.22347" lon="-74.55624">
        <ele>821.93</ele>
      </trkpt>
      <trkpt lat="46.22336" lon="-74.55597">
        <ele>820.22</ele>
      </trkpt>
      <trkpt lat="46.2233" lon="-74.55588">
        <ele>818.8</ele>
      </trkpt>
      <trkpt lat="46.22324" lon="-74.55578">
        <ele>816.58</ele>
      </trkpt>
      <trkpt lat="46.2225" lon="-74.55499">
        <ele>828.22</ele>
      </trkpt>
      <trkpt lat="46.22243" lon="-74.55497">
        <ele>830.3</ele>
      </trkpt>
      <trkpt lat="46.2221" lon="-74.55496">
        <ele>837.23</ele>
      </trkpt>
      <trkpt lat="46.22201" lon="-74.55489">
        <ele>838.4</ele>
      </trkpt>
      <trkpt lat="46.22183" lon="-74.55488">
        <ele>842.61</ele>
      </trkpt>
      <trkpt lat="46.22174" lon="-74.5548">
        <ele>844.98</ele>
      </trkpt>
      <trkpt lat="46.22167" lon="-74.55478">
        <ele>847.1</ele>
      </trkpt>
      <trkpt lat="46.22154" lon="-74.55461">
        <ele>847.17</ele>
      </trkpt>
      <trkpt lat="46.22153" lon="-74.55459">
        <ele>847.06</ele>
      </trkpt>
      <trkpt lat="46.22148" lon="-74.55453">
        <ele>847.16</ele>
      </trkpt>
      <trkpt lat="46.22137" lon="-74.55434">
        <ele>847.54</ele>
      </trkpt>
      <trkpt lat="46.22116" lon="-74.55391">
        <ele>852.98</ele>
      </trkpt>
      <trkpt lat="46.22107" lon="-74.55375">
        <ele>856.0</ele>
      </trkpt>
      <trkpt lat="46.22101" lon="-74.55368">
        <ele>856.32</ele>
      </trkpt>
      <trkpt lat="46.22091" lon="-74.55366">
        <ele>856.18</ele>
      </trkpt>
      <trkpt lat="46.22081" lon="-74.5536">
        <ele>855.88</ele>
      </trkpt>
      <trkpt lat="46.22072" lon="-74.5535">
        <ele>855.36</ele>
      </trkpt>
      <trkpt lat="46.22065" lon="-74.5534">
        <ele>855.08</ele>
      </trkpt>
      <trkpt lat="46.22055" lon="-74.55318">
        <ele>855.6</ele>
      </trkpt>
      <trkpt lat="46.22047" lon="-74.55315">
        <ele>856.47</ele>
      </trkpt>
      <trkpt lat="46.22052" lon="-74.55293">
        <ele>857.81</ele>
      </trkpt>
      <trkpt lat="46.22045" lon="-74.55276">
        <ele>860.36</ele>
      </trkpt>
      <trkpt lat="46.22036" lon="-74.55268">
        <ele>861.88</ele>
      </trkpt>
      <trkpt lat="46.22029" lon="-74.55265">
        <ele>862.41</ele>
      </trkpt>
      <trkpt lat="46.22026" lon="-74.55267">
        <ele>862.19</ele>
      </trkpt>
      <trkpt lat="46.22017" lon="-74.55283">
        <ele>860.92</ele>
      </trkpt>
      <trkpt lat="46.22015" lon="-74.55293">
        <ele>860.24</ele>
      </trkpt>
      <trkpt lat="46.22015" lon="-74.55299">
        <ele>859.9</ele>
      </trkpt>
      <trkpt lat="46.22002" lon="-74.5529">
        <ele>859.67</ele>
      </trkpt>
      <trkpt lat="46.21995" lon="-74.55279">
        <ele>859.25</ele>
      </trkpt>
      <trkpt lat="46.22002" lon="-74.55256">
        <ele>858.75</ele>
      </trkpt>
      <trkpt lat="46.22" lon="-74.55241">
        <ele>859.3</ele>
      </trkpt>
      <trkpt lat="46.22002" lon="-74.5523">
        <ele>861.08</ele>
      </trkpt>
      <trkpt lat="46.21996" lon="-74.55225">
        <ele>860.79</ele>
      </trkpt>
      <trkpt lat="46.21985" lon="-74.55196">
        <ele>861.23</ele>
      </trkpt>
      <trkpt lat="46.21983" lon="-74.55186">
        <ele>860.72</ele>
      </trkpt>
      <trkpt lat="46.21968" lon="-74.55155">
        <ele>855.45</ele>
      </trkpt>
      <trkpt lat="46.21962" lon="-74.55151">
        <ele>853.65</ele>
      </trkpt>
      <trkpt lat="46.21951" lon="-74.55149">
        <ele>850.53</ele>
      </trkpt>
      <trkpt lat="46.2194" lon="-74.55153">
        <ele>848.61</ele>
      </trkpt>
      <trkpt lat="46.21921" lon="-74.55168">
        <ele>846.67</ele>
      </trkpt>
      <trkpt lat="46.21913" lon="-74.5517">
        <ele>846.24</ele>
      </trkpt>
      <trkpt lat="46.21907" lon="-74.55174">
        <ele>846.52</ele>
      </trkpt>
      <trkpt lat="46.21887" lon="-74.55177">
        <ele>847.23</ele>
      </trkpt>
      <trkpt lat="46.21877" lon="-74.55178">
        <ele>848.46</ele>
      </trkpt>
      <trkpt lat="46.21876" lon="-74.55174">
        <ele>848.51</ele>
      </trkpt>
      <trkpt lat="46.21873" lon="-74.55175">
        <ele>848.89</ele>
      </trkpt>
      <trkpt lat="46.21849" lon="-74.55167">
        <ele>850.9</ele>
      </trkpt>
      <trkpt lat="46.21842" lon="-74.55157">
        <ele>849.83</ele>
      </trkpt>
      <trkpt lat="46.21842" lon="-74.55157">
        <ele>849.83</ele>
      </trkpt>
      <trkpt lat="46.21839" lon="-74.55153">
        <ele>849.14</ele>
      </trkpt>
      <trkpt lat="46.21833" lon="-74.55117">
        <ele>845.18</ele>
      </trkpt>
      <trkpt lat="46.21833" lon="-74.55102">
        <ele>844.3</ele>
      </trkpt>
      <trkpt lat="46.21841" lon="-74.55045">
        <ele>837.41</ele>
      </trkpt>
      <trkpt lat="46.21844" lon="-74.55031">
        <ele>832.64</ele>
      </trkpt>
      <trkpt lat="46.21856" lon="-74.54999">
        <ele>823.22</ele>
      </trkpt>
      <trkpt lat="46.21859" lon="-74.54984">
        <ele>820.23</ele>
      </trkpt>
      <trkpt lat="46.21859" lon="-74.54974">
        <ele>818.01</ele>
      </trkpt>
      <trkpt lat="46.21854" lon="-74.54965">
        <ele>815.16</ele>
      </trkpt>
      <trkpt lat="46.21848" lon="-74.54962">
        <ele>813.43</ele>
      </trkpt>
      <trkpt lat="46.21842" lon="-74.54956">
        <ele>811.06</ele>
      </trkpt>
      <trkpt lat="46.21824" lon="-74.54955">
        <ele>808.35</ele>
      </trkpt>
      <trkpt lat="46.21821" lon="-74.54952">
        <ele>807.5</ele>
      </trkpt>
      <trkpt lat="46.21816" lon="-74.54945">
        <ele>805.85</ele>
      </trkpt>
      <trkpt lat="46.21813" lon="-74.5493">
        <ele>801.27</ele>
      </trkpt>
      <trkpt lat="46.21814" lon="-74.54915">
        <ele>797.05</ele>
      </trkpt>
      <trkpt lat="46.21822" lon="-74.54886">
        <ele>789.54</ele>
      </trkpt>
      <trkpt lat="46.21842" lon="-74.54836">
        <ele>781.1</ele>
      </trkpt>
      <trkpt lat="46.21843" lon="-74.54826">
        <ele>779.2</ele>
      </trkpt>
      <trkpt lat="46.21842" lon="-74.54816">
        <ele>777.07</ele>
      </trkpt>
      <trkpt lat="46.21841" lon="-74.54811">
        <ele>775.95</ele>
      </trkpt>
      <trkpt lat="46.21838" lon="-74.54809">
        <ele>775.23</ele>
      </trkpt>
      <trkpt lat="46.21834" lon="-74.5481">
        <ele>775.03</ele>
      </trkpt>
      <trkpt lat="46.2182" lon="-74.54826">
        <ele>779.35</ele>
      </trkpt>
      <trkpt lat="46.21799" lon="-74.54826">
        <ele>779.67</ele>
      </trkpt>
      <trkpt lat="46.21787" lon="-74.54816">
        <ele>775.76</ele>
      </trkpt>
      <trkpt lat="46.21781" lon="-74.54802">
        <ele>772.71</ele>
      </trkpt>
      <trkpt lat="46.21777" lon="-74.548">
        <ele>772.54</ele>
      </trkpt>
      <trkpt lat="46.2177" lon="-74.54801">
        <ele>772.07</ele>
      </trkpt>
      <trkpt lat="46.21739" lon="-74.54836">
        <ele>775.29</ele>
      </trkpt>
      <trkpt lat="46.21735" lon="-74.54845">
        <ele>777.15</ele>
      </trkpt>
      <trkpt lat="46.21732" lon="-74.54865">
        <ele>781.02</ele>
      </trkpt>
      <trkpt lat="46.21728" lon="-74.54874">
        <ele>783.52</ele>
      </trkpt>
      <trkpt lat="46.21711" lon="-74.54893">
        <ele>787.11</ele>
      </trkpt>
      <trkpt lat="46.21693" lon="-74.54906">
        <ele>789.12</ele>
      </trkpt>
      <trkpt lat="46.21678" lon="-74.54919">
        <ele>791.64</ele>
      </trkpt>
      <trkpt lat="46.2166" lon="-74.54923">
        <ele>790.66</ele>
      </trkpt>
      <trkpt lat="46.21646" lon="-74.54938">
        <ele>792.35</ele>
      </trkpt>
      <trkpt lat="46.21616" lon="-74.54947">
        <ele>788.27</ele>
      </trkpt>
      <trkpt lat="46.21611" lon="-74.54947">
        <ele>787.15</ele>
      </trkpt>
      <trkpt lat="46.21592" lon="-74.54963">
        <ele>781.91</ele>
      </trkpt>
      <trkpt lat="46.21585" lon="-74.54965">
        <ele>779.57</ele>
      </trkpt>
      <trkpt lat="46.21567" lon="-74.5499">
        <ele>774.56</ele>
      </trkpt>
      <trkpt lat="46.21547" lon="-74.55034">
        <ele>770.0</ele>
      </trkpt>
      <trkpt lat="46.21529" lon="-74.55058">
        <ele>764.38</ele>
      </trkpt>
      <trkpt lat="46.21527" lon="-74.55068">
        <ele>763.46</ele>
      </trkpt>
      <trkpt lat="46.21526" lon="-74.55084">
        <ele>762.68</ele>
      </trkpt>
      <trkpt lat="46.21524" lon="-74.55099">
        <ele>762.32</ele>
      </trkpt>
      <trkpt lat="46.21523" lon="-74.55135">
        <ele>762.29</ele>
      </trkpt>
      <trkpt lat="46.21526" lon="-74.5515">
        <ele>762.74</ele>
      </trkpt>
      <trkpt lat="46.21536" lon="-74.55164">
        <ele>763.59</ele>
      </trkpt>
      <trkpt lat="46.21539" lon="-74.5517">
        <ele>763.88</ele>
      </trkpt>
      <trkpt lat="46.21539" lon="-74.5517">
        <ele>763.88</ele>
      </trkpt>
      <trkpt lat="46.21545" lon="-74.5518">
        <ele>764.95</ele>
      </trkpt>
      <trkpt lat="46.21551" lon="-74.5521">
        <ele>764.77</ele>
      </trkpt>
      <trkpt lat="46.21556" lon="-74.55223">
        <ele>762.96</ele>
      </trkpt>
      <trkpt lat="46.21559" lon="-74.55244">
        <ele>760.83</ele>
      </trkpt>
      <trkpt lat="46.21556" lon="-74.55274">
        <ele>756.6</ele>
      </trkpt>
      <trkpt lat="46.21552" lon="-74.55289">
        <ele>755.42</ele>
      </trkpt>
      <trkpt lat="46.21549" lon="-74.55292">
        <ele>755.13</ele>
      </trkpt>
      <trkpt lat="46.21546" lon="-74.55302">
        <ele>754.48</ele>
      </trkpt>
      <trkpt lat="46.21542" lon="-74.55322">
        <ele>751.97</ele>
      </trkpt>
      <trkpt lat="46.21539" lon="-74.55342">
        <ele>749.83</ele>
      </trkpt>
      <trkpt lat="46.2154" lon="-74.55357">
        <ele>749.72</ele>
      </trkpt>
      <trkpt lat="46.21539" lon="-74.55367">
        <ele>749.13</ele>
      </trkpt>
      <trkpt lat="46.21529" lon="-74.55383">
        <ele>746.44</ele>
      </trkpt>
      <trkpt lat="46.21524" lon="-74.55397">
        <ele>744.38</ele>
      </trkpt>
      <trkpt lat="46.21522" lon="-74.55418">
        <ele>741.08</ele>
      </trkpt>
      <trkpt lat="46.21521" lon="-74.55444">
        <ele>739.3</ele>
      </trkpt>
      <trkpt lat="46.21522" lon="-74.55459">
        <ele>737.41</ele>
      </trkpt>
      <trkpt lat="46.2152" lon="-74.55469">
        <ele>736.23</ele>
      </trkpt>
      <trkpt lat="46.21516" lon="-74.55477">
        <ele>735.15</ele>
      </trkpt>
      <trkpt lat="46.21513" lon="-74.55479">
        <ele>734.84</ele>
      </trkpt>
      <trkpt lat="46.21502" lon="-74.55483">
        <ele>734.07</ele>
      </trkpt>
      <trkpt lat="46.21489" lon="-74.55481">
        <ele>731.61</ele>
      </trkpt>
      <trkpt lat="46.21463" lon="-74.55499">
        <ele>725.05</ele>
      </trkpt>
      <trkpt lat="46.21442" lon="-74.55564">
        <ele>710.46</ele>
      </trkpt>
      <trkpt lat="46.21448" lon="-74.55578">
        <ele>708.77</ele>
      </trkpt>
      <trkpt lat="46.21457" lon="-74.55587">
        <ele>705.0</ele>
      </trkpt>
      <trkpt lat="46.2146" lon="-74.5559">
        <ele>704.05</ele>
      </trkpt>
      <trkpt lat="46.21474" lon="-74.55592">
        <ele>701.86</ele>
      </trkpt>
      <trkpt lat="46.21489" lon="-74.55608">
        <ele>703.65</ele>
      </trkpt>
      <trkpt lat="46.21497" lon="-74.55618">
        <ele>704.25</ele>
      </trkpt>
      <trkpt lat="46.215" lon="-74.55627">
        <ele>705.14</ele>
      </trkpt>
      <trkpt lat="46.21508" lon="-74.55638">
        <ele>704.32</ele>
      </trkpt>
      <trkpt lat="46.21516" lon="-74.55656">
        <ele>697.71</ele>
      </trkpt>
      <trkpt lat="46.21515" lon="-74.55687">
        <ele>693.49</ele>
      </trkpt>
      <trkpt lat="46.21508" lon="-74.55709">
        <ele>694.72</ele>
      </trkpt>
      <trkpt lat="46.21515" lon="-74.55739">
        <ele>692.13</ele>
      </trkpt>
      <trkpt lat="46.21523" lon="-74.55762">
        <ele>689.24</ele>
      </trkpt>
      <trkpt lat="46.21523" lon="-74.55777">
        <ele>687.08</ele>
      </trkpt>
      <trkpt lat="46.21518" lon="-74.55791">
        <ele>684.32</ele>
      </trkpt>
      <trkpt lat="46.21512" lon="-74.55797">
        <ele>682.61</ele>
      </trkpt>
      <trkpt lat="46.21473" lon="-74.55798">
        <ele>679.57</ele>
      </trkpt>
      <trkpt lat="46.21465" lon="-74.55797">
        <ele>679.0</ele>
      </trkpt>
      <trkpt lat="46.21443" lon="-74.55772">
        <ele>680.92</ele>
      </trkpt>
      <trkpt lat="46.21436" lon="-74.55772">
        <ele>680.32</ele>
      </trkpt>
      <trkpt lat="46.2143" lon="-74.55766">
        <ele>681.22</ele>
      </trkpt>
      <trkpt lat="46.21423" lon="-74.55763">
        <ele>681.58</ele>
      </trkpt>
      <trkpt lat="46.2142" lon="-74.55764">
        <ele>681.15</ele>
      </trkpt>
      <trkpt lat="46.21417" lon="-74.55768">
        <ele>679.84</ele>
      </trkpt>
      <trkpt lat="46.21412" lon="-74.55787">
        <ele>674.78</ele>
      </trkpt>
      <trkpt lat="46.21409" lon="-74.55823">
        <ele>672.31</ele>
      </trkpt>
      <trkpt lat="46.21413" lon="-74.55858">
        <ele>669.13</ele>
      </trkpt>
      <trkpt lat="46.21413" lon="-74.55858">
        <ele>669.13</ele>
      </trkpt>
      <trkpt lat="46.21413" lon="-74.55864">
        <ele>668.28</ele>
      </trkpt>
      <trkpt lat="46.2141" lon="-74.55884">
        <ele>664.63</ele>
      </trkpt>
      <trkpt lat="46.21412" lon="-74.55894">
        <ele>664.44</ele>
      </trkpt>
      <trkpt lat="46.21418" lon="-74.55918">
        <ele>666.19</ele>
      </trkpt>
      <trkpt lat="46.21417" lon="-74.55928">
        <ele>666.84</ele>
      </trkpt>
      <trkpt lat="46.21412" lon="-74.55942">
        <ele>667.64</ele>
      </trkpt>
      <trkpt lat="46.21389" lon="-74.55964">
        <ele>670.52</ele>
      </trkpt>
      <trkpt lat="46.2138" lon="-74.55981">
        <ele>669.67</ele>
      </trkpt>
      <trkpt lat="46.21377" lon="-74.55996">
        <ele>667.78</ele>
      </trkpt>
      <trkpt lat="46.21376" lon="-74.56011">
        <ele>664.08</ele>
      </trkpt>
      <trkpt lat="46.21376" lon="-74.56048">
        <ele>656.32</ele>
      </trkpt>
      <trkpt lat="46.21379" lon="-74.56088">
        <ele>648.94</ele>
      </trkpt>
      <trkpt lat="46.21375" lon="-74.56096">
        <ele>647.82</ele>
      </trkpt>
      <trkpt lat="46.21365" lon="-74.561">
        <ele>646.02</ele>
      </trkpt>
      <trkpt lat="46.21353" lon="-74.56132">
        <ele>644.1</ele>
      </trkpt>
      <trkpt lat="46.21342" lon="-74.56132">
        <ele>643.91</ele>
      </trkpt>
      <trkpt lat="46.21332" lon="-74.56126">
        <ele>643.61</ele>
      </trkpt>
      <trkpt lat="46.213" lon="-74.56123">
        <ele>644.71</ele>
      </trkpt>
      <trkpt lat="46.2129" lon="-74.56116">
        <ele>643.7</ele>
      </trkpt>
      <trkpt lat="46.21262" lon="-74.56117">
        <ele>644.3</ele>
      </trkpt>
      <trkpt lat="46.21247" lon="-74.56115">
        <ele>644.33</ele>
      </trkpt>
      <trkpt lat="46.21229" lon="-74.561">
        <ele>641.64</ele>
      </trkpt>
      <trkpt lat="46.21222" lon="-74.561">
        <ele>641.36</ele>
      </trkpt>
      <trkpt lat="46.21212" lon="-74.56107">
        <ele>640.36</ele>
      </trkpt>
      <trkpt lat="46.21186" lon="-74.56107">
        <ele>636.03</ele>
      </trkpt>
      <trkpt lat="46.2118" lon="-74.56106">
        <ele>635.45</ele>
      </trkpt>
      <trkpt lat="46.21173" lon="-74.561">
        <ele>634.9</ele>
      </trkpt>
      <trkpt lat="46.21156" lon="-74.56098">
        <ele>634.49</ele>
      </trkpt>
      <trkpt lat="46.21155" lon="-74.56098">
        <ele>634.5</ele>
      </trkpt>
      <trkpt lat="46.21155" lon="-74.56098">
        <ele>634.5</ele>
      </trkpt>
      <trkpt lat="46.21146" lon="-74.56091">
        <ele>634.39</ele>
      </trkpt>
      <trkpt lat="46.21139" lon="-74.56091">
        <ele>634.28</ele>
      </trkpt>
      <trkpt lat="46.21136" lon="-74.56091">
        <ele>634.25</ele>
      </trkpt>
      <trkpt lat="46.2113" lon="-74.56097">
        <ele>634.33</ele>
      </trkpt>
      <trkpt lat="46.21123" lon="-74.561">
        <ele>634.26</ele>
      </trkpt>
      <trkpt lat="46.2112" lon="-74.56103">
        <ele>634.23</ele>
      </trkpt>
      <trkpt lat="46.21113" lon="-74.56114">
        <ele>634.05</ele>
      </trkpt>
      <trkpt lat="46.21101" lon="-74.56141">
        <ele>632.13</ele>
      </trkpt>
      <trkpt lat="46.21093" lon="-74.56149">
        <ele>630.61</ele>
      </trkpt>
      <trkpt lat="46.21075" lon="-74.56149">
        <ele>626.6</ele>
      </trkpt>
      <trkpt lat="46.21065" lon="-74.56142">
        <ele>623.72</ele>
      </trkpt>
      <trkpt lat="46.21051" lon="-74.5614">
        <ele>618.87</ele>
      </trkpt>
      <trkpt lat="46.21041" lon="-74.56135">
        <ele>614.71</ele>
      </trkpt>
      <trkpt lat="46.21037" lon="-74.56135">
        <ele>613.02</ele>
      </trkpt>
      <trkpt lat="46.21032" lon="-74.5614">
        <ele>610.01</ele>
      </trkpt>
      <trkpt lat="46.21005" lon="-74.56124">
        <ele>606.49</ele>
      </trkpt>
      <trkpt lat="46.21005" lon="-74.56104">
        <ele>609.91</ele>
      </trkpt>
      <trkpt lat="46.21" lon="-74.56069">
        <ele>608.45</ele>
      </trkpt>
      <trkpt lat="46.20996" lon="-74.5606">
        <ele>606.26</ele>
      </trkpt>
      <trkpt lat="46.20989" lon="-74.56049">
        <ele>603.45</ele>
      </trkpt>
      <trkpt lat="46.20975" lon="-74.56046">
        <ele>599.42</ele>
      </trkpt>
      <trkpt lat="46.20969" lon="-74.5604">
        <ele>597.8</ele>
      </trkpt>
      <trkpt lat="46.20964" lon="-74.56033">
        <ele>596.47</ele>
      </trkpt>
      <trkpt lat="46.20963" lon="-74.56017">
        <ele>595.1</ele>
      </trkpt>
      <trkpt lat="46.20965" lon="-74.56002">
        <ele>594.34</ele>
      </trkpt>
      <trkpt lat="46.20971" lon="-74.55983">
        <ele>594.49</ele>
      </trkpt>
      <trkpt lat="46.20972" lon="-74.55968">
        <ele>593.49</ele>
      </trkpt>
      <trkpt lat="46.20962" lon="-74.55923">
        <ele>584.32</ele>
      </trkpt>
      <trkpt lat="46.20959" lon="-74.55914">
        <ele>582.24</ele>
      </trkpt>
      <trkpt lat="46.20956" lon="-74.5591">
        <ele>581.2</ele>
      </trkpt>
      <trkpt lat="46.20947" lon="-74.55902">
        <ele>578.35</ele>
      </trkpt>
      <trkpt lat="46.20937" lon="-74.559">
        <ele>575.51</ele>
      </trkpt>
      <trkpt lat="46.20931" lon="-74.55894">
        <ele>574.25</ele>
      </trkpt>
      <trkpt lat="46.20913" lon="-74.55893">
        <ele>569.45</ele>
      </trkpt>
      <trkpt lat="46.20888" lon="-74.55911">
        <ele>562.47</ele>
      </trkpt>
      <trkpt lat="46.20882" lon="-74.55917">
        <ele>560.56</ele>
      </trkpt>
      <trkpt lat="46.20876" lon="-74.55921">
        <ele>558.9</ele>
      </trkpt>
      <trkpt lat="46.20869" lon="-74.55926">
        <ele>557.09</ele>
      </trkpt>
      <trkpt lat="46.20862" lon="-74.55927">
        <ele>554.8</ele>
      </trkpt>
      <trkpt lat="46.20857" lon="-74.55934">
        <ele>554.28</ele>
      </trkpt>
      <trkpt lat="46.20853" lon="-74.55943">
        <ele>554.19</ele>
      </trkpt>
      <trkpt lat="46.20834" lon="-74.56037">
        <ele>549.26</ele>
      </trkpt>
      <trkpt lat="46.20826" lon="-74.56061">
        <ele>547.84</ele>
      </trkpt>
      <trkpt lat="46.20818" lon="-74.56078">
        <ele>547.58</ele>
      </trkpt>
      <trkpt lat="46.20811" lon="-74.56107">
        <ele>547.73</ele>
      </trkpt>
      <trkpt lat="46.20808" lon="-74.5611">
        <ele>547.34</ele>
      </trkpt>
      <trkpt lat="46.20805" lon="-74.5612">
        <ele>547.29</ele>
      </trkpt>
      <trkpt lat="46.20804" lon="-74.56135">
        <ele>547.71</ele>
      </trkpt>
      <trkpt lat="46.20811" lon="-74.56158">
        <ele>547.97</ele>
      </trkpt>
      <trkpt lat="46.20821" lon="-74.56181">
        <ele>548.99</ele>
      </trkpt>
      <trkpt lat="46.20832" lon="-74.562">
        <ele>550.56</ele>
      </trkpt>
      <trkpt lat="46.20843" lon="-74.56239">
        <ele>552.0</ele>
      </trkpt>
      <trkpt lat="46.20848" lon="-74.56252">
        <ele>552.9</ele>
      </trkpt>
      <trkpt lat="46.20863" lon="-74.56275">
        <ele>552.46</ele>
      </trkpt>
      <trkpt lat="46.20877" lon="-74.56289">
        <ele>550.95</ele>
      </trkpt>
      <trkpt lat="46.20889" lon="-74.56309">
        <ele>548.65</ele>
      </trkpt>
      <trkpt lat="46.20895" lon="-74.56315">
        <ele>549.08</ele>
      </trkpt>
      <trkpt lat="46.209" lon="-74.56328">
        <ele>548.01</ele>
      </trkpt>
      <trkpt lat="46.20909" lon="-74.56337">
        <ele>547.34</ele>
      </trkpt>
      <trkpt lat="46.20921" lon="-74.56347">
        <ele>546.12</ele>
      </trkpt>
      <trkpt lat="46.20935" lon="-74.56349">
        <ele>545.99</ele>
      </trkpt>
      <trkpt lat="46.20948" lon="-74.56359">
        <ele>544.65</ele>
      </trkpt>
      <trkpt lat="46.20954" lon="-74.56371">
        <ele>542.54</ele>
      </trkpt>
      <trkpt lat="46.20961" lon="-74.56376">
        <ele>541.55</ele>
      </trkpt>
      <trkpt lat="46.20965" lon="-74.56384">
        <ele>539.53</ele>
      </trkpt>
      <trkpt lat="46.2097" lon="-74.56398">
        <ele>536.74</ele>
      </trkpt>
      <trkpt lat="46.20977" lon="-74.56438">
        <ele>532.46</ele>
      </trkpt>
      <trkpt lat="46.20986" lon="-74.56461">
        <ele>529.51</ele>
      </trkpt>
      <trkpt lat="46.20999" lon="-74.56479">
        <ele>527.6</ele>
      </trkpt>
      <trkpt lat="46.21025" lon="-74.56506">
        <ele>519.99</ele>
      </trkpt>
      <trkpt lat="46.21043" lon="-74.56529">
        <ele>517.19</ele>
      </trkpt>
      <trkpt lat="46.2105" lon="-74.56541">
        <ele>513.42</ele>
      </trkpt>
      <trkpt lat="46.21053" lon="-74.56544">
        <ele>512.28</ele>
      </trkpt>
      <trkpt lat="46.2106" lon="-74.56548">
        <ele>511.55</ele>
      </trkpt>
      <trkpt lat="46.21074" lon="-74.5657">
        <ele>510.25</ele>
      </trkpt>
      <trkpt lat="46.21074" lon="-74.5657">
        <ele>510.25</ele>
      </trkpt>
      <trkpt lat="46.21074" lon="-74.5657">
        <ele>510.25</ele>
      </trkpt>
      <trkpt lat="46.21095" lon="-74.5659">
        <ele>510.4</ele>
      </trkpt>
      <trkpt lat="46.21114" lon="-74.56613">
        <ele>509.61</ele>
      </trkpt>
      <trkpt lat="46.2112" lon="-74.56615">
        <ele>509.03</ele>
      </trkpt>
      <trkpt lat="46.21135" lon="-74.56639">
        <ele>503.41</ele>
      </trkpt>
      <trkpt lat="46.21138" lon="-74.56641">
        <ele>502.94</ele>
      </trkpt>
      <trkpt lat="46.21145" lon="-74.56654">
        <ele>502.19</ele>
      </trkpt>
      <trkpt lat="46.21151" lon="-74.56659">
        <ele>501.72</ele>
      </trkpt>
      <trkpt lat="46.21169" lon="-74.56691">
        <ele>498.38</ele>
      </trkpt>
      <trkpt lat="46.21172" lon="-74.56693">
        <ele>498.35</ele>
      </trkpt>
      <trkpt lat="46.21178" lon="-74.56707">
        <ele>496.52</ele>
      </trkpt>
      <trkpt lat="46.2118" lon="-74.56717">
        <ele>495.2</ele>
      </trkpt>
      <trkpt lat="46.21193" lon="-74.56747">
        <ele>491.48</ele>
      </trkpt>
      <trkpt lat="46.21197" lon="-74.56761">
        <ele>489.85</ele>
      </trkpt>
      <trkpt lat="46.21201" lon="-74.5677">
        <ele>488.63</ele>
      </trkpt>
      <trkpt lat="46.21206" lon="-74.56776">
        <ele>487.47</ele>
      </trkpt>
      <trkpt lat="46.21217" lon="-74.56779">
        <ele>486.13</ele>
      </trkpt>
      <trkpt lat="46.21232" lon="-74.56793">
        <ele>482.2</ele>
      </trkpt>
      <trkpt lat="46.21239" lon="-74.56796">
        <ele>481.25</ele>
      </trkpt>
      <trkpt lat="46.21243" lon="-74.56805">
        <ele>479.36</ele>
      </trkpt>
      <trkpt lat="46.21243" lon="-74.5681">
        <ele>478.61</ele>
      </trkpt>
      <trkpt lat="46.21239" lon="-74.56825">
        <ele>476.6</ele>
      </trkpt>
      <trkpt lat="46.21229" lon="-74.56847">
        <ele>472.92</ele>
      </trkpt>
      <trkpt lat="46.21215" lon="-74.56894">
        <ele>461.64</ele>
      </trkpt>
      <trkpt lat="46.2121" lon="-74.56946">
        <ele>451.28</ele>
      </trkpt>
      <trkpt lat="46.21203" lon="-74.56996">
        <ele>445.45</ele>
      </trkpt>
      <trkpt lat="46.21199" lon="-74.57037">
        <ele>439.72</ele>
      </trkpt>
      <trkpt lat="46.21198" lon="-74.57089">
        <ele>437.28</ele>
      </trkpt>
      <trkpt lat="46.21196" lon="-74.5711">
        <ele>435.86</ele>
      </trkpt>
      <trkpt lat="46.21194" lon="-74.57114">
        <ele>435.36</ele>
      </trkpt>
      <trkpt lat="46.21189" lon="-74.57121">
        <ele>433.74</ele>
      </trkpt>
      <trkpt lat="46.21174" lon="-74.57121">
        <ele>433.39</ele>
      </trkpt>
      <trkpt lat="46.21156" lon="-74.57105">
        <ele>435.93</ele>
      </trkpt>
      <trkpt lat="46.21138" lon="-74.57104">
        <ele>435.7</ele>
      </trkpt>
      <trkpt lat="46.21128" lon="-74.57097">
        <ele>435.54</ele>
      </trkpt>
      <trkpt lat="46.21122" lon="-74.57098">
        <ele>434.91</ele>
      </trkpt>
      <trkpt lat="46.21119" lon="-74.57101">
        <ele>434.4</ele>
      </trkpt>
      <trkpt lat="46.21112" lon="-74.57104">
        <ele>433.58</ele>
      </trkpt>
      <trkpt lat="46.211" lon="-74.57116">
        <ele>432.77</ele>
      </trkpt>
      <trkpt lat="46.2109" lon="-74.5713">
        <ele>431.56</ele>
      </trkpt>
      <trkpt lat="46.21082" lon="-74.57148">
        <ele>430.45</ele>
      </trkpt>
      <trkpt lat="46.21071" lon="-74.57186">
        <ele>430.29</ele>
      </trkpt>
      <trkpt lat="46.21066" lon="-74.57221">
        <ele>430.4</ele>
      </trkpt>
      <trkpt lat="46.21068" lon="-74.57232">
        <ele>430.06</ele>
      </trkpt>
      <trkpt lat="46.2107" lon="-74.57236">
        <ele>429.6</ele>
      </trkpt>
      <trkpt lat="46.21071" lon="-74.57245">
        <ele>429.47</ele>
      </trkpt>
      <trkpt lat="46.21071" lon="-74.57245">
        <ele>429.47</ele>
      </trkpt>
      <trkpt lat="46.21071" lon="-74.57251">
        <ele>429.61</ele>
      </trkpt>
      <trkpt lat="46.21071" lon="-74.5728">
        <ele>431.07</ele>
      </trkpt>
      <trkpt lat="46.21068" lon="-74.57295">
        <ele>430.46</ele>
      </trkpt>
      <trkpt lat="46.21069" lon="-74.57316">
        <ele>430.3</ele>
      </trkpt>
      <trkpt lat="46.21073" lon="-74.57331">
        <ele>430.95</ele>
      </trkpt>
      <trkpt lat="46.21085" lon="-74.57351">
        <ele>432.5</ele>
      </trkpt>
      <trkpt lat="46.21094" lon="-74.57373">
        <ele>435.71</ele>
      </trkpt>
      <trkpt lat="46.21108" lon="-74.57443">
        <ele>432.76</ele>
      </trkpt>
      <trkpt lat="46.21105" lon="-74.57458">
        <ele>432.12</ele>
      </trkpt>
      <trkpt lat="46.21102" lon="-74.57461">
        <ele>432.45</ele>
      </trkpt>
      <trkpt lat="46.21092" lon="-74.57488">
        <ele>431.7</ele>
      </trkpt>
      <trkpt lat="46.21092" lon="-74.57503">
        <ele>430.12</ele>
      </trkpt>
      <trkpt lat="46.21098" lon="-74.57522">
        <ele>428.4</ele>
      </trkpt>
      <trkpt lat="46.21108" lon="-74.57536">
        <ele>427.87</ele>
      </trkpt>
      <trkpt lat="46.2113" lon="-74.57539">
        <ele>427.73</ele>
      </trkpt>
      <trkpt lat="46.21144" lon="-74.57555">
        <ele>426.84</ele>
      </trkpt>
      <trkpt lat="46.21157" lon="-74.57564">
        <ele>425.63</ele>
      </trkpt>
      <trkpt lat="46.21168" lon="-74.57584">
        <ele>423.83</ele>
      </trkpt>
      <trkpt lat="46.21179" lon="-74.57611">
        <ele>418.13</ele>
      </trkpt>
      <trkpt lat="46.21188" lon="-74.57619">
        <ele>415.28</ele>
      </trkpt>
      <trkpt lat="46.21193" lon="-74.57626">
        <ele>413.27</ele>
      </trkpt>
      <trkpt lat="46.21195" lon="-74.57631">
        <ele>412.13</ele>
      </trkpt>
      <trkpt lat="46.21192" lon="-74.57638">
        <ele>410.14</ele>
      </trkpt>
      <trkpt lat="46.2118" lon="-74.57648">
        <ele>407.67</ele>
      </trkpt>
      <trkpt lat="46.21169" lon="-74.57651">
        <ele>406.5</ele>
      </trkpt>
      <trkpt lat="46.21152" lon="-74.5768">
        <ele>403.47</ele>
      </trkpt>
      <trkpt lat="46.21157" lon="-74.57693">
        <ele>400.62</ele>
      </trkpt>
      <trkpt lat="46.21161" lon="-74.57701">
        <ele>399.3</ele>
      </trkpt>
      <trkpt lat="46.21171" lon="-74.57716">
        <ele>397.36</ele>
      </trkpt>
      <trkpt lat="46.21185" lon="-74.57746">
        <ele>390.66</ele>
      </trkpt>
      <trkpt lat="46.21191" lon="-74.57752">
        <ele>388.32</ele>
      </trkpt>
      <trkpt lat="46.212" lon="-74.57768">
        <ele>385.49</ele>
      </trkpt>
      <trkpt lat="46.21234" lon="-74.57807">
        <ele>377.1</ele>
      </trkpt>
      <trkpt lat="46.21277" lon="-74.5785">
        <ele>376.33</ele>
      </trkpt>
      <trkpt lat="46.21284" lon="-74.57871">
        <ele>370.86</ele>
      </trkpt>
      <trkpt lat="46.21287" lon="-74.5788">
        <ele>368.42</ele>
      </trkpt>
      <trkpt lat="46.21297" lon="-74.57888">
        <ele>368.14</ele>
      </trkpt>
      <trkpt lat="46.21298" lon="-74.57899">
        <ele>365.68</ele>
      </trkpt>
      <trkpt lat="46.21294" lon="-74.57905">
        <ele>363.65</ele>
      </trkpt>
      <trkpt lat="46.21287" lon="-74.57908">
        <ele>362.12</ele>
      </trkpt>
      <trkpt lat="46.21279" lon="-74.57902">
        <ele>361.79</ele>
      </trkpt>
      <trkpt lat="46.21271" lon="-74.57894">
        <ele>360.16</ele>
      </trkpt>
      <trkpt lat="46.21265" lon="-74.57895">
        <ele>358.0</ele>
      </trkpt>
      <trkpt lat="46.21263" lon="-74.57904">
        <ele>356.0</ele>
      </trkpt>
      <trkpt lat="46.21268" lon="-74.57917">
        <ele>356.04</ele>
      </trkpt>
      <trkpt lat="46.21283" lon="-74.57934">
        <ele>355.85</ele>
      </trkpt>
      <trkpt lat="46.21285" lon="-74.57938">
        <ele>355.17</ele>
      </trkpt>
      <trkpt lat="46.21301" lon="-74.57938">
        <ele>358.1</ele>
      </trkpt>
      <trkpt lat="46.21301" lon="-74.57938">
        <ele>358.1</ele>
      </trkpt>
      <trkpt lat="46.21313" lon="-74.57938">
        <ele>357.71</ele>
      </trkpt>
      <trkpt lat="46.21324" lon="-74.57951">
        <ele>353.1</ele>
      </trkpt>
      <trkpt lat="46.21332" lon="-74.57969">
        <ele>348.61</ele>
      </trkpt>
      <trkpt lat="46.21339" lon="-74.57981">
        <ele>346.89</ele>
      </trkpt>
      <trkpt lat="46.21357" lon="-74.57997">
        <ele>343.1</ele>
      </trkpt>
      <trkpt lat="46.21358" lon="-74.58001">
        <ele>342.11</ele>
      </trkpt>
      <trkpt lat="46.21358" lon="-74.58017">
        <ele>340.25</ele>
      </trkpt>
      <trkpt lat="46.21355" lon="-74.58031">
        <ele>338.82</ele>
      </trkpt>
      <trkpt lat="46.21344" lon="-74.58058">
        <ele>337.98</ele>
      </trkpt>
      <trkpt lat="46.21343" lon="-74.58068">
        <ele>336.98</ele>
      </trkpt>
      <trkpt lat="46.21343" lon="-74.58084">
        <ele>335.2</ele>
      </trkpt>
      <trkpt lat="46.21352" lon="-74.58112">
        <ele>328.71</ele>
      </trkpt>
      <trkpt lat="46.21363" lon="-74.58125">
        <ele>325.77</ele>
      </trkpt>
      <trkpt lat="46.2137" lon="-74.5813">
        <ele>325.75</ele>
      </trkpt>
      <trkpt lat="46.21373" lon="-74.58138">
        <ele>324.74</ele>
      </trkpt>
      <trkpt lat="46.21397" lon="-74.5814">
        <ele>327.22</ele>
      </trkpt>
      <trkpt lat="46.21428" lon="-74.58124">
        <ele>329.05</ele>
      </trkpt>
      <trkpt lat="46.21458" lon="-74.58131">
        <ele>328.95</ele>
      </trkpt>
      <trkpt lat="46.21468" lon="-74.58152">
        <ele>327.43</ele>
      </trkpt>
      <trkpt lat="46.21468" lon="-74.58152">
        <ele>327.43</ele>
      </trkpt>
      <trkpt lat="46.21457" lon="-74.58161">
        <ele>324.19</ele>
      </trkpt>
      <trkpt lat="46.2142" lon="-74.58179">
        <ele>313.86</ele>
      </trkpt>
      <trkpt lat="46.21413" lon="-74.58195">
        <ele>307.31</ele>
      </trkpt>
      <trkpt lat="46.214" lon="-74.58194">
        <ele>305.76</ele>
      </trkpt>
      <trkpt lat="46.21389" lon="-74.5825">
        <ele>288.04</ele>
      </trkpt>
      <trkpt lat="46.2136" lon="-74.58268">
        <ele>279.97</ele>
      </trkpt>
      <trkpt lat="46.21357" lon="-74.5828">
        <ele>277.5</ele>
      </trkpt>
      <trkpt lat="46.21357" lon="-74.58287">
        <ele>276.38</ele>
      </trkpt>
      <trkpt lat="46.21356" lon="-74.58293">
        <ele>275.32</ele>
      </trkpt>
      <trkpt lat="46.21352" lon="-74.58302">
        <ele>273.33</ele>
      </trkpt>
      <trkpt lat="46.21347" lon="-74.5831">
        <ele>270.61</ele>
      </trkpt>
      <trkpt lat="46.21345" lon="-74.58315">
        <ele>268.76</ele>
      </trkpt>
      <trkpt lat="46.21345" lon="-74.5832">
        <ele>267.22</ele>
      </trkpt>
      <trkpt lat="46.21345" lon="-74.58329">
        <ele>264.44</ele>
      </trkpt>
      <trkpt lat="46.21346" lon="-74.5834">
        <ele>262.1</ele>
      </trkpt>
      <trkpt lat="46.21348" lon="-74.58348">
        <ele>260.97</ele>
      </trkpt>
      <trkpt lat="46.21348" lon="-74.58355">
        <ele>259.7</ele>
      </trkpt>
      <trkpt lat="46.21347" lon="-74.58358">
        <ele>259.03</ele>
      </trkpt>
      <trkpt lat="46.21345" lon="-74.58363">
        <ele>258.2</ele>
      </trkpt>
      <trkpt lat="46.21342" lon="-74.58368">
        <ele>257.78</ele>
      </trkpt>
      <trkpt lat="46.21337" lon="-74.58375">
        <ele>257.26</ele>
      </trkpt>
      <trkpt lat="46.21335" lon="-74.58384">
        <ele>257.08</ele>
      </trkpt>
      <trkpt lat="46.21334" lon="-74.58391">
        <ele>257.1</ele>
      </trkpt>
      <trkpt lat="46.21335" lon="-74.58405">
        <ele>257.61</ele>
      </trkpt>
      <trkpt lat="46.21336" lon="-74.58417">
        <ele>258.04</ele>
      </trkpt>
      <trkpt lat="46.21331" lon="-74.58455">
        <ele>260.74</ele>
      </trkpt>
      <trkpt lat="46.21334" lon="-74.58457">
        <ele>260.55</ele>
      </trkpt>
      <trkpt lat="46.21357" lon="-74.58464">
        <ele>258.12</ele>
      </trkpt>
      <trkpt lat="46.2139" lon="-74.58484">
        <ele>257.29</ele>
      </trkpt>
      <trkpt lat="46.21404" lon="-74.58486">
        <ele>259.66</ele>
      </trkpt>
      <trkpt lat="46.21404" lon="-74.58487">
        <ele>259.8</ele>
      </trkpt>
      <trkpt lat="46.21409" lon="-74.58487">
        <ele>260.51</ele>
      </trkpt>
      <trkpt lat="46.21426" lon="-74.58513">
        <ele>266.05</ele>
      </trkpt>
      <trkpt lat="46.21419" lon="-74.58551">
        <ele>263.55</ele>
      </trkpt>
      <trkpt lat="46.21427" lon="-74.58595">
        <ele>263.34</ele>
      </trkpt>
      <trkpt lat="46.21417" lon="-74.5864">
        <ele>258.88</ele>
      </trkpt>
      <trkpt lat="46.21417" lon="-74.5864">
        <ele>258.88</ele>
      </trkpt>
    </trkseg>
  </trk>
</gpx>
